[{"id":"ABYI","lon":"28.42589179051027","lat":"9.78940099079343","name":"Abyei","iso_n3":"","fill":"","featurecla":"PIECE","scalerank":"3","labelrank":"6","continent":"Africa","region_un":"Africa","region_wb":"Sub-Saharan Africa","region_who":"EMRO","name_ar":"","name_bn":"","name_de":"","name_en":"","name_es":"","name_fa":"","name_fr":"","name_el":"","name_he":"","name_hi":"","name_hu":"","name_id":"","name_it":"","name_ja":"","name_ko":"","name_nl":"","name_pl":"","name_pt":"","name_ru":"","name_sv":"","name_tr":"","name_uk":"","name_ur":"","name_vi":"","name_zh":"","name_zht":""},{"id":"AFG","lon":"66.00365050597627","lat":"33.84034788178962","name":"Afghanistan","iso_n3":"004","fill":"#9c755f","featurecla":"Admin-0 country","scalerank":"1","labelrank":"3","continent":"Asia","region_un":"Asia","region_wb":"South Asia","region_who":"EMRO","name_ar":"أفغانستان","name_bn":"আফগানিস্তান","name_de":"Afghanistan","name_en":"Afghanistan","name_es":"Afganistán","name_fa":"افغانستان","name_fr":"Afghanistan","name_el":"Αφγανιστάν","name_he":"אפגניסטן","name_hi":"अफ़्गानिस्तान","name_hu":"Afganisztán","name_id":"Afganistan","name_it":"Afghanistan","name_ja":"アフガニスタン","name_ko":"아프가니스탄","name_nl":"Afghanistan","name_pl":"Afganistan","name_pt":"Afeganistão","name_ru":"Афганистан","name_sv":"Afghanistan","name_tr":"Afganistan","name_uk":"Афганістан","name_ur":"افغانستان","name_vi":"Afghanistan","name_zh":"阿富汗","name_zht":"阿富汗"},{"id":"AGO","lon":"17.498923181088923","lat":"-12.27209065893035","name":"Angola","iso_n3":"024","fill":"#ff9da7","featurecla":"Admin-0 country","scalerank":"1","labelrank":"3","continent":"Africa","region_un":"Africa","region_wb":"Sub-Saharan Africa","region_who":"AFRO","name_ar":"أنغولا","name_bn":"অ্যাঙ্গোলা","name_de":"Angola","name_en":"Angola","name_es":"Angola","name_fa":"آنگولا","name_fr":"Angola","name_el":"Ανγκόλα","name_he":"אנגולה","name_hi":"अंगोला","name_hu":"Angola","name_id":"Angola","name_it":"Angola","name_ja":"アンゴラ","name_ko":"앙골라","name_nl":"Angola","name_pl":"Angola","name_pt":"Angola","name_ru":"Ангола","name_sv":"Angola","name_tr":"Angola","name_uk":"Ангола","name_ur":"انگولا","name_vi":"Angola","name_zh":"安哥拉","name_zht":"安哥拉"},{"id":"AKSA","lon":"79.21089426267352","lat":"34.84923566181821","name":"Aksai Chin","iso_n3":"","fill":"","featurecla":"PIECE","scalerank":"3","labelrank":"6","continent":"Asia","region_un":"Asia","region_wb":"East Asia & Pacific","region_who":"WPRO","name_ar":"","name_bn":"","name_de":"","name_en":"","name_es":"","name_fa":"","name_fr":"","name_el":"","name_he":"","name_hi":"","name_hu":"","name_id":"","name_it":"","name_ja":"","name_ko":"","name_nl":"","name_pl":"","name_pt":"","name_ru":"","name_sv":"","name_tr":"","name_uk":"","name_ur":"","name_vi":"","name_zh":"","name_zht":""},{"id":"ALB","lon":"20.034096404149913","lat":"41.13420353314991","name":"Albania","iso_n3":"008","fill":"#76b7b2","featurecla":"Admin-0 country","scalerank":"1","labelrank":"6","continent":"Europe","region_un":"Europe","region_wb":"Europe & Central Asia","region_who":"EURO","name_ar":"ألبانيا","name_bn":"আলবেনিয়া","name_de":"Albanien","name_en":"Albania","name_es":"Albania","name_fa":"آلبانی","name_fr":"Albanie","name_el":"Αλβανία","name_he":"אלבניה","name_hi":"अल्बानिया","name_hu":"Albánia","name_id":"Albania","name_it":"Albania","name_ja":"アルバニア","name_ko":"알바니아","name_nl":"Albanië","name_pl":"Albania","name_pt":"Albânia","name_ru":"Албания","name_sv":"Albanien","name_tr":"Arnavutluk","name_uk":"Албанія","name_ur":"البانیا","name_vi":"Albania","name_zh":"阿尔巴尼亚","name_zht":"阿爾巴尼亞"},{"id":"ARE","lon":"54.2006759945207","lat":"23.87149868531639","name":"United Arab Emirates","iso_n3":"784","fill":"#ff9da7","featurecla":"Admin-0 country","scalerank":"1","labelrank":"4","continent":"Asia","region_un":"Asia","region_wb":"Middle East & North Africa","region_who":"EMRO","name_ar":"الإمارات العربية المتحدة","name_bn":"সংযুক্ত আরব আমিরাত","name_de":"Vereinigte Arabische Emirate","name_en":"United Arab Emirates","name_es":"Emiratos Árabes Unidos","name_fa":"امارات متحده عربی","name_fr":"Émirats arabes unis","name_el":"Ηνωμένα Αραβικά Εμιράτα","name_he":"איחוד האמירויות הערביות","name_hi":"संयुक्त अरब अमीरात","name_hu":"Egyesült Arab Emírségek","name_id":"Uni Emirat Arab","name_it":"Emirati Arabi Uniti","name_ja":"アラブ首長国連邦","name_ko":"아랍에미리트","name_nl":"Verenigde Arabische Emiraten","name_pl":"Zjednoczone Emiraty Arabskie","name_pt":"Emirados Árabes Unidos","name_ru":"Объединённые Арабские Эмираты","name_sv":"Förenade Arabemiraten","name_tr":"Birleşik Arap Emirlikleri","name_uk":"Об'єднані Арабські Емірати","name_ur":"متحدہ عرب امارات","name_vi":"Các Tiểu vương quốc Ả Rập Thống nhất","name_zh":"阿拉伯联合酋长国","name_zht":"阿拉伯聯合大公國"},{"id":"ARG","lon":"-64.73849605718141","lat":"-34.56958640662245","name":"Argentina","iso_n3":"032","fill":"#59a14f","featurecla":"Admin-0 country","scalerank":"1","labelrank":"2","continent":"South America","region_un":"Americas","region_wb":"Latin America & Caribbean","region_who":"AMRO","name_ar":"الأرجنتين","name_bn":"আর্জেন্টিনা","name_de":"Argentinien","name_en":"Argentina","name_es":"Argentina","name_fa":"آرژانتین","name_fr":"Argentine","name_el":"Αργεντινή","name_he":"ארגנטינה","name_hi":"अर्जेण्टीना","name_hu":"Argentína","name_id":"Argentina","name_it":"Argentina","name_ja":"アルゼンチン","name_ko":"아르헨티나","name_nl":"Argentinië","name_pl":"Argentyna","name_pt":"Argentina","name_ru":"Аргентина","name_sv":"Argentina","name_tr":"Arjantin","name_uk":"Аргентина","name_ur":"ارجنٹائن","name_vi":"Argentina","name_zh":"阿根廷","name_zht":"阿根廷"},{"id":"ARM","lon":"45.00983140342925","lat":"40.214353643539916","name":"Armenia","iso_n3":"051","fill":"#edc949","featurecla":"Admin-0 country","scalerank":"1","labelrank":"6","continent":"Asia","region_un":"Asia","region_wb":"Europe & Central Asia","region_who":"EURO","name_ar":"أرمينيا","name_bn":"আর্মেনিয়া","name_de":"Armenien","name_en":"Armenia","name_es":"Armenia","name_fa":"ارمنستان","name_fr":"Arménie","name_el":"Αρμενία","name_he":"ארמניה","name_hi":"आर्मीनिया","name_hu":"Örményország","name_id":"Armenia","name_it":"Armenia","name_ja":"アルメニア","name_ko":"아르메니아","name_nl":"Armenië","name_pl":"Armenia","name_pt":"Arménia","name_ru":"Армения","name_sv":"Armenien","name_tr":"Ermenistan","name_uk":"Вірменія","name_ur":"آرمینیا","name_vi":"Armenia","name_zh":"亚美尼亚","name_zht":"亞美尼亞"},{"id":"ATA","lon":"83.14741680244573","lat":"-84.77988125581173","name":"Antarctica","iso_n3":"010","fill":"#9c755f","featurecla":"Admin-0 country","scalerank":"1","labelrank":"4","continent":"Antarctica","region_un":"Antarctica","region_wb":"Antarctica","region_who":"","name_ar":"القارة القطبية الجنوبية","name_bn":"অ্যান্টার্কটিকা","name_de":"Antarktika","name_en":"Antarctica","name_es":"Antártida","name_fa":"جنوبگان","name_fr":"Antarctique","name_el":"Ανταρκτική","name_he":"אנטארקטיקה","name_hi":"अंटार्कटिका","name_hu":"Antarktika","name_id":"Antartika","name_it":"Antartide","name_ja":"南極大陸","name_ko":"남극","name_nl":"Antarctica","name_pl":"Antarktyda","name_pt":"Antártida","name_ru":"Антарктида","name_sv":"Antarktis","name_tr":"Antarktika","name_uk":"Антарктида","name_ur":"انٹارکٹکا","name_vi":"Châu Nam Cực","name_zh":"南极洲","name_zht":"南極洲"},{"id":"ATF","lon":"69.5310302124909","lat":"-49.30729944946228","name":"Fr. S. Antarctic Lands","iso_n3":"260","fill":"#4e79a7","featurecla":"Admin-0 country","scalerank":"3","labelrank":"6","continent":"Seven seas (open ocean)","region_un":"Africa","region_wb":"Sub-Saharan Africa","region_who":"","name_ar":"أراض فرنسية جنوبية وأنتارتيكية","name_bn":"ফ্র. এস. অ্যান্ড অ্যান্টার্কটিক ল্যান্ড","name_de":"Französische Süd- und Antarktisgebiete","name_en":"French Southern and Antarctic Lands","name_es":"Tierras Australes y Antárticas Francesas","name_fa":"سرزمینهای جنوبی و جنوبگانی فرانسه","name_fr":"Terres australes et antarctiques françaises","name_el":"Γαλλικά Νότια και Ανταρκτικά Εδάφη","name_he":"הארצות הדרומיות והאנטארקטיות של צרפת","name_hi":"दक्षिण फ्रांसीसी और अंटार्कटिक लैंड","name_hu":"Francia déli és antarktiszi területek","name_id":"Daratan Selatan dan Antarktika Perancis","name_it":"Terre australi e antartiche francesi","name_ja":"フランス領南方・南極地域","name_ko":"프랑스령 남방 및 남극","name_nl":"Franse Zuidelijke Gebieden","name_pl":"Francuskie Terytoria Południowe i Antarktyczne","name_pt":"Terras Austrais e Antárticas Francesas","name_ru":"Французские Южные и Антарктические территории","name_sv":"Franska sydterritorierna","name_tr":"Fransız Güney ve Antarktika Toprakları","name_uk":"Французькі Південні і Антарктичні території","name_ur":"سرزمین جنوبی فرانسیسیہ و انٹارکٹیکا","name_vi":"Vùng đất phía Nam và châu Nam Cực thuộc Pháp","name_zh":"法属南部和南极领地","name_zht":"法屬南部和南極領地"},{"id":"AUS","lon":"134.2255801001199","lat":"-25.618250474312905","name":"Australia","iso_n3":"036","fill":"#af7aa1","featurecla":"Admin-0 country","scalerank":"1","labelrank":"2","continent":"Oceania","region_un":"Oceania","region_wb":"East Asia & Pacific","region_who":"WPRO","name_ar":"أستراليا","name_bn":"অস্ট্রেলিয়া","name_de":"Australien","name_en":"Australia","name_es":"Australia","name_fa":"استرالیا","name_fr":"Australie","name_el":"Αυστραλία","name_he":"אוסטרליה","name_hi":"ऑस्ट्रेलिया","name_hu":"Ausztrália","name_id":"Australia","name_it":"Australia","name_ja":"オーストラリア","name_ko":"오스트레일리아","name_nl":"Australië","name_pl":"Australia","name_pt":"Austrália","name_ru":"Австралия","name_sv":"Australien","name_tr":"Avustralya","name_uk":"Австралія","name_ur":"آسٹریلیا","name_vi":"Úc","name_zh":"澳大利亚","name_zht":"澳大利亞"},{"id":"AUT","lon":"14.061123562528888","lat":"47.621010378006126","name":"Austria","iso_n3":"040","fill":"#f28e2c","featurecla":"Admin-0 country","scalerank":"1","labelrank":"4","continent":"Europe","region_un":"Europe","region_wb":"Europe & Central Asia","region_who":"EURO","name_ar":"النمسا","name_bn":"অস্ট্রিয়া","name_de":"Österreich","name_en":"Austria","name_es":"Austria","name_fa":"اتریش","name_fr":"Autriche","name_el":"Αυστρία","name_he":"אוסטריה","name_hi":"ऑस्ट्रिया","name_hu":"Ausztria","name_id":"Austria","name_it":"Austria","name_ja":"オーストリア","name_ko":"오스트리아","name_nl":"Oostenrijk","name_pl":"Austria","name_pt":"Áustria","name_ru":"Австрия","name_sv":"Österrike","name_tr":"Avusturya","name_uk":"Австрія","name_ur":"آسٹریا","name_vi":"Áo","name_zh":"奥地利","name_zht":"奧地利"},{"id":"AZE","lon":"47.686226664899856","lat":"40.27893431953854","name":"Azerbaijan","iso_n3":"031","fill":"#af7aa1","featurecla":"Admin-0 country","scalerank":"1","labelrank":"5","continent":"Asia","region_un":"Asia","region_wb":"Europe & Central Asia","region_who":"EURO","name_ar":"أذربيجان","name_bn":"আজারবাইজান","name_de":"Aserbaidschan","name_en":"Azerbaijan","name_es":"Azerbaiyán","name_fa":"جمهوری آذربایجان","name_fr":"Azerbaïdjan","name_el":"Αζερμπαϊτζάν","name_he":"אזרבייג'ן","name_hi":"अज़रबैजान","name_hu":"Azerbajdzsán","name_id":"Azerbaijan","name_it":"Azerbaigian","name_ja":"アゼルバイジャン","name_ko":"아제르바이잔","name_nl":"Azerbeidzjan","name_pl":"Azerbejdżan","name_pt":"Azerbaijão","name_ru":"Азербайджан","name_sv":"Azerbajdzjan","name_tr":"Azerbaycan","name_uk":"Азербайджан","name_ur":"آذربائیجان","name_vi":"Azerbaijan","name_zh":"阿塞拜疆","name_zht":"亞塞拜然"},{"id":"BDI","lon":"29.914033849560425","lat":"-3.377226601774969","name":"Burundi","iso_n3":"108","fill":"#ff9da7","featurecla":"Admin-0 country","scalerank":"1","labelrank":"6","continent":"Africa","region_un":"Africa","region_wb":"Sub-Saharan Africa","region_who":"AFRO","name_ar":"بوروندي","name_bn":"বুরুন্ডি","name_de":"Burundi","name_en":"Burundi","name_es":"Burundi","name_fa":"بوروندی","name_fr":"Burundi","name_el":"Μπουρούντι","name_he":"בורונדי","name_hi":"बुरुण्डी","name_hu":"Burundi","name_id":"Burundi","name_it":"Burundi","name_ja":"ブルンジ","name_ko":"부룬디","name_nl":"Burundi","name_pl":"Burundi","name_pt":"Burundi","name_ru":"Бурунди","name_sv":"Burundi","name_tr":"Burundi","name_uk":"Бурунді","name_ur":"برونڈی","name_vi":"Burundi","name_zh":"布隆迪","name_zht":"蒲隆地"},{"id":"BEL","lon":"4.586919984313668","lat":"50.65275971229001","name":"Belgium","iso_n3":"056","fill":"#ff9da7","featurecla":"Admin-0 country","scalerank":"1","labelrank":"2","continent":"Europe","region_un":"Europe","region_wb":"Europe & Central Asia","region_who":"EURO","name_ar":"بلجيكا","name_bn":"বেলজিয়াম","name_de":"Belgien","name_en":"Belgium","name_es":"Bélgica","name_fa":"بلژیک","name_fr":"Belgique","name_el":"Βέλγιο","name_he":"בלגיה","name_hi":"बेल्जियम","name_hu":"Belgium","name_id":"Belgia","name_it":"Belgio","name_ja":"ベルギー","name_ko":"벨기에","name_nl":"België","name_pl":"Belgia","name_pt":"Bélgica","name_ru":"Бельгия","name_sv":"Belgien","name_tr":"Belçika","name_uk":"Бельгія","name_ur":"بلجئیم","name_vi":"Bỉ","name_zh":"比利时","name_zht":"比利時"},{"id":"BEN","lon":"2.3363494260238373","lat":"9.641226571151039","name":"Benin","iso_n3":"204","fill":"#59a14f","featurecla":"Admin-0 country","scalerank":"1","labelrank":"5","continent":"Africa","region_un":"Africa","region_wb":"Sub-Saharan Africa","region_who":"AFRO","name_ar":"بنين","name_bn":"বেনিন","name_de":"Benin","name_en":"Benin","name_es":"Benín","name_fa":"بنین","name_fr":"Bénin","name_el":"Μπενίν","name_he":"בנין","name_hi":"बेनिन","name_hu":"Benin","name_id":"Benin","name_it":"Benin","name_ja":"ベナン","name_ko":"베냉","name_nl":"Benin","name_pl":"Benin","name_pt":"Benim","name_ru":"Бенин","name_sv":"Benin","name_tr":"Benin","name_uk":"Бенін","name_ur":"بینن","name_vi":"Bénin","name_zh":"贝宁","name_zht":"貝南"},{"id":"BFA","lon":"-1.7830523717400357","lat":"12.312755595946902","name":"Burkina Faso","iso_n3":"854","fill":"#af7aa1","featurecla":"Admin-0 country","scalerank":"1","labelrank":"3","continent":"Africa","region_un":"Africa","region_wb":"Sub-Saharan Africa","region_who":"AFRO","name_ar":"بوركينا فاسو","name_bn":"বুর্কিনা ফাসো","name_de":"Burkina Faso","name_en":"Burkina Faso","name_es":"Burkina Faso","name_fa":"بورکینافاسو","name_fr":"Burkina Faso","name_el":"Μπουρκίνα Φάσο","name_he":"בורקינה פאסו","name_hi":"बुर्किना फासो","name_hu":"Burkina Faso","name_id":"Burkina Faso","name_it":"Burkina Faso","name_ja":"ブルキナファソ","name_ko":"부르키나파소","name_nl":"Burkina Faso","name_pl":"Burkina Faso","name_pt":"Burkina Faso","name_ru":"Буркина-Фасо","name_sv":"Burkina Faso","name_tr":"Burkina Faso","name_uk":"Буркіна-Фасо","name_ur":"برکینا فاسو","name_vi":"Burkina Faso","name_zh":"布基纳法索","name_zht":"布基納法索"},{"id":"BGD","lon":"90.2768036794414","lat":"23.833588022914842","name":"Bangladesh","iso_n3":"050","fill":"#59a14f","featurecla":"Admin-0 country","scalerank":"1","labelrank":"3","continent":"Asia","region_un":"Asia","region_wb":"South Asia","region_who":"SEARO","name_ar":"بنغلاديش","name_bn":"বাংলাদেশ","name_de":"Bangladesch","name_en":"Bangladesh","name_es":"Bangladés","name_fa":"بنگلادش","name_fr":"Bangladesh","name_el":"Μπανγκλαντές","name_he":"בנגלדש","name_hi":"बांग्लादेश","name_hu":"Banglades","name_id":"Bangladesh","name_it":"Bangladesh","name_ja":"バングラデシュ","name_ko":"방글라데시","name_nl":"Bangladesh","name_pl":"Bangladesz","name_pt":"Bangladesh","name_ru":"Бангладеш","name_sv":"Bangladesh","name_tr":"Bangladeş","name_uk":"Бангладеш","name_ur":"بنگلہ دیش","name_vi":"Bangladesh","name_zh":"孟加拉国","name_zht":"孟加拉"},{"id":"BGR","lon":"25.187896659016772","lat":"42.755838186452586","name":"Bulgaria","iso_n3":"100","fill":"#4e79a7","featurecla":"Admin-0 country","scalerank":"1","labelrank":"4","continent":"Europe","region_un":"Europe","region_wb":"Europe & Central Asia","region_who":"EURO","name_ar":"بلغاريا","name_bn":"বুলগেরিয়া","name_de":"Bulgarien","name_en":"Bulgaria","name_es":"Bulgaria","name_fa":"بلغارستان","name_fr":"Bulgarie","name_el":"Βουλγαρία","name_he":"בולגריה","name_hi":"बुल्गारिया","name_hu":"Bulgária","name_id":"Bulgaria","name_it":"Bulgaria","name_ja":"ブルガリア","name_ko":"불가리아","name_nl":"Bulgarije","name_pl":"Bułgaria","name_pt":"Bulgária","name_ru":"Болгария","name_sv":"Bulgarien","name_tr":"Bulgaristan","name_uk":"Болгарія","name_ur":"بلغاریہ","name_vi":"Bulgaria","name_zh":"保加利亚","name_zht":"保加利亞"},{"id":"BHS","lon":"-77.91501424414028","lat":"24.505761752828334","name":"Bahamas","iso_n3":"044","fill":"#edc949","featurecla":"Admin-0 country","scalerank":"1","labelrank":"4","continent":"North America","region_un":"Americas","region_wb":"Latin America & Caribbean","region_who":"AMRO","name_ar":"باهاماس","name_bn":"বাহামা দ্বীপপুঞ্জ","name_de":"Bahamas","name_en":"The Bahamas","name_es":"Bahamas","name_fa":"باهاما","name_fr":"Bahamas","name_el":"Μπαχάμες","name_he":"איי בהאמה","name_hi":"बहामास","name_hu":"Bahama-szigetek","name_id":"Bahama","name_it":"Bahamas","name_ja":"バハマ","name_ko":"바하마","name_nl":"Bahama's","name_pl":"Bahamy","name_pt":"Bahamas","name_ru":"Багамские Острова","name_sv":"Bahamas","name_tr":"Bahamalar","name_uk":"Багамські Острови","name_ur":"بہاماس","name_vi":"Bahamas","name_zh":"巴哈马","name_zht":"巴哈馬"},{"id":"BIH","lon":"17.823433853251768","lat":"44.17870829808945","name":"Bosnia and Herz.","iso_n3":"070","fill":"#f28e2c","featurecla":"Admin-0 country","scalerank":"1","labelrank":"5","continent":"Europe","region_un":"Europe","region_wb":"Europe & Central Asia","region_who":"EURO","name_ar":"البوسنة والهرسك","name_bn":"বসনিয়া ও হার্জেগোভিনা","name_de":"Bosnien und Herzegowina","name_en":"Bosnia and Herzegovina","name_es":"Bosnia y Herzegovina","name_fa":"بوسنی و هرزگوین","name_fr":"Bosnie-Herzégovine","name_el":"Βοσνία και Ερζεγοβίνη","name_he":"בוסניה והרצגובינה","name_hi":"बॉस्निया और हर्ज़ेगोविना","name_hu":"Bosznia-Hercegovina","name_id":"Bosnia dan Herzegovina","name_it":"Bosnia ed Erzegovina","name_ja":"ボスニア・ヘルツェゴビナ","name_ko":"보스니아 헤르체고비나","name_nl":"Bosnië en Herzegovina","name_pl":"Bośnia i Hercegowina","name_pt":"Bósnia e Herzegovina","name_ru":"Босния и Герцеговина","name_sv":"Bosnien och Hercegovina","name_tr":"Bosna-Hersek","name_uk":"Боснія і Герцеговина","name_ur":"بوسنیا و ہرزیگووینا","name_vi":"Bosna và Hercegovina","name_zh":"波斯尼亚和黑塞哥维那","name_zht":"波士尼亞與赫塞哥維納"},{"id":"BLR","lon":"27.96491004656633","lat":"53.49530769816388","name":"Belarus","iso_n3":"112","fill":"#ff9da7","featurecla":"Admin-0 country","scalerank":"1","labelrank":"4","continent":"Europe","region_un":"Europe","region_wb":"Europe & Central Asia","region_who":"EURO","name_ar":"بيلاروسيا","name_bn":"বেলারুশ","name_de":"Belarus","name_en":"Belarus","name_es":"Bielorrusia","name_fa":"بلاروس","name_fr":"Biélorussie","name_el":"Λευκορωσία","name_he":"בלארוס","name_hi":"बेलारूस","name_hu":"Fehéroroszország","name_id":"Belarus","name_it":"Bielorussia","name_ja":"ベラルーシ","name_ko":"벨라루스","name_nl":"Wit-Rusland","name_pl":"Białoruś","name_pt":"Bielorrússia","name_ru":"Белоруссия","name_sv":"Belarus","name_tr":"Beyaz Rusya","name_uk":"Білорусь","name_ur":"بیلاروس","name_vi":"Belarus","name_zh":"白俄罗斯","name_zht":"白俄羅斯"},{"id":"BLZ","lon":"-88.70435448350987","lat":"17.19510073262299","name":"Belize","iso_n3":"084","fill":"#ff9da7","featurecla":"Admin-0 country","scalerank":"1","labelrank":"6","continent":"North America","region_un":"Americas","region_wb":"Latin America & Caribbean","region_who":"AMRO","name_ar":"بليز","name_bn":"বেলিজ","name_de":"Belize","name_en":"Belize","name_es":"Belice","name_fa":"بلیز","name_fr":"Belize","name_el":"Μπελίζ","name_he":"בליז","name_hi":"बेलीज़","name_hu":"Belize","name_id":"Belize","name_it":"Belize","name_ja":"ベリーズ","name_ko":"벨리즈","name_nl":"Belize","name_pl":"Belize","name_pt":"Belize","name_ru":"Белиз","name_sv":"Belize","name_tr":"Belize","name_uk":"Беліз","name_ur":"بیلیز","name_vi":"Belize","name_zh":"伯利兹","name_zht":"貝里斯"},{"id":"BOL","lon":"-64.65466772421404","lat":"-16.704018236588883","name":"Bolivia","iso_n3":"068","fill":"#ff9da7","featurecla":"Admin-0 country","scalerank":"1","labelrank":"3","continent":"South America","region_un":"Americas","region_wb":"Latin America & Caribbean","region_who":"AMRO","name_ar":"بوليفيا","name_bn":"বলিভিয়া","name_de":"Bolivien","name_en":"Bolivia","name_es":"Bolivia","name_fa":"بولیوی","name_fr":"Bolivie","name_el":"Βολιβία","name_he":"בוליביה","name_hi":"बोलिविया","name_hu":"Bolívia","name_id":"Bolivia","name_it":"Bolivia","name_ja":"ボリビア","name_ko":"볼리비아","name_nl":"Bolivia","name_pl":"Boliwia","name_pt":"Bolívia","name_ru":"Боливия","name_sv":"Bolivia","name_tr":"Bolivya","name_uk":"Болівія","name_ur":"بولیویا","name_vi":"Bolivia","name_zh":"玻利维亚","name_zht":"玻利維亞"},{"id":"BRA","lon":"-53.17255950569008","lat":"-10.65543630342764","name":"Brazil","iso_n3":"076","fill":"#af7aa1","featurecla":"Admin-0 country","scalerank":"1","labelrank":"2","continent":"South America","region_un":"Americas","region_wb":"Latin America & Caribbean","region_who":"AMRO","name_ar":"البرازيل","name_bn":"ব্রাজিল","name_de":"Brasilien","name_en":"Brazil","name_es":"Brasil","name_fa":"برزیل","name_fr":"Brésil","name_el":"Βραζιλία","name_he":"ברזיל","name_hi":"ब्राज़ील","name_hu":"Brazília","name_id":"Brasil","name_it":"Brasile","name_ja":"ブラジル","name_ko":"브라질","name_nl":"Brazilië","name_pl":"Brazylia","name_pt":"Brasil","name_ru":"Бразилия","name_sv":"Brasilien","name_tr":"Brezilya","name_uk":"Бразилія","name_ur":"برازیل","name_vi":"Brasil","name_zh":"巴西","name_zht":"巴西"},{"id":"BRN","lon":"114.91499528930574","lat":"4.690302499225582","name":"Brunei","iso_n3":"096","fill":"#9c755f","featurecla":"Admin-0 country","scalerank":"1","labelrank":"6","continent":"Asia","region_un":"Asia","region_wb":"East Asia & Pacific","region_who":"WPRO","name_ar":"بروناي","name_bn":"ব্রুনাই","name_de":"Brunei","name_en":"Brunei","name_es":"Brunéi","name_fa":"برونئی","name_fr":"Brunei","name_el":"Μπρουνέι","name_he":"ברוניי","name_hi":"ब्रुनेई","name_hu":"Brunei","name_id":"Brunei Darussalam","name_it":"Brunei","name_ja":"ブルネイ","name_ko":"브루나이","name_nl":"Brunei","name_pl":"Brunei","name_pt":"Brunei","name_ru":"Бруней","name_sv":"Brunei","name_tr":"Brunei","name_uk":"Бруней","name_ur":"برونائی دار السلام","name_vi":"Brunei","name_zh":"文莱","name_zht":"汶萊"},{"id":"BTN","lon":"90.47272751196701","lat":"27.429619991723325","name":"Bhutan","iso_n3":"064","fill":"#edc949","featurecla":"Admin-0 country","scalerank":"1","labelrank":"5","continent":"Asia","region_un":"Asia","region_wb":"South Asia","region_who":"SEARO","name_ar":"بوتان","name_bn":"ভুটান","name_de":"Bhutan","name_en":"Bhutan","name_es":"Bután","name_fa":"بوتان","name_fr":"Bhoutan","name_el":"Μπουτάν","name_he":"בהוטן","name_hi":"भूटान","name_hu":"Bhután","name_id":"Bhutan","name_it":"Bhutan","name_ja":"ブータン","name_ko":"부탄","name_nl":"Bhutan","name_pl":"Bhutan","name_pt":"Butão","name_ru":"Бутан","name_sv":"Bhutan","name_tr":"Bhutan","name_uk":"Бутан","name_ur":"بھوٹان","name_vi":"Bhutan","name_zh":"不丹","name_zht":"不丹"},{"id":"BWA","lon":"23.782967551653698","lat":"-22.082050598289058","name":"Botswana","iso_n3":"072","fill":"#9c755f","featurecla":"Admin-0 country","scalerank":"1","labelrank":"4","continent":"Africa","region_un":"Africa","region_wb":"Sub-Saharan Africa","region_who":"AFRO","name_ar":"بوتسوانا","name_bn":"বতসোয়ানা","name_de":"Botswana","name_en":"Botswana","name_es":"Botsuana","name_fa":"بوتسوانا","name_fr":"Botswana","name_el":"Μποτσουάνα","name_he":"בוטסואנה","name_hi":"बोत्सवाना","name_hu":"Botswana","name_id":"Botswana","name_it":"Botswana","name_ja":"ボツワナ","name_ko":"보츠와나","name_nl":"Botswana","name_pl":"Botswana","name_pt":"Botsuana","name_ru":"Ботсвана","name_sv":"Botswana","name_tr":"Botsvana","name_uk":"Ботсвана","name_ur":"بوٹسوانا","name_vi":"Botswana","name_zh":"博茨瓦纳","name_zht":"波札那"},{"id":"CAF","lon":"20.367630558916698","lat":"6.5467657820563945","name":"Central African Rep.","iso_n3":"140","fill":"#9c755f","featurecla":"Admin-0 country","scalerank":"1","labelrank":"4","continent":"Africa","region_un":"Africa","region_wb":"Sub-Saharan Africa","region_who":"AFRO","name_ar":"جمهورية أفريقيا الوسطى","name_bn":"মধ্য আফ্রিকান প্রজাতন্ত্র","name_de":"Zentralafrikanische Republik","name_en":"Central African Republic","name_es":"República Centroafricana","name_fa":"جمهوری آفریقای مرکزی","name_fr":"République centrafricaine","name_el":"Κεντροαφρικανική Δημοκρατία","name_he":"הרפובליקה המרכז-אפריקאית","name_hi":"मध्य अफ़्रीकी गणराज्य","name_hu":"Közép-afrikai Köztársaság","name_id":"Republik Afrika Tengah","name_it":"Repubblica Centrafricana","name_ja":"中央アフリカ共和国","name_ko":"중앙아프리카 공화국","name_nl":"Centraal-Afrikaanse Republiek","name_pl":"Republika Środkowoafrykańska","name_pt":"República Centro-Africana","name_ru":"Центральноафриканская Республика","name_sv":"Centralafrikanska republiken","name_tr":"Orta Afrika Cumhuriyeti","name_uk":"Центральноафриканська Республіка","name_ur":"وسطی افریقی جمہوریہ","name_vi":"Cộng hòa Trung Phi","name_zh":"中非共和国","name_zht":"中非共和國"},{"id":"CAN","lon":"-97.85915849653648","lat":"58.4498229082331","name":"Canada","iso_n3":"124","fill":"#ff9da7","featurecla":"Admin-0 country","scalerank":"1","labelrank":"2","continent":"North America","region_un":"Americas","region_wb":"North America","region_who":"AMRO","name_ar":"كندا","name_bn":"কানাডা","name_de":"Kanada","name_en":"Canada","name_es":"Canadá","name_fa":"کانادا","name_fr":"Canada","name_el":"Καναδάς","name_he":"קנדה","name_hi":"कनाडा","name_hu":"Kanada","name_id":"Kanada","name_it":"Canada","name_ja":"カナダ","name_ko":"캐나다","name_nl":"Canada","name_pl":"Kanada","name_pt":"Canadá","name_ru":"Канада","name_sv":"Kanada","name_tr":"Kanada","name_uk":"Канада","name_ur":"کینیڈا","name_vi":"Canada","name_zh":"加拿大","name_zht":"加拿大"},{"id":"CHE","lon":"8.115739312516014","lat":"46.79305119772176","name":"Switzerland","iso_n3":"756","fill":"#edc949","featurecla":"Admin-0 country","scalerank":"1","labelrank":"4","continent":"Europe","region_un":"Europe","region_wb":"Europe & Central Asia","region_who":"EURO","name_ar":"سويسرا","name_bn":"সুইজারল্যান্ড","name_de":"Schweiz","name_en":"Switzerland","name_es":"Suiza","name_fa":"سوئیس","name_fr":"Suisse","name_el":"Ελβετία","name_he":"שווייץ","name_hi":"स्विट्ज़रलैण्ड","name_hu":"Svájc","name_id":"Swiss","name_it":"Svizzera","name_ja":"スイス","name_ko":"스위스","name_nl":"Zwitserland","name_pl":"Szwajcaria","name_pt":"Suíça","name_ru":"Швейцария","name_sv":"Schweiz","name_tr":"İsviçre","name_uk":"Швейцарія","name_ur":"سویٹزرلینڈ","name_vi":"Thụy Sĩ","name_zh":"瑞士","name_zht":"瑞士"},{"id":"CHL","lon":"-71.23816679739888","lat":"-35.87973493565719","name":"Chile","iso_n3":"152","fill":"#edc949","featurecla":"Admin-0 country","scalerank":"1","labelrank":"2","continent":"South America","region_un":"Americas","region_wb":"Latin America & Caribbean","region_who":"AMRO","name_ar":"تشيلي","name_bn":"চিলি","name_de":"Chile","name_en":"Chile","name_es":"Chile","name_fa":"شیلی","name_fr":"Chili","name_el":"Χιλή","name_he":"צ'ילה","name_hi":"चिली","name_hu":"Chile","name_id":"Chili","name_it":"Cile","name_ja":"チリ","name_ko":"칠레","name_nl":"Chili","name_pl":"Chile","name_pt":"Chile","name_ru":"Чили","name_sv":"Chile","name_tr":"Şili","name_uk":"Чилі","name_ur":"چلی","name_vi":"Chile","name_zh":"智利","name_zht":"智利"},{"id":"CHN","lon":"103.42477876298135","lat":"36.74837931687952","name":"China","iso_n3":"156","fill":"#4e79a7","featurecla":"Admin-0 country","scalerank":"1","labelrank":"2","continent":"Asia","region_un":"Asia","region_wb":"East Asia & Pacific","region_who":"WPRO","name_ar":"الصين","name_bn":"গণচীন","name_de":"Volksrepublik China","name_en":"People's Republic of China","name_es":"China","name_fa":"جمهوری خلق چین","name_fr":"République populaire de Chine","name_el":"Λαϊκή Δημοκρατία της Κίνας","name_he":"הרפובליקה העממית של סין","name_hi":"चीनी जनवादी गणराज्य","name_hu":"Kína","name_id":"Republik Rakyat Tiongkok","name_it":"Cina","name_ja":"中華人民共和国","name_ko":"중화인민공화국","name_nl":"Volksrepubliek China","name_pl":"Chińska Republika Ludowa","name_pt":"China","name_ru":"Китайская Народная Республика","name_sv":"Kina","name_tr":"Çin Halk Cumhuriyeti","name_uk":"Китайська Народна Республіка","name_ur":"عوامی جمہوریہ چین","name_vi":"Trung Quốc","name_zh":"中华人民共和国","name_zht":"中華人民共和國"},{"id":"CIV","lon":"-5.611993519807218","lat":"7.551393666666226","name":"Côte d'Ivoire","iso_n3":"384","fill":"#f28e2c","featurecla":"Admin-0 country","scalerank":"1","labelrank":"3","continent":"Africa","region_un":"Africa","region_wb":"Sub-Saharan Africa","region_who":"AFRO","name_ar":"ساحل العاج","name_bn":"কোত দিভোয়ার","name_de":"Elfenbeinküste","name_en":"Ivory Coast","name_es":"Costa de Marfil","name_fa":"ساحل عاج","name_fr":"Côte d'Ivoire","name_el":"Ακτή Ελεφαντοστού","name_he":"חוף השנהב","name_hi":"कोत दिव्वार","name_hu":"Elefántcsontpart","name_id":"Pantai Gading","name_it":"Costa d'Avorio","name_ja":"コートジボワール","name_ko":"코트디부아르","name_nl":"Ivoorkust","name_pl":"Wybrzeże Kości Słoniowej","name_pt":"Costa do Marfim","name_ru":"Кот-д’Ивуар","name_sv":"Elfenbenskusten","name_tr":"Fildişi Sahili","name_uk":"Кот-д'Івуар","name_ur":"کوت داوواغ","name_vi":"Bờ Biển Ngà","name_zh":"科特迪瓦","name_zht":"象牙海岸"},{"id":"CMR","lon":"12.605832745547673","lat":"5.654113302666526","name":"Cameroon","iso_n3":"120","fill":"#ff9da7","featurecla":"Admin-0 country","scalerank":"1","labelrank":"3","continent":"Africa","region_un":"Africa","region_wb":"Sub-Saharan Africa","region_who":"AFRO","name_ar":"الكاميرون","name_bn":"ক্যামেরুন","name_de":"Kamerun","name_en":"Cameroon","name_es":"Camerún","name_fa":"کامرون","name_fr":"Cameroun","name_el":"Καμερούν","name_he":"קמרון","name_hi":"कैमरुन","name_hu":"Kamerun","name_id":"Kamerun","name_it":"Camerun","name_ja":"カメルーン","name_ko":"카메룬","name_nl":"Kameroen","name_pl":"Kamerun","name_pt":"Camarões","name_ru":"Камерун","name_sv":"Kamerun","name_tr":"Kamerun","name_uk":"Камерун","name_ur":"کیمرون","name_vi":"Cameroon","name_zh":"喀麦隆","name_zht":"喀麥隆"},{"id":"COD","lon":"23.576839570493316","lat":"-2.838936719787684","name":"Dem. Rep. Congo","iso_n3":"180","fill":"#af7aa1","featurecla":"Admin-0 country","scalerank":"1","labelrank":"2","continent":"Africa","region_un":"Africa","region_wb":"Sub-Saharan Africa","region_who":"AFRO","name_ar":"جمهورية الكونغو الديمقراطية","name_bn":"গণতান্ত্রিক কঙ্গো প্রজাতন্ত্র","name_de":"Demokratische Republik Kongo","name_en":"Democratic Republic of the Congo","name_es":"República Democrática del Congo","name_fa":"جمهوری دموکراتیک کنگو","name_fr":"République démocratique du Congo","name_el":"Λαϊκή Δημοκρατία του Κονγκό","name_he":"הרפובליקה הדמוקרטית של קונגו","name_hi":"कांगो लोकतान्त्रिक गणराज्य","name_hu":"Kongói Demokratikus Köztársaság","name_id":"Republik Demokratik Kongo","name_it":"Repubblica Democratica del Congo","name_ja":"コンゴ民主共和国","name_ko":"콩고 민주 공화국","name_nl":"Congo-Kinshasa","name_pl":"Demokratyczna Republika Konga","name_pt":"República Democrática do Congo","name_ru":"Демократическая Республика Конго","name_sv":"Kongo-Kinshasa","name_tr":"Demokratik Kongo Cumhuriyeti","name_uk":"Демократична Республіка Конго","name_ur":"جمہوری جمہوریہ کانگو","name_vi":"Cộng hòa Dân chủ Congo","name_zh":"刚果民主共和国","name_zht":"剛果民主共和國"},{"id":"COG","lon":"15.136013230143398","lat":"-0.8368022492342536","name":"Congo","iso_n3":"178","fill":"#4e79a7","featurecla":"Admin-0 country","scalerank":"1","labelrank":"4","continent":"Africa","region_un":"Africa","region_wb":"Sub-Saharan Africa","region_who":"AFRO","name_ar":"جمهورية الكونغو","name_bn":"কঙ্গো প্রজাতন্ত্র","name_de":"Republik Kongo","name_en":"Republic of the Congo","name_es":"República del Congo","name_fa":"جمهوری کنگو","name_fr":"République du Congo","name_el":"Δημοκρατία του Κονγκό","name_he":"הרפובליקה של קונגו","name_hi":"कांगो गणराज्य","name_hu":"Kongói Köztársaság","name_id":"Republik Kongo","name_it":"Repubblica del Congo","name_ja":"コンゴ共和国","name_ko":"콩고 공화국","name_nl":"Congo-Brazzaville","name_pl":"Kongo","name_pt":"República do Congo","name_ru":"Республика Конго","name_sv":"Kongo-Brazzaville","name_tr":"Kongo Cumhuriyeti","name_uk":"Республіка Конго","name_ur":"جمہوریہ کانگو","name_vi":"Cộng hòa Congo","name_zh":"刚果共和国","name_zht":"剛果共和國"},{"id":"COL","lon":"-73.07341489988089","lat":"3.916890091818208","name":"Colombia","iso_n3":"170","fill":"#4e79a7","featurecla":"Admin-0 country","scalerank":"1","labelrank":"2","continent":"South America","region_un":"Americas","region_wb":"Latin America & Caribbean","region_who":"AMRO","name_ar":"كولومبيا","name_bn":"কলম্বিয়া","name_de":"Kolumbien","name_en":"Colombia","name_es":"Colombia","name_fa":"کلمبیا","name_fr":"Colombie","name_el":"Κολομβία","name_he":"קולומביה","name_hi":"कोलम्बिया","name_hu":"Kolumbia","name_id":"Kolombia","name_it":"Colombia","name_ja":"コロンビア","name_ko":"콜롬비아","name_nl":"Colombia","name_pl":"Kolumbia","name_pt":"Colômbia","name_ru":"Колумбия","name_sv":"Colombia","name_tr":"Kolombiya","name_uk":"Колумбія","name_ur":"کولمبیا","name_vi":"Colombia","name_zh":"哥伦比亚","name_zht":"哥倫比亞"},{"id":"CRI","lon":"-84.1731053933957","lat":"9.965461833494153","name":"Costa Rica","iso_n3":"188","fill":"#e15759","featurecla":"Admin-0 country","scalerank":"1","labelrank":"5","continent":"North America","region_un":"Americas","region_wb":"Latin America & Caribbean","region_who":"AMRO","name_ar":"كوستاريكا","name_bn":"কোস্টা রিকা","name_de":"Costa Rica","name_en":"Costa Rica","name_es":"Costa Rica","name_fa":"کاستاریکا","name_fr":"Costa Rica","name_el":"Κόστα Ρίκα","name_he":"קוסטה ריקה","name_hi":"कोस्टा रीका","name_hu":"Costa Rica","name_id":"Kosta Rika","name_it":"Costa Rica","name_ja":"コスタリカ","name_ko":"코스타리카","name_nl":"Costa Rica","name_pl":"Kostaryka","name_pt":"Costa Rica","name_ru":"Коста-Рика","name_sv":"Costa Rica","name_tr":"Kosta Rika","name_uk":"Коста-Рика","name_ur":"کوسٹاریکا","name_vi":"Costa Rica","name_zh":"哥斯达黎加","name_zht":"哥斯大黎加"},{"id":"CRMA","lon":"34.308418634652554","lat":"45.29548112010839","name":"Crimea","iso_n3":"","fill":"","featurecla":"PIECE","scalerank":"3","labelrank":"6","continent":"Europe","region_un":"Europe","region_wb":"Europe & Central Asia","region_who":"EURO","name_ar":"","name_bn":"","name_de":"","name_en":"","name_es":"","name_fa":"","name_fr":"","name_el":"","name_he":"","name_hi":"","name_hu":"","name_id":"","name_it":"","name_ja":"","name_ko":"","name_nl":"","name_pl":"","name_pt":"","name_ru":"","name_sv":"","name_tr":"","name_uk":"","name_ur":"","name_vi":"","name_zh":"","name_zht":""},{"id":"CUB","lon":"-78.93115170024161","lat":"21.646982765894553","name":"Cuba","iso_n3":"192","fill":"#af7aa1","featurecla":"Admin-0 country","scalerank":"1","labelrank":"3","continent":"North America","region_un":"Americas","region_wb":"Latin America & Caribbean","region_who":"AMRO","name_ar":"كوبا","name_bn":"কিউবা","name_de":"Kuba","name_en":"Cuba","name_es":"Cuba","name_fa":"کوبا","name_fr":"Cuba","name_el":"Κούβα","name_he":"קובה","name_hi":"क्यूबा","name_hu":"Kuba","name_id":"Kuba","name_it":"Cuba","name_ja":"キューバ","name_ko":"쿠바","name_nl":"Cuba","name_pl":"Kuba","name_pt":"Cuba","name_ru":"Куба","name_sv":"Kuba","name_tr":"Küba","name_uk":"Куба","name_ur":"کیوبا","name_vi":"Cuba","name_zh":"古巴","name_zht":"古巴"},{"id":"CYN","lon":"33.55771451108076","lat":"35.27472460988615","name":"N. Cyprus","iso_n3":"-1","fill":"#4e79a7","featurecla":"Admin-0 country","scalerank":"1","labelrank":"6","continent":"Asia","region_un":"Asia","region_wb":"Europe & Central Asia","region_who":"","name_ar":"قبرص الشمالية","name_bn":"উত্তর সাইপ্রাস","name_de":"Türkische Republik Nordzypern","name_en":"Turkish Republic of Northern Cyprus","name_es":"República Turca del Norte de Chipre","name_fa":"جمهوری ترک قبرس شمالی","name_fr":"Chypre du Nord","name_el":"Τουρκική Δημοκρατία της Βόρειας Κύπρου","name_he":"הרפובליקה הטורקית של צפון קפריסין","name_hi":"उत्तरी साइप्रस","name_hu":"Észak-Ciprus","name_id":"Republik Turki Siprus Utara","name_it":"Cipro del Nord","name_ja":"北キプロス・トルコ共和国","name_ko":"북키프로스","name_nl":"Noord-Cyprus","name_pl":"Cypr Północny","name_pt":"República Turca do Chipre do Norte","name_ru":"Турецкая Республика Северного Кипра","name_sv":"Nordcypern","name_tr":"Kuzey Kıbrıs Türk Cumhuriyeti","name_uk":"Турецька Республіка Північного Кіпру","name_ur":"ترک جمہوریہ شمالی قبرص","name_vi":"Bắc Síp","name_zh":"北塞浦路斯土耳其共和国","name_zht":"北賽普勒斯土耳其共和國"},{"id":"CYP","lon":"33.03871953466749","lat":"34.90780740180796","name":"Cyprus","iso_n3":"196","fill":"#f28e2c","featurecla":"Admin-0 country","scalerank":"1","labelrank":"5","continent":"Asia","region_un":"Asia","region_wb":"Europe & Central Asia","region_who":"EURO","name_ar":"قبرص","name_bn":"সাইপ্রাস","name_de":"Republik Zypern","name_en":"Cyprus","name_es":"Chipre","name_fa":"قبرس","name_fr":"Chypre","name_el":"Κύπρος","name_he":"קפריסין","name_hi":"साइप्रस","name_hu":"Ciprus","name_id":"Siprus","name_it":"Cipro","name_ja":"キプロス","name_ko":"키프로스","name_nl":"Cyprus","name_pl":"Cypr","name_pt":"Chipre","name_ru":"Кипр","name_sv":"Cypern","name_tr":"Kıbrıs Cumhuriyeti","name_uk":"Кіпр","name_ur":"قبرص","name_vi":"Cộng hòa Síp","name_zh":"塞浦路斯","name_zht":"賽普勒斯"},{"id":"CZE","lon":"15.343243618792016","lat":"49.77965935437406","name":"Czechia","iso_n3":"203","fill":"#76b7b2","featurecla":"Admin-0 country","scalerank":"1","labelrank":"5","continent":"Europe","region_un":"Europe","region_wb":"Europe & Central Asia","region_who":"EURO","name_ar":"التشيك","name_bn":"চেক প্রজাতন্ত্র","name_de":"Tschechien","name_en":"Czech Republic","name_es":"República Checa","name_fa":"جمهوری چک","name_fr":"Tchéquie","name_el":"Τσεχία","name_he":"צ'כיה","name_hi":"चेक गणराज्य","name_hu":"Csehország","name_id":"Republik Ceko","name_it":"Repubblica Ceca","name_ja":"チェコ","name_ko":"체코","name_nl":"Tsjechië","name_pl":"Czechy","name_pt":"Chéquia","name_ru":"Чехия","name_sv":"Tjeckien","name_tr":"Çek Cumhuriyeti","name_uk":"Чехія","name_ur":"چیک جمہوریہ","name_vi":"Cộng hòa Séc","name_zh":"捷克","name_zht":"捷克共和國"},{"id":"DEU","lon":"10.270439759446337","lat":"51.07731333800235","name":"Germany","iso_n3":"276","fill":"#9c755f","featurecla":"Admin-0 country","scalerank":"1","labelrank":"2","continent":"Europe","region_un":"Europe","region_wb":"Europe & Central Asia","region_who":"EURO","name_ar":"ألمانيا","name_bn":"জার্মানি","name_de":"Deutschland","name_en":"Germany","name_es":"Alemania","name_fa":"آلمان","name_fr":"Allemagne","name_el":"Γερμανία","name_he":"גרמניה","name_hi":"जर्मनी","name_hu":"Németország","name_id":"Jerman","name_it":"Germania","name_ja":"ドイツ","name_ko":"독일","name_nl":"Duitsland","name_pl":"Niemcy","name_pt":"Alemanha","name_ru":"Германия","name_sv":"Tyskland","name_tr":"Almanya","name_uk":"Німеччина","name_ur":"جرمنی","name_vi":"Đức","name_zh":"德国","name_zht":"德國"},{"id":"DJI","lon":"42.49749843708743","lat":"11.772747687160933","name":"Djibouti","iso_n3":"262","fill":"#af7aa1","featurecla":"Admin-0 country","scalerank":"1","labelrank":"5","continent":"Africa","region_un":"Africa","region_wb":"Middle East & North Africa","region_who":"EMRO","name_ar":"جيبوتي","name_bn":"জিবুতি","name_de":"Dschibuti","name_en":"Djibouti","name_es":"Yibuti","name_fa":"جیبوتی","name_fr":"Djibouti","name_el":"Τζιμπουτί","name_he":"ג'יבוטי","name_hi":"जिबूती","name_hu":"Dzsibuti","name_id":"Djibouti","name_it":"Gibuti","name_ja":"ジブチ","name_ko":"지부티","name_nl":"Djibouti","name_pl":"Dżibuti","name_pt":"Djibouti","name_ru":"Джибути","name_sv":"Djibouti","name_tr":"Cibuti","name_uk":"Джибуті","name_ur":"جبوتی","name_vi":"Djibouti","name_zh":"吉布提","name_zht":"吉布地"},{"id":"DNK","lon":"9.302446290564934","lat":"56.21011215646454","name":"Denmark","iso_n3":"208","fill":"#f28e2c","featurecla":"Admin-0 country","scalerank":"1","labelrank":"4","continent":"Europe","region_un":"Europe","region_wb":"Europe & Central Asia","region_who":"EURO","name_ar":"الدنمارك","name_bn":"ডেনমার্ক","name_de":"Dänemark","name_en":"Denmark","name_es":"Dinamarca","name_fa":"دانمارک","name_fr":"Danemark","name_el":"Δανία","name_he":"דנמרק","name_hi":"डेनमार्क","name_hu":"Dánia","name_id":"Denmark","name_it":"Danimarca","name_ja":"デンマーク","name_ko":"덴마크","name_nl":"Denemarken","name_pl":"Dania","name_pt":"Dinamarca","name_ru":"Дания","name_sv":"Danmark","name_tr":"Danimarka","name_uk":"Данія","name_ur":"ڈنمارک","name_vi":"Đan Mạch","name_zh":"丹麦","name_zht":"丹麥"},{"id":"DOM","lon":"-70.46192196924756","lat":"18.885400264151517","name":"Dominican Rep.","iso_n3":"214","fill":"#76b7b2","featurecla":"Admin-0 country","scalerank":"1","labelrank":"5","continent":"North America","region_un":"Americas","region_wb":"Latin America & Caribbean","region_who":"AMRO","name_ar":"جمهورية الدومينيكان","name_bn":"ডোমিনিকান প্রজাতন্ত্র","name_de":"Dominikanische Republik","name_en":"Dominican Republic","name_es":"República Dominicana","name_fa":"جمهوری دومینیکن","name_fr":"République dominicaine","name_el":"Δομινικανή Δημοκρατία","name_he":"הרפובליקה הדומיניקנית","name_hi":"डोमिनिकन गणराज्य","name_hu":"Dominikai Köztársaság","name_id":"Republik Dominika","name_it":"Repubblica Dominicana","name_ja":"ドミニカ共和国","name_ko":"도미니카 공화국","name_nl":"Dominicaanse Republiek","name_pl":"Dominikana","name_pt":"República Dominicana","name_ru":"Доминиканская Республика","name_sv":"Dominikanska republiken","name_tr":"Dominik Cumhuriyeti","name_uk":"Домініканська Республіка","name_ur":"جمہوریہ ڈومینیکن","name_vi":"Cộng hòa Dominica","name_zh":"多米尼加","name_zht":"多明尼加"},{"id":"DZA","lon":"2.6120318945465635","lat":"28.085750135320083","name":"Algeria","iso_n3":"012","fill":"#ff9da7","featurecla":"Admin-0 country","scalerank":"1","labelrank":"3","continent":"Africa","region_un":"Africa","region_wb":"Middle East & North Africa","region_who":"AFRO","name_ar":"الجزائر","name_bn":"আলজেরিয়া","name_de":"Algerien","name_en":"Algeria","name_es":"Argelia","name_fa":"الجزایر","name_fr":"Algérie","name_el":"Αλγερία","name_he":"אלג'יריה","name_hi":"अल्जीरिया","name_hu":"Algéria","name_id":"Aljazair","name_it":"Algeria","name_ja":"アルジェリア","name_ko":"알제리","name_nl":"Algerije","name_pl":"Algieria","name_pt":"Argélia","name_ru":"Алжир","name_sv":"Algeriet","name_tr":"Cezayir","name_uk":"Алжир","name_ur":"الجزائر","name_vi":"Algérie","name_zh":"阿尔及利亚","name_zht":"阿爾及利亞"},{"id":"ECU","lon":"-78.38356921602876","lat":"-1.4541825175872267","name":"Ecuador","iso_n3":"218","fill":"#76b7b2","featurecla":"Admin-0 country","scalerank":"1","labelrank":"3","continent":"South America","region_un":"Americas","region_wb":"Latin America & Caribbean","region_who":"AMRO","name_ar":"الإكوادور","name_bn":"ইকুয়েডর","name_de":"Ecuador","name_en":"Ecuador","name_es":"Ecuador","name_fa":"اکوادور","name_fr":"Équateur","name_el":"Εκουαδόρ","name_he":"אקוודור","name_hi":"ईक्वाडोर","name_hu":"Ecuador","name_id":"Ekuador","name_it":"Ecuador","name_ja":"エクアドル","name_ko":"에콰도르","name_nl":"Ecuador","name_pl":"Ekwador","name_pt":"Equador","name_ru":"Эквадор","name_sv":"Ecuador","name_tr":"Ekvador","name_uk":"Еквадор","name_ur":"ایکواڈور","name_vi":"Ecuador","name_zh":"厄瓜多尔","name_zht":"厄瓜多爾"},{"id":"EGY","lon":"29.861516823819","lat":"26.475686356549005","name":"Egypt","iso_n3":"818","fill":"#76b7b2","featurecla":"Admin-0 country","scalerank":"1","labelrank":"2","continent":"Africa","region_un":"Africa","region_wb":"Middle East & North Africa","region_who":"EMRO","name_ar":"مصر","name_bn":"মিশর","name_de":"Ägypten","name_en":"Egypt","name_es":"Egipto","name_fa":"مصر","name_fr":"Égypte","name_el":"Αίγυπτος","name_he":"מצרים","name_hi":"मिस्र","name_hu":"Egyiptom","name_id":"Mesir","name_it":"Egitto","name_ja":"エジプト","name_ko":"이집트","name_nl":"Egypte","name_pl":"Egipt","name_pt":"Egito","name_ru":"Египет","name_sv":"Egypten","name_tr":"Mısır","name_uk":"Єгипет","name_ur":"مصر","name_vi":"Ai Cập","name_zh":"埃及","name_zht":"埃及"},{"id":"ERI","lon":"38.68881983862753","lat":"15.427086181404894","name":"Eritrea","iso_n3":"232","fill":"#59a14f","featurecla":"Admin-0 country","scalerank":"1","labelrank":"4","continent":"Africa","region_un":"Africa","region_wb":"Sub-Saharan Africa","region_who":"AFRO","name_ar":"إريتريا","name_bn":"ইরিত্রিয়া","name_de":"Eritrea","name_en":"Eritrea","name_es":"Eritrea","name_fa":"اریتره","name_fr":"Érythrée","name_el":"Ερυθραία","name_he":"אריתריאה","name_hi":"इरित्रिया","name_hu":"Eritrea","name_id":"Eritrea","name_it":"Eritrea","name_ja":"エリトリア","name_ko":"에리트레아","name_nl":"Eritrea","name_pl":"Erytrea","name_pt":"Eritreia","name_ru":"Эритрея","name_sv":"Eritrea","name_tr":"Eritre","name_uk":"Еритрея","name_ur":"اریتریا","name_vi":"Eritrea","name_zh":"厄立特里亚","name_zht":"厄利垂亞"},{"id":"ESH","lon":"-13.165195103154517","lat":"24.659912192146336","name":"W. Sahara","iso_n3":"732","fill":"#af7aa1","featurecla":"Admin-0 country","scalerank":"1","labelrank":"7","continent":"Africa","region_un":"Africa","region_wb":"Middle East & North Africa","region_who":"AFRO","name_ar":"الصحراء الغربية","name_bn":"পশ্চিম সাহারা","name_de":"Westsahara","name_en":"Western Sahara","name_es":"Sahara Occidental","name_fa":"صحرای غربی","name_fr":"Sahara occidental","name_el":"Δυτική Σαχάρα","name_he":"סהרה המערבית","name_hi":"पश्चिमी सहारा","name_hu":"Nyugat-Szahara","name_id":"Sahara Barat","name_it":"Sahara Occidentale","name_ja":"西サハラ","name_ko":"서사하라","name_nl":"Westelijke Sahara","name_pl":"Sahara Zachodnia","name_pt":"Sara Ocidental","name_ru":"Западная Сахара","name_sv":"Västsahara","name_tr":"Batı Sahra","name_uk":"Західна Сахара","name_ur":"مغربی صحارا","name_vi":"Tây Sahara","name_zh":"西撒哈拉","name_zht":"西撒哈拉"},{"id":"ESP","lon":"-3.624326269454768","lat":"40.32048996260356","name":"Spain","iso_n3":"724","fill":"#f28e2c","featurecla":"Admin-0 country","scalerank":"1","labelrank":"2","continent":"Europe","region_un":"Europe","region_wb":"Europe & Central Asia","region_who":"EURO","name_ar":"إسبانيا","name_bn":"স্পেন","name_de":"Spanien","name_en":"Spain","name_es":"España","name_fa":"اسپانیا","name_fr":"Espagne","name_el":"Ισπανία","name_he":"ספרד","name_hi":"स्पेन","name_hu":"Spanyolország","name_id":"Spanyol","name_it":"Spagna","name_ja":"スペイン","name_ko":"스페인","name_nl":"Spanje","name_pl":"Hiszpania","name_pt":"Espanha","name_ru":"Испания","name_sv":"Spanien","name_tr":"İspanya","name_uk":"Іспанія","name_ur":"ہسپانیہ","name_vi":"Tây Ban Nha","name_zh":"西班牙","name_zht":"西班牙"},{"id":"EST","lon":"25.83008789274069","lat":"58.641571414645725","name":"Estonia","iso_n3":"233","fill":"#ff9da7","featurecla":"Admin-0 country","scalerank":"1","labelrank":"6","continent":"Europe","region_un":"Europe","region_wb":"Europe & Central Asia","region_who":"EURO","name_ar":"إستونيا","name_bn":"এস্তোনিয়া","name_de":"Estland","name_en":"Estonia","name_es":"Estonia","name_fa":"استونی","name_fr":"Estonie","name_el":"Εσθονία","name_he":"אסטוניה","name_hi":"एस्टोनिया","name_hu":"Észtország","name_id":"Estonia","name_it":"Estonia","name_ja":"エストニア","name_ko":"에스토니아","name_nl":"Estland","name_pl":"Estonia","name_pt":"Estónia","name_ru":"Эстония","name_sv":"Estland","name_tr":"Estonya","name_uk":"Естонія","name_ur":"استونیا","name_vi":"Estonia","name_zh":"爱沙尼亚","name_zht":"愛沙尼亞"},{"id":"ETH","lon":"39.56007370100575","lat":"8.645620232347198","name":"Ethiopia","iso_n3":"231","fill":"#edc949","featurecla":"Admin-0 country","scalerank":"1","labelrank":"2","continent":"Africa","region_un":"Africa","region_wb":"Sub-Saharan Africa","region_who":"AFRO","name_ar":"إثيوبيا","name_bn":"ইথিওপিয়া","name_de":"Äthiopien","name_en":"Ethiopia","name_es":"Etiopía","name_fa":"اتیوپی","name_fr":"Éthiopie","name_el":"Αιθιοπία","name_he":"אתיופיה","name_hi":"इथियोपिया","name_hu":"Etiópia","name_id":"Ethiopia","name_it":"Etiopia","name_ja":"エチオピア","name_ko":"에티오피아","name_nl":"Ethiopië","name_pl":"Etiopia","name_pt":"Etiópia","name_ru":"Эфиопия","name_sv":"Etiopien","name_tr":"Etiyopya","name_uk":"Ефіопія","name_ur":"ایتھوپیا","name_vi":"Ethiopia","name_zh":"埃塞俄比亚","name_zht":"衣索比亞"},{"id":"FIN","lon":"26.14195119652387","lat":"64.26143454180604","name":"Finland","iso_n3":"246","fill":"#f28e2c","featurecla":"Admin-0 country","scalerank":"1","labelrank":"3","continent":"Europe","region_un":"Europe","region_wb":"Europe & Central Asia","region_who":"EURO","name_ar":"فنلندا","name_bn":"ফিনল্যান্ড","name_de":"Finnland","name_en":"Finland","name_es":"Finlandia","name_fa":"فنلاند","name_fr":"Finlande","name_el":"Φινλανδία","name_he":"פינלנד","name_hi":"फ़िनलैण्ड","name_hu":"Finnország","name_id":"Finlandia","name_it":"Finlandia","name_ja":"フィンランド","name_ko":"핀란드","name_nl":"Finland","name_pl":"Finlandia","name_pt":"Finlândia","name_ru":"Финляндия","name_sv":"Finland","name_tr":"Finlandiya","name_uk":"Фінляндія","name_ur":"فن لینڈ","name_vi":"Phần Lan","name_zh":"芬兰","name_zht":"芬蘭"},{"id":"FJI","lon":"177.99719177971875","lat":"-17.83112647437822","name":"Fiji","iso_n3":"242","fill":"#59a14f","featurecla":"Admin-0 country","scalerank":"1","labelrank":"6","continent":"Oceania","region_un":"Oceania","region_wb":"East Asia & Pacific","region_who":"WPRO","name_ar":"فيجي","name_bn":"ফিজি","name_de":"Fidschi","name_en":"Fiji","name_es":"Fiyi","name_fa":"فیجی","name_fr":"Fidji","name_el":"Φίτζι","name_he":"פיג'י","name_hi":"फ़िजी","name_hu":"Fidzsi-szigetek","name_id":"Fiji","name_it":"Figi","name_ja":"フィジー","name_ko":"피지","name_nl":"Fiji","name_pl":"Fidżi","name_pt":"Fiji","name_ru":"Фиджи","name_sv":"Fiji","name_tr":"Fiji","name_uk":"Фіджі","name_ur":"فجی","name_vi":"Fiji","name_zh":"斐济","name_zht":"斐濟"},{"id":"FLK","lon":"-59.41698377615848","lat":"-51.71651538650911","name":"Falkland Is.","iso_n3":"238","fill":"#af7aa1","featurecla":"Admin-0 country","scalerank":"1","labelrank":"5","continent":"South America","region_un":"Americas","region_wb":"Latin America & Caribbean","region_who":"AMRO","name_ar":"جزر فوكلاند","name_bn":"ফকল্যান্ড দ্বীপপুঞ্জ","name_de":"Falklandinseln","name_en":"Falkland Islands","name_es":"Islas Malvinas","name_fa":"جزایر فالکلند","name_fr":"îles Malouines","name_el":"Νήσοι Φώκλαντ","name_he":"איי פוקלנד","name_hi":"फ़ॉकलैंड द्वीपसमूह","name_hu":"Falkland-szigetek","name_id":"Kepulauan Falkland","name_it":"Isole Falkland","name_ja":"フォークランド諸島","name_ko":"포클랜드 제도","name_nl":"Falklandeilanden","name_pl":"Falklandy","name_pt":"Ilhas Malvinas","name_ru":"Фолклендские острова","name_sv":"Falklandsöarna","name_tr":"Falkland Adaları","name_uk":"Фолклендські острови","name_ur":"جزائر فاکلینڈ","name_vi":"Quần đảo Falkland","name_zh":"福克兰群岛","name_zht":"福克蘭群島"},{"id":"FRA","lon":"2.3493390499091733","lat":"46.55887712470802","name":"France","iso_n3":"","fill":"#e15759","featurecla":"Admin-0 country","scalerank":"1","labelrank":"2","continent":"Europe","region_un":"Europe","region_wb":"Europe & Central Asia","region_who":"EURO","name_ar":"فرنسا","name_bn":"ফ্রান্স","name_de":"Frankreich","name_en":"France","name_es":"Francia","name_fa":"فرانسه","name_fr":"France","name_el":"Γαλλία","name_he":"צרפת","name_hi":"फ़्रान्स","name_hu":"Franciaország","name_id":"Prancis","name_it":"Francia","name_ja":"フランス","name_ko":"프랑스","name_nl":"Frankrijk","name_pl":"Francja","name_pt":"França","name_ru":"Франция","name_sv":"Frankrike","name_tr":"Fransa","name_uk":"Франція","name_ur":"فرانس","name_vi":"Pháp","name_zh":"法国","name_zht":"法國"},{"id":"GAB","lon":"11.687838753842257","lat":"-0.646917957299105","name":"Gabon","iso_n3":"266","fill":"#f28e2c","featurecla":"Admin-0 country","scalerank":"1","labelrank":"4","continent":"Africa","region_un":"Africa","region_wb":"Sub-Saharan Africa","region_who":"AFRO","name_ar":"الغابون","name_bn":"গ্যাবন","name_de":"Gabun","name_en":"Gabon","name_es":"Gabón","name_fa":"گابن","name_fr":"Gabon","name_el":"Γκαμπόν","name_he":"גבון","name_hi":"गबॉन","name_hu":"Gabon","name_id":"Gabon","name_it":"Gabon","name_ja":"ガボン","name_ko":"가봉","name_nl":"Gabon","name_pl":"Gabon","name_pt":"Gabão","name_ru":"Габон","name_sv":"Gabon","name_tr":"Gabon","name_uk":"Габон","name_ur":"گیبون","name_vi":"Gabon","name_zh":"加蓬","name_zht":"加彭"},{"id":"GBR","lon":"-2.565895928897334","lat":"53.76868240658356","name":"United Kingdom","iso_n3":"826","fill":"#76b7b2","featurecla":"Admin-0 country","scalerank":"1","labelrank":"2","continent":"Europe","region_un":"Europe","region_wb":"Europe & Central Asia","region_who":"EURO","name_ar":"المملكة المتحدة","name_bn":"যুক্তরাজ্য","name_de":"Vereinigtes Königreich","name_en":"United Kingdom","name_es":"Reino Unido","name_fa":"بریتانیا","name_fr":"Royaume-Uni","name_el":"Ηνωμένο Βασίλειο","name_he":"הממלכה המאוחדת","name_hi":"यूनाइटेड किंगडम","name_hu":"Egyesült Királyság","name_id":"Britania Raya","name_it":"Regno Unito","name_ja":"イギリス","name_ko":"영국","name_nl":"Verenigd Koninkrijk","name_pl":"Wielka Brytania","name_pt":"Reino Unido","name_ru":"Великобритания","name_sv":"Storbritannien","name_tr":"Birleşik Krallık","name_uk":"Велика Британія","name_ur":"مملکت متحدہ","name_vi":"Vương quốc Liên hiệp Anh và Bắc Ireland","name_zh":"英国","name_zht":"英國"},{"id":"GEO","lon":"43.499112315524506","lat":"42.16761165463408","name":"Georgia","iso_n3":"268","fill":"#ff9da7","featurecla":"Admin-0 country","scalerank":"1","labelrank":"5","continent":"Asia","region_un":"Asia","region_wb":"Europe & Central Asia","region_who":"EURO","name_ar":"جورجيا","name_bn":"জর্জিয়া","name_de":"Georgien","name_en":"Georgia","name_es":"Georgia","name_fa":"گرجستان","name_fr":"Géorgie","name_el":"Γεωργία","name_he":"גאורגיה","name_hi":"जॉर्जिया","name_hu":"Grúzia","name_id":"Georgia","name_it":"Georgia","name_ja":"ジョージア","name_ko":"조지아","name_nl":"Georgië","name_pl":"Gruzja","name_pt":"Geórgia","name_ru":"Грузия","name_sv":"Georgien","name_tr":"Gürcistan","name_uk":"Грузія","name_ur":"جارجیا","name_vi":"Gruzia","name_zh":"格鲁吉亚","name_zht":"喬治亞"},{"id":"GHA","lon":"-1.237166496551762","lat":"7.923032784256636","name":"Ghana","iso_n3":"288","fill":"#4e79a7","featurecla":"Admin-0 country","scalerank":"1","labelrank":"3","continent":"Africa","region_un":"Africa","region_wb":"Sub-Saharan Africa","region_who":"AFRO","name_ar":"غانا","name_bn":"ঘানা","name_de":"Ghana","name_en":"Ghana","name_es":"Ghana","name_fa":"غنا","name_fr":"Ghana","name_el":"Γκάνα","name_he":"גאנה","name_hi":"घाना","name_hu":"Ghána","name_id":"Ghana","name_it":"Ghana","name_ja":"ガーナ","name_ko":"가나","name_nl":"Ghana","name_pl":"Ghana","name_pt":"Gana","name_ru":"Гана","name_sv":"Ghana","name_tr":"Gana","name_uk":"Гана","name_ur":"گھانا","name_vi":"Ghana","name_zh":"加纳","name_zht":"迦納"},{"id":"GILG","lon":"74.91476599369003","lat":"35.5574015397985","name":"Gilgit and Azad","iso_n3":"","fill":"","featurecla":"PIECE","scalerank":"3","labelrank":"6","continent":"Asia","region_un":"Asia","region_wb":"South Asia","region_who":"EMRO","name_ar":"","name_bn":"","name_de":"","name_en":"","name_es":"","name_fa":"","name_fr":"","name_el":"","name_he":"","name_hi":"","name_hu":"","name_id":"","name_it":"","name_ja":"","name_ko":"","name_nl":"","name_pl":"","name_pt":"","name_ru":"","name_sv":"","name_tr":"","name_uk":"","name_ur":"","name_vi":"","name_zh":"","name_zht":""},{"id":"GIN","lon":"-11.055139061652204","lat":"10.449799189831825","name":"Guinea","iso_n3":"324","fill":"#76b7b2","featurecla":"Admin-0 country","scalerank":"1","labelrank":"3","continent":"Africa","region_un":"Africa","region_wb":"Sub-Saharan Africa","region_who":"AFRO","name_ar":"غينيا","name_bn":"গিনি","name_de":"Guinea","name_en":"Guinea","name_es":"Guinea","name_fa":"گینه","name_fr":"Guinée","name_el":"Γουινέα","name_he":"גינאה","name_hi":"गिनी","name_hu":"Guinea","name_id":"Guinea","name_it":"Guinea","name_ja":"ギニア","name_ko":"기니","name_nl":"Guinee","name_pl":"Gwinea","name_pt":"Guiné","name_ru":"Гвинея","name_sv":"Guinea","name_tr":"Gine","name_uk":"Гвінея","name_ur":"جمہوریہ گنی","name_vi":"Guinée","name_zh":"几内亚","name_zht":"幾內亞"},{"id":"GMB","lon":"-15.43245486945954","lat":"13.476705346165549","name":"Gambia","iso_n3":"270","fill":"#76b7b2","featurecla":"Admin-0 country","scalerank":"1","labelrank":"6","continent":"Africa","region_un":"Africa","region_wb":"Sub-Saharan Africa","region_who":"AFRO","name_ar":"غامبيا","name_bn":"গাম্বিয়া","name_de":"Gambia","name_en":"The Gambia","name_es":"Gambia","name_fa":"گامبیا","name_fr":"Gambie","name_el":"Γκάμπια","name_he":"גמביה","name_hi":"गाम्बिया","name_hu":"Gambia","name_id":"Gambia","name_it":"Gambia","name_ja":"ガンビア","name_ko":"감비아","name_nl":"Gambia","name_pl":"Gambia","name_pt":"Gâmbia","name_ru":"Гамбия","name_sv":"Gambia","name_tr":"Gambiya","name_uk":"Гамбія","name_ur":"گیمبیا","name_vi":"Gambia","name_zh":"冈比亚","name_zht":"甘比亞"},{"id":"GNB","lon":"-15.110407723896978","lat":"12.023628202312427","name":"Guinea-Bissau","iso_n3":"624","fill":"#59a14f","featurecla":"Admin-0 country","scalerank":"1","labelrank":"6","continent":"Africa","region_un":"Africa","region_wb":"Sub-Saharan Africa","region_who":"AFRO","name_ar":"غينيا بيساو","name_bn":"গিনি-বিসাউ","name_de":"Guinea-Bissau","name_en":"Guinea-Bissau","name_es":"Guinea-Bisáu","name_fa":"گینه بیسائو","name_fr":"Guinée-Bissau","name_el":"Γουινέα-Μπισσάου","name_he":"גינאה ביסאו","name_hi":"गिनी-बिसाऊ","name_hu":"Bissau-Guinea","name_id":"Guinea-Bissau","name_it":"Guinea-Bissau","name_ja":"ギニアビサウ","name_ko":"기니비사우","name_nl":"Guinee-Bissau","name_pl":"Gwinea Bissau","name_pt":"Guiné-Bissau","name_ru":"Гвинея-Бисау","name_sv":"Guinea-Bissau","name_tr":"Gine-Bissau","name_uk":"Гвінея-Бісау","name_ur":"گنی بساؤ","name_vi":"Guiné-Bissau","name_zh":"几内亚比绍","name_zht":"幾內亞比索"},{"id":"GNQ","lon":"10.36600375975049","lat":"1.6459674502113855","name":"Eq. Guinea","iso_n3":"226","fill":"#e15759","featurecla":"Admin-0 country","scalerank":"1","labelrank":"4","continent":"Africa","region_un":"Africa","region_wb":"Sub-Saharan Africa","region_who":"AFRO","name_ar":"غينيا الاستوائية","name_bn":"বিষুবীয় গিনি","name_de":"Äquatorialguinea","name_en":"Equatorial Guinea","name_es":"Guinea Ecuatorial","name_fa":"گینه استوایی","name_fr":"Guinée équatoriale","name_el":"Ισημερινή Γουινέα","name_he":"גינאה המשוונית","name_hi":"भूमध्यरेखीय गिनी","name_hu":"Egyenlítői-Guinea","name_id":"Guinea Khatulistiwa","name_it":"Guinea Equatoriale","name_ja":"赤道ギニア","name_ko":"적도 기니","name_nl":"Equatoriaal-Guinea","name_pl":"Gwinea Równikowa","name_pt":"Guiné Equatorial","name_ru":"Экваториальная Гвинея","name_sv":"Ekvatorialguinea","name_tr":"Ekvator Ginesi","name_uk":"Екваторіальна Гвінея","name_ur":"استوائی گنی","name_vi":"Guinea Xích Đạo","name_zh":"赤道几内亚","name_zht":"赤道幾內亞"},{"id":"GRC","lon":"22.54627964610661","lat":"39.322881134378044","name":"Greece","iso_n3":"300","fill":"#f28e2c","featurecla":"Admin-0 country","scalerank":"1","labelrank":"3","continent":"Europe","region_un":"Europe","region_wb":"Europe & Central Asia","region_who":"EURO","name_ar":"اليونان","name_bn":"গ্রিস","name_de":"Griechenland","name_en":"Greece","name_es":"Grecia","name_fa":"یونان","name_fr":"Grèce","name_el":"Ελλάδα","name_he":"יוון","name_hi":"यूनान","name_hu":"Görögország","name_id":"Yunani","name_it":"Grecia","name_ja":"ギリシャ","name_ko":"그리스","name_nl":"Griekenland","name_pl":"Grecja","name_pt":"Grécia","name_ru":"Греция","name_sv":"Grekland","name_tr":"Yunanistan","name_uk":"Греція","name_ur":"یونان","name_vi":"Hy Lạp","name_zh":"希腊","name_zht":"希臘"},{"id":"GRL","lon":"-41.965035175521535","lat":"73.15078433131023","name":"Greenland","iso_n3":"304","fill":"#9c755f","featurecla":"Admin-0 country","scalerank":"1","labelrank":"3","continent":"North America","region_un":"Americas","region_wb":"Europe & Central Asia","region_who":"EURO","name_ar":"جرينلاند","name_bn":"গ্রিনল্যান্ড","name_de":"Grönland","name_en":"Greenland","name_es":"Groenlandia","name_fa":"گرینلند","name_fr":"Groenland","name_el":"Γροιλανδία","name_he":"גרינלנד","name_hi":"ग्रीनलैण्ड","name_hu":"Grönland","name_id":"Greenland","name_it":"Groenlandia","name_ja":"グリーンランド","name_ko":"그린란드","name_nl":"Groenland","name_pl":"Grenlandia","name_pt":"Groenlândia","name_ru":"Гренландия","name_sv":"Grönland","name_tr":"Grönland","name_uk":"Гренландія","name_ur":"گرین لینڈ","name_vi":"Greenland","name_zh":"格陵兰","name_zht":"格陵蘭"},{"id":"GTM","lon":"-90.37200105299998","lat":"15.695546534221272","name":"Guatemala","iso_n3":"320","fill":"#af7aa1","featurecla":"Admin-0 country","scalerank":"1","labelrank":"3","continent":"North America","region_un":"Americas","region_wb":"Latin America & Caribbean","region_who":"AMRO","name_ar":"غواتيمالا","name_bn":"গুয়াতেমালা","name_de":"Guatemala","name_en":"Guatemala","name_es":"Guatemala","name_fa":"گواتمالا","name_fr":"Guatemala","name_el":"Γουατεμάλα","name_he":"גואטמלה","name_hi":"ग्वाटेमाला","name_hu":"Guatemala","name_id":"Guatemala","name_it":"Guatemala","name_ja":"グアテマラ","name_ko":"과테말라","name_nl":"Guatemala","name_pl":"Gwatemala","name_pt":"Guatemala","name_ru":"Гватемала","name_sv":"Guatemala","name_tr":"Guatemala","name_uk":"Гватемала","name_ur":"گواتیمالا","name_vi":"Guatemala","name_zh":"危地马拉","name_zht":"瓜地馬拉"},{"id":"GUF","lon":"-53.237715659889886","lat":"3.905877214149476","name":"Guyane","iso_n3":"","fill":"","featurecla":"PIECE","scalerank":"3","labelrank":"6","continent":"South America","region_un":"Americas","region_wb":"Europe & Central Asia","region_who":"AMRO","name_ar":"","name_bn":"","name_de":"","name_en":"","name_es":"","name_fa":"","name_fr":"","name_el":"","name_he":"","name_hi":"","name_hu":"","name_id":"","name_it":"","name_ja":"","name_ko":"","name_nl":"","name_pl":"","name_pt":"","name_ru":"","name_sv":"","name_tr":"","name_uk":"","name_ur":"","name_vi":"","name_zh":"","name_zht":""},{"id":"GUY","lon":"-58.96900182621626","lat":"4.786187986576615","name":"Guyana","iso_n3":"328","fill":"#4e79a7","featurecla":"Admin-0 country","scalerank":"1","labelrank":"4","continent":"South America","region_un":"Americas","region_wb":"Latin America & Caribbean","region_who":"AMRO","name_ar":"غيانا","name_bn":"গায়ানা","name_de":"Guyana","name_en":"Guyana","name_es":"Guyana","name_fa":"گویان","name_fr":"Guyana","name_el":"Γουιάνα","name_he":"גיאנה","name_hi":"गयाना","name_hu":"Guyana","name_id":"Guyana","name_it":"Guyana","name_ja":"ガイアナ","name_ko":"가이아나","name_nl":"Guyana","name_pl":"Gujana","name_pt":"Guiana","name_ru":"Гайана","name_sv":"Guyana","name_tr":"Guyana","name_uk":"Гаяна","name_ur":"گیانا","name_vi":"Guyana","name_zh":"圭亚那","name_zht":"圭亞那"},{"id":"HND","lon":"-86.59252539519912","lat":"14.825314374545956","name":"Honduras","iso_n3":"340","fill":"#59a14f","featurecla":"Admin-0 country","scalerank":"1","labelrank":"5","continent":"North America","region_un":"Americas","region_wb":"Latin America & Caribbean","region_who":"AMRO","name_ar":"هندوراس","name_bn":"হন্ডুরাস","name_de":"Honduras","name_en":"Honduras","name_es":"Honduras","name_fa":"هندوراس","name_fr":"Honduras","name_el":"Ονδούρα","name_he":"הונדורס","name_hi":"हौण्डुरस","name_hu":"Honduras","name_id":"Honduras","name_it":"Honduras","name_ja":"ホンジュラス","name_ko":"온두라스","name_nl":"Honduras","name_pl":"Honduras","name_pt":"Honduras","name_ru":"Гондурас","name_sv":"Honduras","name_tr":"Honduras","name_uk":"Гондурас","name_ur":"ہونڈوراس","name_vi":"Honduras","name_zh":"洪都拉斯","name_zht":"宏都拉斯"},{"id":"HRV","lon":"16.566675070303592","lat":"45.01007125778648","name":"Croatia","iso_n3":"191","fill":"#59a14f","featurecla":"Admin-0 country","scalerank":"1","labelrank":"6","continent":"Europe","region_un":"Europe","region_wb":"Europe & Central Asia","region_who":"EURO","name_ar":"كرواتيا","name_bn":"ক্রোয়েশিয়া","name_de":"Kroatien","name_en":"Croatia","name_es":"Croacia","name_fa":"کرواسی","name_fr":"Croatie","name_el":"Κροατία","name_he":"קרואטיה","name_hi":"क्रोएशिया","name_hu":"Horvátország","name_id":"Kroasia","name_it":"Croazia","name_ja":"クロアチア","name_ko":"크로아티아","name_nl":"Kroatië","name_pl":"Chorwacja","name_pt":"Croácia","name_ru":"Хорватия","name_sv":"Kroatien","name_tr":"Hırvatistan","name_uk":"Хорватія","name_ur":"کروشیا","name_vi":"Croatia","name_zh":"克罗地亚","name_zht":"克羅地亞"},{"id":"HTI","lon":"-72.65973392506096","lat":"18.90049488636689","name":"Haiti","iso_n3":"332","fill":"#e15759","featurecla":"Admin-0 country","scalerank":"1","labelrank":"5","continent":"North America","region_un":"Americas","region_wb":"Latin America & Caribbean","region_who":"AMRO","name_ar":"هايتي","name_bn":"হাইতি","name_de":"Haiti","name_en":"Haiti","name_es":"Haití","name_fa":"هائیتی","name_fr":"Haïti","name_el":"Αϊτή","name_he":"האיטי","name_hi":"हैती","name_hu":"Haiti","name_id":"Haiti","name_it":"Haiti","name_ja":"ハイチ","name_ko":"아이티","name_nl":"Haïti","name_pl":"Haiti","name_pt":"Haiti","name_ru":"Республика Гаити","name_sv":"Haiti","name_tr":"Haiti","name_uk":"Гаїті","name_ur":"ہیٹی","name_vi":"Haiti","name_zh":"海地","name_zht":"海地"},{"id":"HUN","lon":"19.342733132190713","lat":"47.203375771231734","name":"Hungary","iso_n3":"348","fill":"#76b7b2","featurecla":"Admin-0 country","scalerank":"1","labelrank":"5","continent":"Europe","region_un":"Europe","region_wb":"Europe & Central Asia","region_who":"EURO","name_ar":"المجر","name_bn":"হাঙ্গেরি","name_de":"Ungarn","name_en":"Hungary","name_es":"Hungría","name_fa":"مجارستان","name_fr":"Hongrie","name_el":"Ουγγαρία","name_he":"הונגריה","name_hi":"हंगरी","name_hu":"Magyarország","name_id":"Hongaria","name_it":"Ungheria","name_ja":"ハンガリー","name_ko":"헝가리","name_nl":"Hongarije","name_pl":"Węgry","name_pt":"Hungria","name_ru":"Венгрия","name_sv":"Ungern","name_tr":"Macaristan","name_uk":"Угорщина","name_ur":"ہنگری","name_vi":"Hungary","name_zh":"匈牙利","name_zht":"匈牙利"},{"id":"IDN","lon":"114.022083506986","lat":"-0.25461476829329943","name":"Indonesia","iso_n3":"360","fill":"#76b7b2","featurecla":"Admin-0 country","scalerank":"1","labelrank":"2","continent":"Asia","region_un":"Asia","region_wb":"East Asia & Pacific","region_who":"SEARO","name_ar":"إندونيسيا","name_bn":"ইন্দোনেশিয়া","name_de":"Indonesien","name_en":"Indonesia","name_es":"Indonesia","name_fa":"اندونزی","name_fr":"Indonésie","name_el":"Ινδονησία","name_he":"אינדונזיה","name_hi":"इंडोनेशिया","name_hu":"Indonézia","name_id":"Indonesia","name_it":"Indonesia","name_ja":"インドネシア","name_ko":"인도네시아","name_nl":"Indonesië","name_pl":"Indonezja","name_pt":"Indonésia","name_ru":"Индонезия","name_sv":"Indonesien","name_tr":"Endonezya","name_uk":"Індонезія","name_ur":"انڈونیشیا","name_vi":"Indonesia","name_zh":"印度尼西亚","name_zht":"印度尼西亞"},{"id":"IND","lon":"79.5402367088549","lat":"22.819235137215014","name":"India","iso_n3":"356","fill":"#76b7b2","featurecla":"Admin-0 country","scalerank":"1","labelrank":"2","continent":"Asia","region_un":"Asia","region_wb":"South Asia","region_who":"SEARO","name_ar":"الهند","name_bn":"ভারত","name_de":"Indien","name_en":"India","name_es":"India","name_fa":"هند","name_fr":"Inde","name_el":"Ινδία","name_he":"הודו","name_hi":"भारत","name_hu":"India","name_id":"India","name_it":"India","name_ja":"インド","name_ko":"인도","name_nl":"India","name_pl":"Indie","name_pt":"Índia","name_ru":"Индия","name_sv":"Indien","name_tr":"Hindistan","name_uk":"Індія","name_ur":"بھارت","name_vi":"Ấn Độ","name_zh":"印度","name_zht":"印度"},{"id":"IRL","lon":"-8.01686289480868","lat":"53.171685868770275","name":"Ireland","iso_n3":"372","fill":"#e15759","featurecla":"Admin-0 country","scalerank":"1","labelrank":"3","continent":"Europe","region_un":"Europe","region_wb":"Europe & Central Asia","region_who":"EURO","name_ar":"جمهورية أيرلندا","name_bn":"প্রজাতন্ত্রী আয়ারল্যান্ড","name_de":"Irland","name_en":"Ireland","name_es":"Irlanda","name_fa":"ایرلند","name_fr":"Irlande","name_el":"Δημοκρατία της Ιρλανδίας","name_he":"אירלנד","name_hi":"आयरलैण्ड","name_hu":"Írország","name_id":"Republik Irlandia","name_it":"Irlanda","name_ja":"アイルランド","name_ko":"아일랜드","name_nl":"Ierland","name_pl":"Irlandia","name_pt":"República da Irlanda","name_ru":"Ирландия","name_sv":"Irland","name_tr":"İrlanda","name_uk":"Ірландія","name_ur":"جمہوریہ آئرلینڈ","name_vi":"Cộng hòa Ireland","name_zh":"爱尔兰","name_zht":"愛爾蘭"},{"id":"IRN","lon":"54.45283267164994","lat":"32.4741062313244","name":"Iran","iso_n3":"364","fill":"#59a14f","featurecla":"Admin-0 country","scalerank":"1","labelrank":"2","continent":"Asia","region_un":"Asia","region_wb":"Middle East & North Africa","region_who":"EMRO","name_ar":"إيران","name_bn":"ইরান","name_de":"Iran","name_en":"Iran","name_es":"Irán","name_fa":"ایران","name_fr":"Iran","name_el":"Ιράν","name_he":"איראן","name_hi":"ईरान","name_hu":"Irán","name_id":"Iran","name_it":"Iran","name_ja":"イラン","name_ko":"이란","name_nl":"Iran","name_pl":"Iran","name_pt":"Irão","name_ru":"Иран","name_sv":"Iran","name_tr":"İran","name_uk":"Іран","name_ur":"ایران","name_vi":"Iran","name_zh":"伊朗","name_zht":"伊朗"},{"id":"IRQ","lon":"43.78696128391436","lat":"33.009969087298884","name":"Iraq","iso_n3":"368","fill":"#e15759","featurecla":"Admin-0 country","scalerank":"1","labelrank":"3","continent":"Asia","region_un":"Asia","region_wb":"Middle East & North Africa","region_who":"EMRO","name_ar":"العراق","name_bn":"ইরাক","name_de":"Irak","name_en":"Iraq","name_es":"Irak","name_fa":"عراق","name_fr":"Irak","name_el":"Ιράκ","name_he":"עיראק","name_hi":"इराक","name_hu":"Irak","name_id":"Irak","name_it":"Iraq","name_ja":"イラク","name_ko":"이라크","name_nl":"Irak","name_pl":"Irak","name_pt":"Iraque","name_ru":"Ирак","name_sv":"Irak","name_tr":"Irak","name_uk":"Ірак","name_ur":"عراق","name_vi":"Iraq","name_zh":"伊拉克","name_zht":"伊拉克"},{"id":"ISL","lon":"-18.765540730316456","lat":"65.07986297139261","name":"Iceland","iso_n3":"352","fill":"#76b7b2","featurecla":"Admin-0 country","scalerank":"1","labelrank":"3","continent":"Europe","region_un":"Europe","region_wb":"Europe & Central Asia","region_who":"EURO","name_ar":"آيسلندا","name_bn":"আইসল্যান্ড","name_de":"Island","name_en":"Iceland","name_es":"Islandia","name_fa":"ایسلند","name_fr":"Islande","name_el":"Ισλανδία","name_he":"איסלנד","name_hi":"आइसलैण्ड","name_hu":"Izland","name_id":"Islandia","name_it":"Islanda","name_ja":"アイスランド","name_ko":"아이슬란드","name_nl":"IJsland","name_pl":"Islandia","name_pt":"Islândia","name_ru":"Исландия","name_sv":"Island","name_tr":"İzlanda","name_uk":"Ісландія","name_ur":"آئس لینڈ","name_vi":"Iceland","name_zh":"冰岛","name_zht":"冰島"},{"id":"ISR","lon":"35.02099684974604","lat":"31.48504487357725","name":"Israel","iso_n3":"376","fill":"#9c755f","featurecla":"Admin-0 country","scalerank":"1","labelrank":"4","continent":"Asia","region_un":"Asia","region_wb":"Middle East & North Africa","region_who":"EURO","name_ar":"إسرائيل","name_bn":"ইসরায়েল","name_de":"Israel","name_en":"Israel","name_es":"Israel","name_fa":"اسرائیل","name_fr":"Israël","name_el":"Ισραήλ","name_he":"ישראל","name_hi":"इज़राइल","name_hu":"Izrael","name_id":"Israel","name_it":"Israele","name_ja":"イスラエル","name_ko":"이스라엘","name_nl":"Israël","name_pl":"Izrael","name_pt":"Israel","name_ru":"Израиль","name_sv":"Israel","name_tr":"İsrail","name_uk":"Ізраїль","name_ur":"اسرائیل","name_vi":"Israel","name_zh":"以色列","name_zht":"以色列"},{"id":"ITA","lon":"12.36754552271482","lat":"43.42849433887631","name":"Italy","iso_n3":"380","fill":"#4e79a7","featurecla":"Admin-0 country","scalerank":"1","labelrank":"2","continent":"Europe","region_un":"Europe","region_wb":"Europe & Central Asia","region_who":"EURO","name_ar":"إيطاليا","name_bn":"ইতালি","name_de":"Italien","name_en":"Italy","name_es":"Italia","name_fa":"ایتالیا","name_fr":"Italie","name_el":"Ιταλία","name_he":"איטליה","name_hi":"इटली","name_hu":"Olaszország","name_id":"Italia","name_it":"Italia","name_ja":"イタリア","name_ko":"이탈리아","name_nl":"Italië","name_pl":"Włochy","name_pt":"Itália","name_ru":"Италия","name_sv":"Italien","name_tr":"İtalya","name_uk":"Італія","name_ur":"اطالیہ","name_vi":"Ý","name_zh":"意大利","name_zht":"義大利"},{"id":"JAM","lon":"-77.32383283423296","lat":"18.138243637741148","name":"Jamaica","iso_n3":"388","fill":"#edc949","featurecla":"Admin-0 country","scalerank":"1","labelrank":"4","continent":"North America","region_un":"Americas","region_wb":"Latin America & Caribbean","region_who":"AMRO","name_ar":"جامايكا","name_bn":"জ্যামাইকা","name_de":"Jamaika","name_en":"Jamaica","name_es":"Jamaica","name_fa":"جامائیکا","name_fr":"Jamaïque","name_el":"Τζαμάικα","name_he":"ג'מייקה","name_hi":"जमैका","name_hu":"Jamaica","name_id":"Jamaika","name_it":"Giamaica","name_ja":"ジャマイカ","name_ko":"자메이카","name_nl":"Jamaica","name_pl":"Jamajka","name_pt":"Jamaica","name_ru":"Ямайка","name_sv":"Jamaica","name_tr":"Jamaika","name_uk":"Ямайка","name_ur":"جمیکا","name_vi":"Jamaica","name_zh":"牙买加","name_zht":"牙買加"},{"id":"JAMM","lon":"76.57659811749167","lat":"33.78376150114603","name":"Jammu & Kashmir","iso_n3":"","fill":"","featurecla":"PIECE","scalerank":"3","labelrank":"6","continent":"Asia","region_un":"Asia","region_wb":"South Asia","region_who":"SEARO","name_ar":"","name_bn":"","name_de":"","name_en":"","name_es":"","name_fa":"","name_fr":"","name_el":"","name_he":"","name_hi":"","name_hu":"","name_id":"","name_it":"","name_ja":"","name_ko":"","name_nl":"","name_pl":"","name_pt":"","name_ru":"","name_sv":"","name_tr":"","name_uk":"","name_ur":"","name_vi":"","name_zh":"","name_zht":""},{"id":"JOR","lon":"36.76606151226754","lat":"31.240104267427533","name":"Jordan","iso_n3":"400","fill":"#af7aa1","featurecla":"Admin-0 country","scalerank":"1","labelrank":"4","continent":"Asia","region_un":"Asia","region_wb":"Middle East & North Africa","region_who":"EMRO","name_ar":"الأردن","name_bn":"জর্ডান","name_de":"Jordanien","name_en":"Jordan","name_es":"Jordania","name_fa":"اردن","name_fr":"Jordanie","name_el":"Ιορδανία","name_he":"ירדן","name_hi":"जॉर्डन","name_hu":"Jordánia","name_id":"Yordania","name_it":"Giordania","name_ja":"ヨルダン","name_ko":"요르단","name_nl":"Jordanië","name_pl":"Jordania","name_pt":"Jordânia","name_ru":"Иордания","name_sv":"Jordanien","name_tr":"Ürdün","name_uk":"Йорданія","name_ur":"اردن","name_vi":"Jordan","name_zh":"约旦","name_zht":"約旦"},{"id":"JPN","lon":"136.7129877967453","lat":"36.008114678918396","name":"Japan","iso_n3":"392","fill":"#edc949","featurecla":"Admin-0 country","scalerank":"1","labelrank":"2","continent":"Asia","region_un":"Asia","region_wb":"East Asia & Pacific","region_who":"WPRO","name_ar":"اليابان","name_bn":"জাপান","name_de":"Japan","name_en":"Japan","name_es":"Japón","name_fa":"ژاپن","name_fr":"Japon","name_el":"Ιαπωνία","name_he":"יפן","name_hi":"जापान","name_hu":"Japán","name_id":"Jepang","name_it":"Giappone","name_ja":"日本","name_ko":"일본","name_nl":"Japan","name_pl":"Japonia","name_pt":"Japão","name_ru":"Япония","name_sv":"Japan","name_tr":"Japonya","name_uk":"Японія","name_ur":"جاپان","name_vi":"Nhật Bản","name_zh":"日本","name_zht":"日本"},{"id":"KASH","lon":"","lat":"","name":"Kashmir Region","iso_n3":"","fill":"","featurecla":"PIECE","scalerank":"3","labelrank":"6","continent":"Asia","region_un":"Asia","region_wb":"Asia","region_who":"","name_ar":"","name_bn":"","name_de":"","name_en":"","name_es":"","name_fa":"","name_fr":"","name_el":"","name_he":"","name_hi":"","name_hu":"","name_id":"","name_it":"","name_ja":"","name_ko":"","name_nl":"","name_pl":"","name_pt":"","name_ru":"","name_sv":"","name_tr":"","name_uk":"","name_ur":"","name_vi":"","name_zh":"","name_zht":""},{"id":"KAZ","lon":"67.23543784833399","lat":"48.40587970107135","name":"Kazakhstan","iso_n3":"398","fill":"#f28e2c","featurecla":"Admin-0 country","scalerank":"1","labelrank":"3","continent":"Asia","region_un":"Asia","region_wb":"Europe & Central Asia","region_who":"EURO","name_ar":"كازاخستان","name_bn":"কাজাখস্তান","name_de":"Kasachstan","name_en":"Kazakhstan","name_es":"Kazajistán","name_fa":"قزاقستان","name_fr":"Kazakhstan","name_el":"Καζακστάν","name_he":"קזחסטן","name_hi":"कज़ाख़िस्तान","name_hu":"Kazahsztán","name_id":"Kazakhstan","name_it":"Kazakistan","name_ja":"カザフスタン","name_ko":"카자흐스탄","name_nl":"Kazachstan","name_pl":"Kazachstan","name_pt":"Cazaquistão","name_ru":"Казахстан","name_sv":"Kazakstan","name_tr":"Kazakistan","name_uk":"Казахстан","name_ur":"قازقستان","name_vi":"Kazakhstan","name_zh":"哈萨克斯坦","name_zht":"哈薩克"},{"id":"KEN","lon":"37.79169954883896","lat":"0.5952661846657812","name":"Kenya","iso_n3":"404","fill":"#9c755f","featurecla":"Admin-0 country","scalerank":"1","labelrank":"2","continent":"Africa","region_un":"Africa","region_wb":"Sub-Saharan Africa","region_who":"AFRO","name_ar":"كينيا","name_bn":"কেনিয়া","name_de":"Kenia","name_en":"Kenya","name_es":"Kenia","name_fa":"کنیا","name_fr":"Kenya","name_el":"Κένυα","name_he":"קניה","name_hi":"कीनिया","name_hu":"Kenya","name_id":"Kenya","name_it":"Kenya","name_ja":"ケニア","name_ko":"케냐","name_nl":"Kenia","name_pl":"Kenia","name_pt":"Quénia","name_ru":"Кения","name_sv":"Kenya","name_tr":"Kenya","name_uk":"Кенія","name_ur":"کینیا","name_vi":"Kenya","name_zh":"肯尼亚","name_zht":"肯亞"},{"id":"KGZ","lon":"74.58684062177359","lat":"41.51862530874172","name":"Kyrgyzstan","iso_n3":"417","fill":"#76b7b2","featurecla":"Admin-0 country","scalerank":"1","labelrank":"4","continent":"Asia","region_un":"Asia","region_wb":"Europe & Central Asia","region_who":"EURO","name_ar":"قيرغيزستان","name_bn":"কিরগিজস্তান","name_de":"Kirgisistan","name_en":"Kyrgyzstan","name_es":"Kirguistán","name_fa":"قرقیزستان","name_fr":"Kirghizistan","name_el":"Κιργιζία","name_he":"קירגיזסטן","name_hi":"किर्गिज़स्तान","name_hu":"Kirgizisztán","name_id":"Kirgizstan","name_it":"Kirghizistan","name_ja":"キルギス","name_ko":"키르기스스탄","name_nl":"Kirgizië","name_pl":"Kirgistan","name_pt":"Quirguistão","name_ru":"Киргизия","name_sv":"Kirgizistan","name_tr":"Kırgızistan","name_uk":"Киргизстан","name_ur":"کرغیزستان","name_vi":"Kyrgyzstan","name_zh":"吉尔吉斯斯坦","name_zht":"吉爾吉斯"},{"id":"KHM","lon":"104.87420679025203","lat":"12.68480123988617","name":"Cambodia","iso_n3":"116","fill":"#59a14f","featurecla":"Admin-0 country","scalerank":"1","labelrank":"3","continent":"Asia","region_un":"Asia","region_wb":"East Asia & Pacific","region_who":"WPRO","name_ar":"كمبوديا","name_bn":"কম্বোডিয়া","name_de":"Kambodscha","name_en":"Cambodia","name_es":"Camboya","name_fa":"کامبوج","name_fr":"Cambodge","name_el":"Καμπότζη","name_he":"קמבודיה","name_hi":"कम्बोडिया","name_hu":"Kambodzsa","name_id":"Kamboja","name_it":"Cambogia","name_ja":"カンボジア","name_ko":"캄보디아","name_nl":"Cambodja","name_pl":"Kambodża","name_pt":"Camboja","name_ru":"Камбоджа","name_sv":"Kambodja","name_tr":"Kamboçya","name_uk":"Камбоджа","name_ur":"کمبوڈیا","name_vi":"Campuchia","name_zh":"柬埔寨","name_zht":"柬埔寨"},{"id":"KOR","lon":"127.81978049675283","lat":"36.41823167448104","name":"South Korea","iso_n3":"410","fill":"#e15759","featurecla":"Admin-0 country","scalerank":"1","labelrank":"2","continent":"Asia","region_un":"Asia","region_wb":"East Asia & Pacific","region_who":"WPRO","name_ar":"كوريا الجنوبية","name_bn":"দক্ষিণ কোরিয়া","name_de":"Südkorea","name_en":"South Korea","name_es":"Corea del Sur","name_fa":"کره جنوبی","name_fr":"Corée du Sud","name_el":"Νότια Κορέα","name_he":"קוריאה הדרומית","name_hi":"दक्षिण कोरिया","name_hu":"Dél-Korea","name_id":"Korea Selatan","name_it":"Corea del Sud","name_ja":"大韓民国","name_ko":"대한민국","name_nl":"Zuid-Korea","name_pl":"Korea Południowa","name_pt":"Coreia do Sul","name_ru":"Республика Корея","name_sv":"Sydkorea","name_tr":"Güney Kore","name_uk":"Південна Корея","name_ur":"جنوبی کوریا","name_vi":"Hàn Quốc","name_zh":"大韩民国","name_zht":"大韓民國"},{"id":"KOS","lon":"20.89535381264201","lat":"42.57881008126808","name":"Kosovo","iso_n3":"-2","fill":"#af7aa1","featurecla":"Admin-0 country","scalerank":"1","labelrank":"6","continent":"Europe","region_un":"Europe","region_wb":"Europe & Central Asia","region_who":"EURO","name_ar":"كوسوفو","name_bn":"কসোভো","name_de":"Kosovo","name_en":"Kosovo","name_es":"Kosovo","name_fa":"کوزووو","name_fr":"Kosovo","name_el":"Κοσσυφοπέδιο","name_he":"קוסובו","name_hi":"कोसोवो गणराज्य","name_hu":"Koszovó","name_id":"Kosovo","name_it":"Kosovo","name_ja":"コソボ共和国","name_ko":"코소보","name_nl":"Kosovo","name_pl":"Kosowo","name_pt":"Kosovo","name_ru":"Республика Косово","name_sv":"Kosovo","name_tr":"Kosova","name_uk":"Косово","name_ur":"کوسووہ","name_vi":"Kosovo","name_zh":"科索沃","name_zht":"科索沃"},{"id":"KWT","lon":"47.60065376925095","lat":"29.30691149776296","name":"Kuwait","iso_n3":"414","fill":"#4e79a7","featurecla":"Admin-0 country","scalerank":"1","labelrank":"6","continent":"Asia","region_un":"Asia","region_wb":"Middle East & North Africa","region_who":"EMRO","name_ar":"الكويت","name_bn":"কুয়েত","name_de":"Kuwait","name_en":"Kuwait","name_es":"Kuwait","name_fa":"کویت","name_fr":"Koweït","name_el":"Κουβέιτ","name_he":"כווית","name_hi":"कुवैत","name_hu":"Kuvait","name_id":"Kuwait","name_it":"Kuwait","name_ja":"クウェート","name_ko":"쿠웨이트","name_nl":"Koeweit","name_pl":"Kuwejt","name_pt":"Kuwait","name_ru":"Кувейт","name_sv":"Kuwait","name_tr":"Kuveyt","name_uk":"Кувейт","name_ur":"کویت","name_vi":"Kuwait","name_zh":"科威特","name_zht":"科威特"},{"id":"LAO","lon":"103.78756905288016","lat":"18.430690340638606","name":"Laos","iso_n3":"418","fill":"#af7aa1","featurecla":"Admin-0 country","scalerank":"1","labelrank":"4","continent":"Asia","region_un":"Asia","region_wb":"East Asia & Pacific","region_who":"WPRO","name_ar":"لاوس","name_bn":"লাওস","name_de":"Laos","name_en":"Laos","name_es":"Laos","name_fa":"لائوس","name_fr":"Laos","name_el":"Λάος","name_he":"לאוס","name_hi":"लाओस","name_hu":"Laosz","name_id":"Laos","name_it":"Laos","name_ja":"ラオス","name_ko":"라오스","name_nl":"Laos","name_pl":"Laos","name_pt":"Laos","name_ru":"Лаос","name_sv":"Laos","name_tr":"Laos","name_uk":"Лаос","name_ur":"لاؤس","name_vi":"Lào","name_zh":"老挝","name_zht":"寮國"},{"id":"LBN","lon":"35.868037042913876","lat":"33.9104702743485","name":"Lebanon","iso_n3":"422","fill":"#4e79a7","featurecla":"Admin-0 country","scalerank":"1","labelrank":"5","continent":"Asia","region_un":"Asia","region_wb":"Middle East & North Africa","region_who":"EMRO","name_ar":"لبنان","name_bn":"লেবানন","name_de":"Libanon","name_en":"Lebanon","name_es":"Líbano","name_fa":"لبنان","name_fr":"Liban","name_el":"Λίβανος","name_he":"לבנון","name_hi":"लेबनान","name_hu":"Libanon","name_id":"Lebanon","name_it":"Libano","name_ja":"レバノン","name_ko":"레바논","name_nl":"Libanon","name_pl":"Liban","name_pt":"Líbano","name_ru":"Ливан","name_sv":"Libanon","name_tr":"Lübnan","name_uk":"Ліван","name_ur":"لبنان","name_vi":"Liban","name_zh":"黎巴嫩","name_zht":"黎巴嫩"},{"id":"LBR","lon":"-9.408757171222733","lat":"6.430773269753357","name":"Liberia","iso_n3":"430","fill":"#59a14f","featurecla":"Admin-0 country","scalerank":"1","labelrank":"4","continent":"Africa","region_un":"Africa","region_wb":"Sub-Saharan Africa","region_who":"AFRO","name_ar":"ليبيريا","name_bn":"লাইবেরিয়া","name_de":"Liberia","name_en":"Liberia","name_es":"Liberia","name_fa":"لیبریا","name_fr":"Liberia","name_el":"Λιβερία","name_he":"ליבריה","name_hi":"लाइबेरिया","name_hu":"Libéria","name_id":"Liberia","name_it":"Liberia","name_ja":"リベリア","name_ko":"라이베리아","name_nl":"Liberia","name_pl":"Liberia","name_pt":"Libéria","name_ru":"Либерия","name_sv":"Liberia","name_tr":"Liberya","name_uk":"Ліберія","name_ur":"لائبیریا","name_vi":"Liberia","name_zh":"利比里亚","name_zht":"賴比瑞亞"},{"id":"LBY","lon":"18.030390963750943","lat":"26.988368604851846","name":"Libya","iso_n3":"434","fill":"#af7aa1","featurecla":"Admin-0 country","scalerank":"1","labelrank":"3","continent":"Africa","region_un":"Africa","region_wb":"Middle East & North Africa","region_who":"EMRO","name_ar":"ليبيا","name_bn":"লিবিয়া","name_de":"Libyen","name_en":"Libya","name_es":"Libia","name_fa":"لیبی","name_fr":"Libye","name_el":"Λιβύη","name_he":"לוב","name_hi":"लीबिया","name_hu":"Líbia","name_id":"Libya","name_it":"Libia","name_ja":"リビア","name_ko":"리비아","name_nl":"Libië","name_pl":"Libia","name_pt":"Líbia","name_ru":"Ливия","name_sv":"Libyen","name_tr":"Libya","name_uk":"Лівія","name_ur":"لیبیا","name_vi":"Libya","name_zh":"利比亚","name_zht":"利比亞"},{"id":"LKA","lon":"80.66774349507399","lat":"7.699231798330134","name":"Sri Lanka","iso_n3":"144","fill":"#ff9da7","featurecla":"Admin-0 country","scalerank":"1","labelrank":"3","continent":"Asia","region_un":"Asia","region_wb":"South Asia","region_who":"SEARO","name_ar":"سريلانكا","name_bn":"শ্রীলঙ্কা","name_de":"Sri Lanka","name_en":"Sri Lanka","name_es":"Sri Lanka","name_fa":"سریلانکا","name_fr":"Sri Lanka","name_el":"Σρι Λάνκα","name_he":"סרי לנקה","name_hi":"श्रीलंका","name_hu":"Srí Lanka","name_id":"Sri Lanka","name_it":"Sri Lanka","name_ja":"スリランカ","name_ko":"스리랑카","name_nl":"Sri Lanka","name_pl":"Sri Lanka","name_pt":"Sri Lanka","name_ru":"Шри-Ланка","name_sv":"Sri Lanka","name_tr":"Sri Lanka","name_uk":"Шрі-Ланка","name_ur":"سری لنکا","name_vi":"Sri Lanka","name_zh":"斯里兰卡","name_zht":"斯里蘭卡"},{"id":"LSO","lon":"28.17181656210157","lat":"-29.624793413615688","name":"Lesotho","iso_n3":"426","fill":"#76b7b2","featurecla":"Admin-0 country","scalerank":"1","labelrank":"6","continent":"Africa","region_un":"Africa","region_wb":"Sub-Saharan Africa","region_who":"AFRO","name_ar":"ليسوتو","name_bn":"লেসোথো","name_de":"Lesotho","name_en":"Lesotho","name_es":"Lesoto","name_fa":"لسوتو","name_fr":"Lesotho","name_el":"Λεσότο","name_he":"לסוטו","name_hi":"लेसोथो","name_hu":"Lesotho","name_id":"Lesotho","name_it":"Lesotho","name_ja":"レソト","name_ko":"레소토","name_nl":"Lesotho","name_pl":"Lesotho","name_pt":"Lesoto","name_ru":"Лесото","name_sv":"Lesotho","name_tr":"Lesotho","name_uk":"Лесото","name_ur":"لیسوتھو","name_vi":"Lesotho","name_zh":"莱索托","name_zht":"賴索托"},{"id":"LTU","lon":"23.888610405222718","lat":"55.28291384315471","name":"Lithuania","iso_n3":"440","fill":"#edc949","featurecla":"Admin-0 country","scalerank":"1","labelrank":"5","continent":"Europe","region_un":"Europe","region_wb":"Europe & Central Asia","region_who":"EURO","name_ar":"ليتوانيا","name_bn":"লিথুয়ানিয়া","name_de":"Litauen","name_en":"Lithuania","name_es":"Lituania","name_fa":"لیتوانی","name_fr":"Lituanie","name_el":"Λιθουανία","name_he":"ליטא","name_hi":"लिथुआनिया","name_hu":"Litvánia","name_id":"Lituania","name_it":"Lituania","name_ja":"リトアニア","name_ko":"리투아니아","name_nl":"Litouwen","name_pl":"Litwa","name_pt":"Lituânia","name_ru":"Литва","name_sv":"Litauen","name_tr":"Litvanya","name_uk":"Литва","name_ur":"لتھووینیا","name_vi":"Litva","name_zh":"立陶宛","name_zht":"立陶宛"},{"id":"LUX","lon":"5.965095895902207","lat":"49.76523883872334","name":"Luxembourg","iso_n3":"442","fill":"#af7aa1","featurecla":"Admin-0 country","scalerank":"1","labelrank":"6","continent":"Europe","region_un":"Europe","region_wb":"Europe & Central Asia","region_who":"EURO","name_ar":"لوكسمبورغ","name_bn":"লুক্সেমবুর্গ","name_de":"Luxemburg","name_en":"Luxembourg","name_es":"Luxemburgo","name_fa":"لوکزامبورگ","name_fr":"Luxembourg","name_el":"Λουξεμβούργο","name_he":"לוקסמבורג","name_hi":"लक्ज़मबर्ग","name_hu":"Luxemburg","name_id":"Luksemburg","name_it":"Lussemburgo","name_ja":"ルクセンブルク","name_ko":"룩셈부르크","name_nl":"Luxemburg","name_pl":"Luksemburg","name_pt":"Luxemburgo","name_ru":"Люксембург","name_sv":"Luxemburg","name_tr":"Lüksemburg","name_uk":"Люксембург","name_ur":"لکسمبرگ","name_vi":"Luxembourg","name_zh":"卢森堡","name_zht":"盧森堡"},{"id":"LVA","lon":"24.840541034229314","lat":"56.81724694447376","name":"Latvia","iso_n3":"428","fill":"#af7aa1","featurecla":"Admin-0 country","scalerank":"1","labelrank":"5","continent":"Europe","region_un":"Europe","region_wb":"Europe & Central Asia","region_who":"EURO","name_ar":"لاتفيا","name_bn":"লাতভিয়া","name_de":"Lettland","name_en":"Latvia","name_es":"Letonia","name_fa":"لتونی","name_fr":"Lettonie","name_el":"Λετονία","name_he":"לטביה","name_hi":"लातविया","name_hu":"Lettország","name_id":"Latvia","name_it":"Lettonia","name_ja":"ラトビア","name_ko":"라트비아","name_nl":"Letland","name_pl":"Łotwa","name_pt":"Letónia","name_ru":"Латвия","name_sv":"Lettland","name_tr":"Letonya","name_uk":"Латвія","name_ur":"لٹویا","name_vi":"Latvia","name_zh":"拉脱维亚","name_zht":"拉脫維亞"},{"id":"MAR","lon":"-6.348929315903622","lat":"31.92621870812855","name":"Morocco","iso_n3":"504","fill":"#e15759","featurecla":"Admin-0 country","scalerank":"1","labelrank":"3","continent":"Africa","region_un":"Africa","region_wb":"Middle East & North Africa","region_who":"EMRO","name_ar":"المغرب","name_bn":"মরক্কো","name_de":"Marokko","name_en":"Morocco","name_es":"Marruecos","name_fa":"مراکش","name_fr":"Maroc","name_el":"Μαρόκο","name_he":"מרוקו","name_hi":"मोरक्को","name_hu":"Marokkó","name_id":"Maroko","name_it":"Marocco","name_ja":"モロッコ","name_ko":"모로코","name_nl":"Marokko","name_pl":"Maroko","name_pt":"Marrocos","name_ru":"Марокко","name_sv":"Marocko","name_tr":"Fas","name_uk":"Марокко","name_ur":"مراکش","name_vi":"Maroc","name_zh":"摩洛哥","name_zht":"摩洛哥"},{"id":"MDA","lon":"28.419789598579413","lat":"47.196663840232794","name":"Moldova","iso_n3":"498","fill":"#76b7b2","featurecla":"Admin-0 country","scalerank":"1","labelrank":"6","continent":"Europe","region_un":"Europe","region_wb":"Europe & Central Asia","region_who":"EURO","name_ar":"مولدوفا","name_bn":"মলদোভা","name_de":"Republik Moldau","name_en":"Moldova","name_es":"Moldavia","name_fa":"مولداوی","name_fr":"Moldavie","name_el":"Μολδαβία","name_he":"מולדובה","name_hi":"मॉल्डोवा","name_hu":"Moldova","name_id":"Moldova","name_it":"Moldavia","name_ja":"モルドバ","name_ko":"몰도바","name_nl":"Moldavië","name_pl":"Mołdawia","name_pt":"Moldávia","name_ru":"Молдавия","name_sv":"Moldavien","name_tr":"Moldova","name_uk":"Молдова","name_ur":"مالدووا","name_vi":"Moldova","name_zh":"摩尔多瓦","name_zht":"摩爾多瓦"},{"id":"MDG","lon":"46.72940880650801","lat":"-19.30166695055485","name":"Madagascar","iso_n3":"450","fill":"#f28e2c","featurecla":"Admin-0 country","scalerank":"1","labelrank":"3","continent":"Africa","region_un":"Africa","region_wb":"Sub-Saharan Africa","region_who":"AFRO","name_ar":"مدغشقر","name_bn":"মাদাগাস্কার","name_de":"Madagaskar","name_en":"Madagascar","name_es":"Madagascar","name_fa":"ماداگاسکار","name_fr":"Madagascar","name_el":"Μαδαγασκάρη","name_he":"מדגסקר","name_hi":"मेडागास्कर","name_hu":"Madagaszkár","name_id":"Madagaskar","name_it":"Madagascar","name_ja":"マダガスカル","name_ko":"마다가스카르","name_nl":"Madagaskar","name_pl":"Madagaskar","name_pt":"Madagáscar","name_ru":"Мадагаскар","name_sv":"Madagaskar","name_tr":"Madagaskar","name_uk":"Мадагаскар","name_ur":"مڈغاسکر","name_vi":"Madagascar","name_zh":"马达加斯加","name_zht":"馬達加斯加"},{"id":"MEX","lon":"-102.22348178860769","lat":"23.91345270210856","name":"Mexico","iso_n3":"484","fill":"#59a14f","featurecla":"Admin-0 country","scalerank":"1","labelrank":"2","continent":"North America","region_un":"Americas","region_wb":"Latin America & Caribbean","region_who":"AMRO","name_ar":"المكسيك","name_bn":"মেক্সিকো","name_de":"Mexiko","name_en":"Mexico","name_es":"México","name_fa":"مکزیک","name_fr":"Mexique","name_el":"Μεξικό","name_he":"מקסיקו","name_hi":"मेक्सिको","name_hu":"Mexikó","name_id":"Meksiko","name_it":"Messico","name_ja":"メキシコ","name_ko":"멕시코","name_nl":"Mexico","name_pl":"Meksyk","name_pt":"México","name_ru":"Мексика","name_sv":"Mexiko","name_tr":"Meksika","name_uk":"Мексика","name_ur":"میکسیکو","name_vi":"México","name_zh":"墨西哥","name_zht":"墨西哥"},{"id":"MKD","lon":"21.696438886714688","lat":"41.60602384570754","name":"North Macedonia","iso_n3":"807","fill":"#59a14f","featurecla":"Admin-0 country","scalerank":"1","labelrank":"6","continent":"Europe","region_un":"Europe","region_wb":"Europe & Central Asia","region_who":"EURO","name_ar":"مقدونيا الشمالية","name_bn":"উত্তর মেসিডোনিয়া","name_de":"Nordmazedonien","name_en":"North Macedonia","name_es":"Macedonia del Norte","name_fa":"مقدونیه شمالی","name_fr":"Macédoine du Nord","name_el":"Βόρεια Μακεδονία","name_he":"מקדוניה הצפונית","name_hi":"उत्तर मैसिडोनिया","name_hu":"Észak-Macedónia","name_id":"Republik Makedonia Utara","name_it":"Macedonia del Nord","name_ja":"北マケドニア","name_ko":"북마케도니아","name_nl":"Noord-Macedonië","name_pl":"Macedonia Północna","name_pt":"Macedónia do Norte","name_ru":"Северная Македония","name_sv":"Nordmakedonien","name_tr":"Kuzey Makedonya","name_uk":"Північна Македонія","name_ur":"شمالی مقدونیہ","name_vi":"Bắc Macedonia","name_zh":"北马其顿","name_zht":"北馬其頓"},{"id":"MLI","lon":"-3.5934453244567455","lat":"17.24052797630695","name":"Mali","iso_n3":"466","fill":"#e15759","featurecla":"Admin-0 country","scalerank":"1","labelrank":"3","continent":"Africa","region_un":"Africa","region_wb":"Sub-Saharan Africa","region_who":"AFRO","name_ar":"مالي","name_bn":"মালি","name_de":"Mali","name_en":"Mali","name_es":"Malí","name_fa":"مالی","name_fr":"Mali","name_el":"Μάλι","name_he":"מאלי","name_hi":"माली","name_hu":"Mali","name_id":"Mali","name_it":"Mali","name_ja":"マリ共和国","name_ko":"말리","name_nl":"Mali","name_pl":"Mali","name_pt":"Mali","name_ru":"Мали","name_sv":"Mali","name_tr":"Mali","name_uk":"Малі","name_ur":"مالی","name_vi":"Mali","name_zh":"马里","name_zht":"馬利共和國"},{"id":"MMR","lon":"96.51316182702033","lat":"20.944634828333413","name":"Myanmar","iso_n3":"104","fill":"#ff9da7","featurecla":"Admin-0 country","scalerank":"1","labelrank":"3","continent":"Asia","region_un":"Asia","region_wb":"East Asia & Pacific","region_who":"SEARO","name_ar":"ميانمار","name_bn":"মিয়ানমার","name_de":"Myanmar","name_en":"Myanmar","name_es":"Birmania","name_fa":"میانمار","name_fr":"Birmanie","name_el":"Μιανμάρ","name_he":"מיאנמר","name_hi":"म्यान्मार","name_hu":"Mianmar","name_id":"Myanmar","name_it":"Birmania","name_ja":"ミャンマー","name_ko":"미얀마","name_nl":"Myanmar","name_pl":"Mjanma","name_pt":"Myanmar","name_ru":"Мьянма","name_sv":"Myanmar","name_tr":"Myanmar","name_uk":"М'янма","name_ur":"میانمار","name_vi":"Myanma","name_zh":"缅甸","name_zht":"緬甸"},{"id":"MNE","lon":"19.28559376022889","lat":"42.78821911062296","name":"Montenegro","iso_n3":"499","fill":"#edc949","featurecla":"Admin-0 country","scalerank":"1","labelrank":"6","continent":"Europe","region_un":"Europe","region_wb":"Europe & Central Asia","region_who":"EURO","name_ar":"الجبل الأسود","name_bn":"মন্টিনিগ্রো","name_de":"Montenegro","name_en":"Montenegro","name_es":"Montenegro","name_fa":"مونتهنگرو","name_fr":"Monténégro","name_el":"Μαυροβούνιο","name_he":"מונטנגרו","name_hi":"मॉन्टेनीग्रो","name_hu":"Montenegró","name_id":"Montenegro","name_it":"Montenegro","name_ja":"モンテネグロ","name_ko":"몬테네그로","name_nl":"Montenegro","name_pl":"Czarnogóra","name_pt":"Montenegro","name_ru":"Черногория","name_sv":"Montenegro","name_tr":"Karadağ","name_uk":"Чорногорія","name_ur":"مونٹینیگرو","name_vi":"Montenegro","name_zh":"黑山","name_zht":"蒙特內哥羅"},{"id":"MNG","lon":"103.0155890533905","lat":"46.954177917558155","name":"Mongolia","iso_n3":"496","fill":"#e15759","featurecla":"Admin-0 country","scalerank":"1","labelrank":"3","continent":"Asia","region_un":"Asia","region_wb":"East Asia & Pacific","region_who":"WPRO","name_ar":"منغوليا","name_bn":"মঙ্গোলিয়া","name_de":"Mongolei","name_en":"Mongolia","name_es":"Mongolia","name_fa":"مغولستان","name_fr":"Mongolie","name_el":"Μογγολία","name_he":"מונגוליה","name_hi":"मंगोलिया","name_hu":"Mongólia","name_id":"Mongolia","name_it":"Mongolia","name_ja":"モンゴル国","name_ko":"몽골","name_nl":"Mongolië","name_pl":"Mongolia","name_pt":"Mongólia","name_ru":"Монголия","name_sv":"Mongoliet","name_tr":"Moğolistan","name_uk":"Монголія","name_ur":"منگولیا","name_vi":"Mông Cổ","name_zh":"蒙古国","name_zht":"蒙古國"},{"id":"MOZ","lon":"35.54240118775743","lat":"-17.153966224105503","name":"Mozambique","iso_n3":"508","fill":"#59a14f","featurecla":"Admin-0 country","scalerank":"1","labelrank":"3","continent":"Africa","region_un":"Africa","region_wb":"Sub-Saharan Africa","region_who":"AFRO","name_ar":"موزمبيق","name_bn":"মোজাম্বিক","name_de":"Mosambik","name_en":"Mozambique","name_es":"Mozambique","name_fa":"موزامبیک","name_fr":"Mozambique","name_el":"Μοζαμβίκη","name_he":"מוזמביק","name_hi":"मोज़ाम्बीक","name_hu":"Mozambik","name_id":"Mozambik","name_it":"Mozambico","name_ja":"モザンビーク","name_ko":"모잠비크","name_nl":"Mozambique","name_pl":"Mozambik","name_pt":"Moçambique","name_ru":"Мозамбик","name_sv":"Moçambique","name_tr":"Mozambik","name_uk":"Мозамбік","name_ur":"موزمبیق","name_vi":"Mozambique","name_zh":"莫桑比克","name_zht":"莫三比克"},{"id":"MRT","lon":"-10.348791444914367","lat":"20.180467156267564","name":"Mauritania","iso_n3":"478","fill":"#76b7b2","featurecla":"Admin-0 country","scalerank":"1","labelrank":"3","continent":"Africa","region_un":"Africa","region_wb":"Sub-Saharan Africa","region_who":"AFRO","name_ar":"موريتانيا","name_bn":"মৌরিতানিয়া","name_de":"Mauretanien","name_en":"Mauritania","name_es":"Mauritania","name_fa":"موریتانی","name_fr":"Mauritanie","name_el":"Μαυριτανία","name_he":"מאוריטניה","name_hi":"मॉरीतानिया","name_hu":"Mauritánia","name_id":"Mauritania","name_it":"Mauritania","name_ja":"モーリタニア","name_ko":"모리타니","name_nl":"Mauritanië","name_pl":"Mauretania","name_pt":"Mauritânia","name_ru":"Мавритания","name_sv":"Mauretanien","name_tr":"Moritanya","name_uk":"Мавританія","name_ur":"موریتانیہ","name_vi":"Mauritanie","name_zh":"毛里塔尼亚","name_zht":"茅利塔尼亞"},{"id":"MWI","lon":"34.18644681665131","lat":"-13.159973856748222","name":"Malawi","iso_n3":"454","fill":"#76b7b2","featurecla":"Admin-0 country","scalerank":"1","labelrank":"6","continent":"Africa","region_un":"Africa","region_wb":"Sub-Saharan Africa","region_who":"AFRO","name_ar":"مالاوي","name_bn":"মালাউই","name_de":"Malawi","name_en":"Malawi","name_es":"Malaui","name_fa":"مالاوی","name_fr":"Malawi","name_el":"Μαλάουι","name_he":"מלאווי","name_hi":"मलावी","name_hu":"Malawi","name_id":"Malawi","name_it":"Malawi","name_ja":"マラウイ","name_ko":"말라위","name_nl":"Malawi","name_pl":"Malawi","name_pt":"Malawi","name_ru":"Малави","name_sv":"Malawi","name_tr":"Malavi","name_uk":"Малаві","name_ur":"ملاوی","name_vi":"Malawi","name_zh":"马拉维","name_zht":"馬拉威"},{"id":"MYS","lon":"114.6685990802099","lat":"3.548112506265955","name":"Malaysia","iso_n3":"458","fill":"#ff9da7","featurecla":"Admin-0 country","scalerank":"1","labelrank":"3","continent":"Asia","region_un":"Asia","region_wb":"East Asia & Pacific","region_who":"WPRO","name_ar":"ماليزيا","name_bn":"মালয়েশিয়া","name_de":"Malaysia","name_en":"Malaysia","name_es":"Malasia","name_fa":"مالزی","name_fr":"Malaisie","name_el":"Μαλαισία","name_he":"מלזיה","name_hi":"मलेशिया","name_hu":"Malajzia","name_id":"Malaysia","name_it":"Malaysia","name_ja":"マレーシア","name_ko":"말레이시아","name_nl":"Maleisië","name_pl":"Malezja","name_pt":"Malásia","name_ru":"Малайзия","name_sv":"Malaysia","name_tr":"Malezya","name_uk":"Малайзія","name_ur":"ملائیشیا","name_vi":"Malaysia","name_zh":"马来西亚","name_zht":"馬來西亞"},{"id":"NAM","lon":"17.14206210999222","lat":"-22.040194882619307","name":"Namibia","iso_n3":"516","fill":"#4e79a7","featurecla":"Admin-0 country","scalerank":"1","labelrank":"3","continent":"Africa","region_un":"Africa","region_wb":"Sub-Saharan Africa","region_who":"AFRO","name_ar":"ناميبيا","name_bn":"নামিবিয়া","name_de":"Namibia","name_en":"Namibia","name_es":"Namibia","name_fa":"نامیبیا","name_fr":"Namibie","name_el":"Ναμίμπια","name_he":"נמיביה","name_hi":"नामीबिया","name_hu":"Namíbia","name_id":"Namibia","name_it":"Namibia","name_ja":"ナミビア","name_ko":"나미비아","name_nl":"Namibië","name_pl":"Namibia","name_pt":"Namíbia","name_ru":"Намибия","name_sv":"Namibia","name_tr":"Namibya","name_uk":"Намібія","name_ur":"نمیبیا","name_vi":"Namibia","name_zh":"纳米比亚","name_zht":"納米比亞"},{"id":"NCL","lon":"165.52848311496922","lat":"-21.26083257262374","name":"New Caledonia","iso_n3":"540","fill":"#76b7b2","featurecla":"Admin-0 country","scalerank":"1","labelrank":"3","continent":"Oceania","region_un":"Oceania","region_wb":"East Asia & Pacific","region_who":"WPRO","name_ar":"كاليدونيا الجديدة","name_bn":"নতুন ক্যালিডোনিয়া","name_de":"Neukaledonien","name_en":"New Caledonia","name_es":"Nueva Caledonia","name_fa":"کالدونیای جدید","name_fr":"Nouvelle-Calédonie","name_el":"Νέα Καληδονία","name_he":"קלדוניה החדשה","name_hi":"नया कैलेडोनिया","name_hu":"Új-Kaledónia","name_id":"Kaledonia Baru","name_it":"Nuova Caledonia","name_ja":"ニューカレドニア","name_ko":"누벨칼레도니","name_nl":"Nieuw-Caledonië","name_pl":"Nowa Kaledonia","name_pt":"Nova Caledónia","name_ru":"Новая Каледония","name_sv":"Nya Kaledonien","name_tr":"Yeni Kaledonya","name_uk":"Нова Каледонія","name_ur":"نیو کیلیڈونیا","name_vi":"Nouvelle-Calédonie","name_zh":"新喀里多尼亚","name_zht":"新喀里多尼亞"},{"id":"NER","lon":"9.274063190028773","lat":"17.34085411273817","name":"Niger","iso_n3":"562","fill":"#edc949","featurecla":"Admin-0 country","scalerank":"1","labelrank":"3","continent":"Africa","region_un":"Africa","region_wb":"Sub-Saharan Africa","region_who":"AFRO","name_ar":"النيجر","name_bn":"নাইজার","name_de":"Niger","name_en":"Niger","name_es":"Níger","name_fa":"نیجر","name_fr":"Niger","name_el":"Νίγηρας","name_he":"ניז'ר","name_hi":"नाइजर","name_hu":"Niger","name_id":"Niger","name_it":"Niger","name_ja":"ニジェール","name_ko":"니제르","name_nl":"Niger","name_pl":"Niger","name_pt":"Níger","name_ru":"Нигер","name_sv":"Niger","name_tr":"Nijer","name_uk":"Нігер","name_ur":"نائجر","name_vi":"Niger","name_zh":"尼日尔","name_zht":"尼日"},{"id":"NGA","lon":"7.985654139168394","lat":"9.544975137568802","name":"Nigeria","iso_n3":"566","fill":"#af7aa1","featurecla":"Admin-0 country","scalerank":"1","labelrank":"2","continent":"Africa","region_un":"Africa","region_wb":"Sub-Saharan Africa","region_who":"AFRO","name_ar":"نيجيريا","name_bn":"নাইজেরিয়া","name_de":"Nigeria","name_en":"Nigeria","name_es":"Nigeria","name_fa":"نیجریه","name_fr":"Nigeria","name_el":"Νιγηρία","name_he":"ניגריה","name_hi":"नाईजीरिया","name_hu":"Nigéria","name_id":"Nigeria","name_it":"Nigeria","name_ja":"ナイジェリア","name_ko":"나이지리아","name_nl":"Nigeria","name_pl":"Nigeria","name_pt":"Nigéria","name_ru":"Нигерия","name_sv":"Nigeria","name_tr":"Nijerya","name_uk":"Нігерія","name_ur":"نائجیریا","name_vi":"Nigeria","name_zh":"尼日利亚","name_zht":"奈及利亞"},{"id":"NIC","lon":"-85.02172645259063","lat":"12.846224812897704","name":"Nicaragua","iso_n3":"558","fill":"#76b7b2","featurecla":"Admin-0 country","scalerank":"1","labelrank":"5","continent":"North America","region_un":"Americas","region_wb":"Latin America & Caribbean","region_who":"AMRO","name_ar":"نيكاراغوا","name_bn":"নিকারাগুয়া","name_de":"Nicaragua","name_en":"Nicaragua","name_es":"Nicaragua","name_fa":"نیکاراگوئه","name_fr":"Nicaragua","name_el":"Νικαράγουα","name_he":"ניקרגואה","name_hi":"निकारागुआ","name_hu":"Nicaragua","name_id":"Nikaragua","name_it":"Nicaragua","name_ja":"ニカラグア","name_ko":"니카라과","name_nl":"Nicaragua","name_pl":"Nikaragua","name_pt":"Nicarágua","name_ru":"Никарагуа","name_sv":"Nicaragua","name_tr":"Nikaragua","name_uk":"Нікарагуа","name_ur":"نکاراگوا","name_vi":"Nicaragua","name_zh":"尼加拉瓜","name_zht":"尼加拉瓜"},{"id":"NLD","lon":"5.500560784404633","lat":"52.29335053358046","name":"Netherlands","iso_n3":"528","fill":"#4e79a7","featurecla":"Admin-0 country","scalerank":"1","labelrank":"5","continent":"Europe","region_un":"Europe","region_wb":"Europe & Central Asia","region_who":"EURO","name_ar":"هولندا","name_bn":"নেদারল্যান্ডস","name_de":"Niederlande","name_en":"Netherlands","name_es":"Países Bajos","name_fa":"هلند","name_fr":"Pays-Bas","name_el":"Ολλανδία","name_he":"הולנד","name_hi":"नीदरलैण्ड","name_hu":"Hollandia","name_id":"Belanda","name_it":"Paesi Bassi","name_ja":"オランダ","name_ko":"네덜란드","name_nl":"Nederland","name_pl":"Holandia","name_pt":"Países Baixos","name_ru":"Нидерланды","name_sv":"Nederländerna","name_tr":"Hollanda","name_uk":"Нідерланди","name_ur":"نیدرلینڈز","name_vi":"Hà Lan","name_zh":"荷兰","name_zht":"荷蘭"},{"id":"NOR","lon":"12.36818591979518","lat":"64.08604164844404","name":"Norway","iso_n3":"578","fill":"#ff9da7","featurecla":"Admin-0 country","scalerank":"1","labelrank":"3","continent":"Europe","region_un":"Europe","region_wb":"Europe & Central Asia","region_who":"EURO","name_ar":"النرويج","name_bn":"নরওয়ে","name_de":"Norwegen","name_en":"Norway","name_es":"Noruega","name_fa":"نروژ","name_fr":"Norvège","name_el":"Νορβηγία","name_he":"נורווגיה","name_hi":"नॉर्वे","name_hu":"Norvégia","name_id":"Norwegia","name_it":"Norvegia","name_ja":"ノルウェー","name_ko":"노르웨이","name_nl":"Noorwegen","name_pl":"Norwegia","name_pt":"Noruega","name_ru":"Норвегия","name_sv":"Norge","name_tr":"Norveç","name_uk":"Норвегія","name_ur":"ناروے","name_vi":"Na Uy","name_zh":"挪威","name_zht":"挪威"},{"id":"NPL","lon":"84.04388570458818","lat":"28.248979478271064","name":"Nepal","iso_n3":"524","fill":"#af7aa1","featurecla":"Admin-0 country","scalerank":"1","labelrank":"3","continent":"Asia","region_un":"Asia","region_wb":"South Asia","region_who":"SEARO","name_ar":"نيبال","name_bn":"নেপাল","name_de":"Nepal","name_en":"Nepal","name_es":"Nepal","name_fa":"نپال","name_fr":"Népal","name_el":"Νεπάλ","name_he":"נפאל","name_hi":"नेपाल","name_hu":"Nepál","name_id":"Nepal","name_it":"Nepal","name_ja":"ネパール","name_ko":"네팔","name_nl":"Nepal","name_pl":"Nepal","name_pt":"Nepal","name_ru":"Непал","name_sv":"Nepal","name_tr":"Nepal","name_uk":"Непал","name_ur":"نیپال","name_vi":"Nepal","name_zh":"尼泊尔","name_zht":"尼泊爾"},{"id":"NZL","lon":"170.59750090354524","lat":"-43.96189644226908","name":"New Zealand","iso_n3":"554","fill":"#edc949","featurecla":"Admin-0 country","scalerank":"1","labelrank":"2","continent":"Oceania","region_un":"Oceania","region_wb":"East Asia & Pacific","region_who":"WPRO","name_ar":"نيوزيلندا","name_bn":"নিউজিল্যান্ড","name_de":"Neuseeland","name_en":"New Zealand","name_es":"Nueva Zelanda","name_fa":"نیوزیلند","name_fr":"Nouvelle-Zélande","name_el":"Νέα Ζηλανδία","name_he":"ניו זילנד","name_hi":"न्यूज़ीलैण्ड","name_hu":"Új-Zéland","name_id":"Selandia Baru","name_it":"Nuova Zelanda","name_ja":"ニュージーランド","name_ko":"뉴질랜드","name_nl":"Nieuw-Zeeland","name_pl":"Nowa Zelandia","name_pt":"Nova Zelândia","name_ru":"Новая Зеландия","name_sv":"Nya Zeeland","name_tr":"Yeni Zelanda","name_uk":"Нова Зеландія","name_ur":"نیوزی لینڈ","name_vi":"New Zealand","name_zh":"新西兰","name_zht":"新西蘭"},{"id":"OMN","lon":"56.06652556747393","lat":"20.562156161227158","name":"Oman","iso_n3":"512","fill":"#e15759","featurecla":"Admin-0 country","scalerank":"1","labelrank":"4","continent":"Asia","region_un":"Asia","region_wb":"Middle East & North Africa","region_who":"EMRO","name_ar":"سلطنة عمان","name_bn":"ওমান","name_de":"Oman","name_en":"Oman","name_es":"Omán","name_fa":"عمان","name_fr":"Oman","name_el":"Ομάν","name_he":"עומאן","name_hi":"ओमान","name_hu":"Omán","name_id":"Oman","name_it":"Oman","name_ja":"オマーン","name_ko":"오만","name_nl":"Oman","name_pl":"Oman","name_pt":"Omã","name_ru":"Оман","name_sv":"Oman","name_tr":"Umman","name_uk":"Оман","name_ur":"عمان","name_vi":"Oman","name_zh":"阿曼","name_zht":"阿曼"},{"id":"PAK","lon":"69.23494779711595","lat":"29.908118020443705","name":"Pakistan","iso_n3":"586","fill":"#ff9da7","featurecla":"Admin-0 country","scalerank":"1","labelrank":"2","continent":"Asia","region_un":"Asia","region_wb":"South Asia","region_who":"EMRO","name_ar":"باكستان","name_bn":"পাকিস্তান","name_de":"Pakistan","name_en":"Pakistan","name_es":"Pakistán","name_fa":"پاکستان","name_fr":"Pakistan","name_el":"Πακιστάν","name_he":"פקיסטן","name_hi":"पाकिस्तान","name_hu":"Pakisztán","name_id":"Pakistan","name_it":"Pakistan","name_ja":"パキスタン","name_ko":"파키스탄","name_nl":"Pakistan","name_pl":"Pakistan","name_pt":"Paquistão","name_ru":"Пакистан","name_sv":"Pakistan","name_tr":"Pakistan","name_uk":"Пакистан","name_ur":"پاکستان","name_vi":"Pakistan","name_zh":"巴基斯坦","name_zht":"巴基斯坦"},{"id":"PAN","lon":"-80.108823940374","lat":"8.532768288618756","name":"Panama","iso_n3":"591","fill":"#f28e2c","featurecla":"Admin-0 country","scalerank":"1","labelrank":"4","continent":"North America","region_un":"Americas","region_wb":"Latin America & Caribbean","region_who":"AMRO","name_ar":"بنما","name_bn":"পানামা","name_de":"Panama","name_en":"Panama","name_es":"Panamá","name_fa":"پاناما","name_fr":"Panama","name_el":"Παναμάς","name_he":"פנמה","name_hi":"पनामा","name_hu":"Panama","name_id":"Panama","name_it":"Panama","name_ja":"パナマ","name_ko":"파나마","name_nl":"Panama","name_pl":"Panama","name_pt":"Panamá","name_ru":"Панама","name_sv":"Panama","name_tr":"Panama","name_uk":"Панама","name_ur":"پاناما","name_vi":"Panama","name_zh":"巴拿马","name_zht":"巴拿馬"},{"id":"PER","lon":"-74.43044720648331","lat":"-9.14679692445557","name":"Peru","iso_n3":"604","fill":"#9c755f","featurecla":"Admin-0 country","scalerank":"1","labelrank":"2","continent":"South America","region_un":"Americas","region_wb":"Latin America & Caribbean","region_who":"AMRO","name_ar":"بيرو","name_bn":"পেরু","name_de":"Peru","name_en":"Peru","name_es":"Perú","name_fa":"پرو","name_fr":"Pérou","name_el":"Περού","name_he":"פרו","name_hi":"पेरू","name_hu":"Peru","name_id":"Peru","name_it":"Perù","name_ja":"ペルー","name_ko":"페루","name_nl":"Peru","name_pl":"Peru","name_pt":"Peru","name_ru":"Перу","name_sv":"Peru","name_tr":"Peru","name_uk":"Перу","name_ur":"پیرو","name_vi":"Peru","name_zh":"秘鲁","name_zht":"秘魯"},{"id":"PHL","lon":"121.55092323259043","lat":"15.741222114207021","name":"Philippines","iso_n3":"608","fill":"#af7aa1","featurecla":"Admin-0 country","scalerank":"1","labelrank":"2","continent":"Asia","region_un":"Asia","region_wb":"East Asia & Pacific","region_who":"WPRO","name_ar":"الفلبين","name_bn":"ফিলিপাইন","name_de":"Philippinen","name_en":"Philippines","name_es":"Filipinas","name_fa":"فیلیپین","name_fr":"Philippines","name_el":"Φιλιππίνες","name_he":"הפיליפינים","name_hi":"फ़िलीपीन्स","name_hu":"Fülöp-szigetek","name_id":"Filipina","name_it":"Filippine","name_ja":"フィリピン","name_ko":"필리핀","name_nl":"Filipijnen","name_pl":"Filipiny","name_pt":"Filipinas","name_ru":"Филиппины","name_sv":"Filippinerna","name_tr":"Filipinler","name_uk":"Філіппіни","name_ur":"فلپائن","name_vi":"Philippines","name_zh":"菲律宾","name_zht":"菲律賓"},{"id":"PNG","lon":"144.32072423719492","lat":"-6.644143049774546","name":"Papua New Guinea","iso_n3":"598","fill":"#e15759","featurecla":"Admin-0 country","scalerank":"1","labelrank":"2","continent":"Oceania","region_un":"Oceania","region_wb":"East Asia & Pacific","region_who":"WPRO","name_ar":"بابوا غينيا الجديدة","name_bn":"পাপুয়া নিউগিনি","name_de":"Papua-Neuguinea","name_en":"Papua New Guinea","name_es":"Papúa Nueva Guinea","name_fa":"پاپوآ گینه نو","name_fr":"Papouasie-Nouvelle-Guinée","name_el":"Παπούα Νέα Γουινέα","name_he":"פפואה גינאה החדשה","name_hi":"पापुआ न्यू गिनी","name_hu":"Pápua Új-Guinea","name_id":"Papua Nugini","name_it":"Papua Nuova Guinea","name_ja":"パプアニューギニア","name_ko":"파푸아뉴기니","name_nl":"Papoea-Nieuw-Guinea","name_pl":"Papua-Nowa Gwinea","name_pt":"Papua-Nova Guiné","name_ru":"Папуа — Новая Гвинея","name_sv":"Papua Nya Guinea","name_tr":"Papua Yeni Gine","name_uk":"Папуа Нова Гвінея","name_ur":"پاپوا نیو گنی","name_vi":"Papua New Guinea","name_zh":"巴布亚新几内亚","name_zht":"巴布亞紐幾內亞"},{"id":"POL","lon":"19.343538760681042","lat":"52.13396310668422","name":"Poland","iso_n3":"616","fill":"#4e79a7","featurecla":"Admin-0 country","scalerank":"1","labelrank":"3","continent":"Europe","region_un":"Europe","region_wb":"Europe & Central Asia","region_who":"EURO","name_ar":"بولندا","name_bn":"পোল্যান্ড","name_de":"Polen","name_en":"Poland","name_es":"Polonia","name_fa":"لهستان","name_fr":"Pologne","name_el":"Πολωνία","name_he":"פולין","name_hi":"पोलैंड","name_hu":"Lengyelország","name_id":"Polandia","name_it":"Polonia","name_ja":"ポーランド","name_ko":"폴란드","name_nl":"Polen","name_pl":"Polska","name_pt":"Polónia","name_ru":"Польша","name_sv":"Polen","name_tr":"Polonya","name_uk":"Польща","name_ur":"پولینڈ","name_vi":"Ba Lan","name_zh":"波兰","name_zht":"波蘭"},{"id":"PRI","lon":"-66.4792526249674","lat":"18.237780263673603","name":"Puerto Rico","iso_n3":"630","fill":"#59a14f","featurecla":"Admin-0 country","scalerank":"1","labelrank":"5","continent":"North America","region_un":"Americas","region_wb":"Latin America & Caribbean","region_who":"AMRO","name_ar":"بورتوريكو","name_bn":"পুয়ের্তো রিকো","name_de":"Puerto Rico","name_en":"Puerto Rico","name_es":"Puerto Rico","name_fa":"پورتوریکو","name_fr":"Porto Rico","name_el":"Πουέρτο Ρίκο","name_he":"פוארטו ריקו","name_hi":"पोर्टो रीको","name_hu":"Puerto Rico","name_id":"Puerto Riko","name_it":"Porto Rico","name_ja":"プエルトリコ","name_ko":"푸에르토리코","name_nl":"Puerto Rico","name_pl":"Portoryko","name_pt":"Porto Rico","name_ru":"Пуэрто-Рико","name_sv":"Puerto Rico","name_tr":"Porto Riko","name_uk":"Пуерто-Рико","name_ur":"پورٹو ریکو","name_vi":"Puerto Rico","name_zh":"波多黎各","name_zht":"波多黎各"},{"id":"PRK","lon":"127.13101045885267","lat":"40.129923543628195","name":"North Korea","iso_n3":"408","fill":"#f28e2c","featurecla":"Admin-0 country","scalerank":"1","labelrank":"3","continent":"Asia","region_un":"Asia","region_wb":"East Asia & Pacific","region_who":"SEARO","name_ar":"كوريا الشمالية","name_bn":"উত্তর কোরিয়া","name_de":"Nordkorea","name_en":"North Korea","name_es":"Corea del Norte","name_fa":"کره شمالی","name_fr":"Corée du Nord","name_el":"Βόρεια Κορέα","name_he":"קוריאה הצפונית","name_hi":"उत्तर कोरिया","name_hu":"Észak-Korea","name_id":"Korea Utara","name_it":"Corea del Nord","name_ja":"朝鮮民主主義人民共和国","name_ko":"조선민주주의인민공화국","name_nl":"Noord-Korea","name_pl":"Korea Północna","name_pt":"Coreia do Norte","name_ru":"КНДР","name_sv":"Nordkorea","name_tr":"Kuzey Kore","name_uk":"Корейська Народно-Демократична Республіка","name_ur":"شمالی کوریا","name_vi":"Cộng hòa Dân chủ Nhân dân Triều Tiên","name_zh":"朝鲜民主主义人民共和国","name_zht":"朝鮮民主主義人民共和國"},{"id":"PRT","lon":"-8.06120261096763","lat":"39.607048686481185","name":"Portugal","iso_n3":"620","fill":"#4e79a7","featurecla":"Admin-0 country","scalerank":"1","labelrank":"2","continent":"Europe","region_un":"Europe","region_wb":"Europe & Central Asia","region_who":"EURO","name_ar":"البرتغال","name_bn":"পর্তুগাল","name_de":"Portugal","name_en":"Portugal","name_es":"Portugal","name_fa":"پرتغال","name_fr":"Portugal","name_el":"Πορτογαλία","name_he":"פורטוגל","name_hi":"पुर्तगाल","name_hu":"Portugália","name_id":"Portugal","name_it":"Portogallo","name_ja":"ポルトガル","name_ko":"포르투갈","name_nl":"Portugal","name_pl":"Portugalia","name_pt":"Portugal","name_ru":"Португалия","name_sv":"Portugal","name_tr":"Portekiz","name_uk":"Португалія","name_ur":"پرتگال","name_vi":"Bồ Đào Nha","name_zh":"葡萄牙","name_zht":"葡萄牙"},{"id":"PRY","lon":"-58.431860573447004","lat":"-23.229342089158383","name":"Paraguay","iso_n3":"600","fill":"#9c755f","featurecla":"Admin-0 country","scalerank":"1","labelrank":"4","continent":"South America","region_un":"Americas","region_wb":"Latin America & Caribbean","region_who":"AMRO","name_ar":"باراغواي","name_bn":"প্যারাগুয়ে","name_de":"Paraguay","name_en":"Paraguay","name_es":"Paraguay","name_fa":"پاراگوئه","name_fr":"Paraguay","name_el":"Παραγουάη","name_he":"פרגוואי","name_hi":"पैराग्वे","name_hu":"Paraguay","name_id":"Paraguay","name_it":"Paraguay","name_ja":"パラグアイ","name_ko":"파라과이","name_nl":"Paraguay","name_pl":"Paragwaj","name_pt":"Paraguai","name_ru":"Парагвай","name_sv":"Paraguay","name_tr":"Paraguay","name_uk":"Парагвай","name_ur":"پیراگوئے","name_vi":"Paraguay","name_zh":"巴拉圭","name_zht":"巴拉圭"},{"id":"PSX","lon":"35.27296889135123","lat":"31.940508476769576","name":"Palestine","iso_n3":"275","fill":"#e15759","featurecla":"Admin-0 country","scalerank":"1","labelrank":"5","continent":"Asia","region_un":"Asia","region_wb":"Middle East & North Africa","region_who":"EMRO","name_ar":"فلسطين","name_bn":"ফিলিস্তিন অঞ্চল","name_de":"Palästina","name_en":"Palestine","name_es":"Palestina","name_fa":"فلسطین","name_fr":"Palestine","name_el":"Παλαιστίνη","name_he":"ארץ ישראל","name_hi":"फ़िलिस्तीनी राज्यक्षेत्र","name_hu":"Palesztina","name_id":"Palestina","name_it":"Palestina","name_ja":"パレスチナ","name_ko":"팔레스타인","name_nl":"Palestina","name_pl":"Palestyna","name_pt":"Palestina","name_ru":"Палестина","name_sv":"Palestina","name_tr":"Filistin","name_uk":"Палестина","name_ur":"فلسطین","name_vi":"Palestine","name_zh":"巴勒斯坦","name_zht":"巴勒斯坦地區"},{"id":"QAT","lon":"51.18330565891534","lat":"25.320978149522695","name":"Qatar","iso_n3":"634","fill":"#9c755f","featurecla":"Admin-0 country","scalerank":"1","labelrank":"5","continent":"Asia","region_un":"Asia","region_wb":"Middle East & North Africa","region_who":"EMRO","name_ar":"قطر","name_bn":"কাতার","name_de":"Katar","name_en":"Qatar","name_es":"Catar","name_fa":"قطر","name_fr":"Qatar","name_el":"Κατάρ","name_he":"קטר","name_hi":"क़तर","name_hu":"Katar","name_id":"Qatar","name_it":"Qatar","name_ja":"カタール","name_ko":"카타르","name_nl":"Qatar","name_pl":"Katar","name_pt":"Catar","name_ru":"Катар","name_sv":"Qatar","name_tr":"Katar","name_uk":"Катар","name_ur":"قطر","name_vi":"Qatar","name_zh":"卡塔尔","name_zht":"卡達"},{"id":"ROU","lon":"24.953866483849826","lat":"45.85321844377588","name":"Romania","iso_n3":"642","fill":"#59a14f","featurecla":"Admin-0 country","scalerank":"1","labelrank":"3","continent":"Europe","region_un":"Europe","region_wb":"Europe & Central Asia","region_who":"EURO","name_ar":"رومانيا","name_bn":"রোমানিয়া","name_de":"Rumänien","name_en":"Romania","name_es":"Rumania","name_fa":"رومانی","name_fr":"Roumanie","name_el":"Ρουμανία","name_he":"רומניה","name_hi":"रोमानिया","name_hu":"Románia","name_id":"Rumania","name_it":"Romania","name_ja":"ルーマニア","name_ko":"루마니아","name_nl":"Roemenië","name_pl":"Rumunia","name_pt":"Roménia","name_ru":"Румыния","name_sv":"Rumänien","name_tr":"Romanya","name_uk":"Румунія","name_ur":"رومانیہ","name_vi":"Romania","name_zh":"罗马尼亚","name_zht":"羅馬尼亞"},{"id":"RUS","lon":"95.71822104818995","lat":"65.94289819640538","name":"Russia","iso_n3":"643","fill":"#59a14f","featurecla":"Admin-0 country","scalerank":"1","labelrank":"2","continent":"Europe","region_un":"Europe","region_wb":"Europe & Central Asia","region_who":"EURO","name_ar":"روسيا","name_bn":"রাশিয়া","name_de":"Russland","name_en":"Russia","name_es":"Rusia","name_fa":"روسیه","name_fr":"Russie","name_el":"Ρωσία","name_he":"רוסיה","name_hi":"रूस","name_hu":"Oroszország","name_id":"Rusia","name_it":"Russia","name_ja":"ロシア","name_ko":"러시아","name_nl":"Rusland","name_pl":"Rosja","name_pt":"Rússia","name_ru":"Россия","name_sv":"Ryssland","name_tr":"Rusya","name_uk":"Росія","name_ur":"روس","name_vi":"Nga","name_zh":"俄罗斯","name_zht":"俄羅斯"},{"id":"RWA","lon":"29.9190697583557","lat":"-2.0134979971464086","name":"Rwanda","iso_n3":"646","fill":"#f28e2c","featurecla":"Admin-0 country","scalerank":"1","labelrank":"3","continent":"Africa","region_un":"Africa","region_wb":"Sub-Saharan Africa","region_who":"AFRO","name_ar":"رواندا","name_bn":"রুয়ান্ডা","name_de":"Ruanda","name_en":"Rwanda","name_es":"Ruanda","name_fa":"رواندا","name_fr":"Rwanda","name_el":"Ρουάντα","name_he":"רואנדה","name_hi":"रवाण्डा","name_hu":"Ruanda","name_id":"Rwanda","name_it":"Ruanda","name_ja":"ルワンダ","name_ko":"르완다","name_nl":"Rwanda","name_pl":"Rwanda","name_pt":"Ruanda","name_ru":"Руанда","name_sv":"Rwanda","name_tr":"Ruanda","name_uk":"Руанда","name_ur":"روانڈا","name_vi":"Rwanda","name_zh":"卢旺达","name_zht":"盧旺達"},{"id":"SAU","lon":"44.64153396462998","lat":"24.089567164297087","name":"Saudi Arabia","iso_n3":"682","fill":"#f28e2c","featurecla":"Admin-0 country","scalerank":"1","labelrank":"2","continent":"Asia","region_un":"Asia","region_wb":"Middle East & North Africa","region_who":"EMRO","name_ar":"السعودية","name_bn":"সৌদি আরব","name_de":"Saudi-Arabien","name_en":"Saudi Arabia","name_es":"Arabia Saudita","name_fa":"عربستان سعودی","name_fr":"Arabie saoudite","name_el":"Σαουδική Αραβία","name_he":"ערב הסעודית","name_hi":"सउदी अरब","name_hu":"Szaúd-Arábia","name_id":"Arab Saudi","name_it":"Arabia Saudita","name_ja":"サウジアラビア","name_ko":"사우디아라비아","name_nl":"Saoedi-Arabië","name_pl":"Arabia Saudyjska","name_pt":"Arábia Saudita","name_ru":"Саудовская Аравия","name_sv":"Saudiarabien","name_tr":"Suudi Arabistan","name_uk":"Саудівська Аравія","name_ur":"سعودی عرب","name_vi":"Ả Rập Saudi","name_zh":"沙特阿拉伯","name_zht":"沙烏地阿拉伯"},{"id":"SDN","lon":"29.830407996799625","lat":"15.971341981737176","name":"Sudan","iso_n3":"729","fill":"#4e79a7","featurecla":"Admin-0 country","scalerank":"1","labelrank":"3","continent":"Africa","region_un":"Africa","region_wb":"Sub-Saharan Africa","region_who":"EMRO","name_ar":"السودان","name_bn":"সুদান","name_de":"Sudan","name_en":"Sudan","name_es":"Sudán","name_fa":"سودان","name_fr":"Soudan","name_el":"Σουδάν","name_he":"סודאן","name_hi":"सूडान","name_hu":"Szudán","name_id":"Sudan","name_it":"Sudan","name_ja":"スーダン","name_ko":"수단","name_nl":"Soedan","name_pl":"Sudan","name_pt":"Sudão","name_ru":"Судан","name_sv":"Sudan","name_tr":"Sudan","name_uk":"Судан","name_ur":"سوڈان","name_vi":"Sudan","name_zh":"苏丹","name_zht":"蘇丹"},{"id":"SEN","lon":"-14.505709239464665","lat":"14.353378438465864","name":"Senegal","iso_n3":"686","fill":"#f28e2c","featurecla":"Admin-0 country","scalerank":"1","labelrank":"3","continent":"Africa","region_un":"Africa","region_wb":"Sub-Saharan Africa","region_who":"AFRO","name_ar":"السنغال","name_bn":"সেনেগাল","name_de":"Senegal","name_en":"Senegal","name_es":"Senegal","name_fa":"سنگال","name_fr":"Sénégal","name_el":"Σενεγάλη","name_he":"סנגל","name_hi":"सेनेगल","name_hu":"Szenegál","name_id":"Senegal","name_it":"Senegal","name_ja":"セネガル","name_ko":"세네갈","name_nl":"Senegal","name_pl":"Senegal","name_pt":"Senegal","name_ru":"Сенегал","name_sv":"Senegal","name_tr":"Senegal","name_uk":"Сенегал","name_ur":"سینیگال","name_vi":"Sénégal","name_zh":"塞内加尔","name_zht":"塞內加爾"},{"id":"SLB","lon":"159.1019850826657","lat":"-7.902313514770886","name":"Solomon Is.","iso_n3":"090","fill":"#59a14f","featurecla":"Admin-0 country","scalerank":"1","labelrank":"3","continent":"Oceania","region_un":"Oceania","region_wb":"East Asia & Pacific","region_who":"WPRO","name_ar":"جزر سليمان","name_bn":"সলোমন দ্বীপপুঞ্জ","name_de":"Salomonen","name_en":"Solomon Islands","name_es":"Islas Salomón","name_fa":"جزایر سلیمان","name_fr":"Îles Salomon","name_el":"Νησιά Σολομώντα","name_he":"איי שלמה","name_hi":"सोलोमन द्वीपसमूह","name_hu":"Salamon-szigetek","name_id":"Kepulauan Solomon","name_it":"Isole Salomone","name_ja":"ソロモン諸島","name_ko":"솔로몬 제도","name_nl":"Salomonseilanden","name_pl":"Wyspy Salomona","name_pt":"Ilhas Salomão","name_ru":"Соломоновы Острова","name_sv":"Salomonöarna","name_tr":"Solomon Adaları","name_uk":"Соломонові Острови","name_ur":"جزائر سلیمان","name_vi":"Quần đảo Solomon","name_zh":"所罗门群岛","name_zht":"索羅門群島"},{"id":"SLE","lon":"-11.795406381760714","lat":"8.529458936123344","name":"Sierra Leone","iso_n3":"694","fill":"#edc949","featurecla":"Admin-0 country","scalerank":"1","labelrank":"4","continent":"Africa","region_un":"Africa","region_wb":"Sub-Saharan Africa","region_who":"AFRO","name_ar":"سيراليون","name_bn":"সিয়েরা লিওন","name_de":"Sierra Leone","name_en":"Sierra Leone","name_es":"Sierra Leona","name_fa":"سیرالئون","name_fr":"Sierra Leone","name_el":"Σιέρα Λεόνε","name_he":"סיירה לאון","name_hi":"सिएरा लियोन","name_hu":"Sierra Leone","name_id":"Sierra Leone","name_it":"Sierra Leone","name_ja":"シエラレオネ","name_ko":"시에라리온","name_nl":"Sierra Leone","name_pl":"Sierra Leone","name_pt":"Serra Leoa","name_ru":"Сьерра-Леоне","name_sv":"Sierra Leone","name_tr":"Sierra Leone","name_uk":"Сьєрра-Леоне","name_ur":"سیرالیون","name_vi":"Sierra Leone","name_zh":"塞拉利昂","name_zht":"獅子山"},{"id":"SLV","lon":"-88.87223493574567","lat":"13.726547461583705","name":"El Salvador","iso_n3":"222","fill":"#edc949","featurecla":"Admin-0 country","scalerank":"1","labelrank":"6","continent":"North America","region_un":"Americas","region_wb":"Latin America & Caribbean","region_who":"AMRO","name_ar":"السلفادور","name_bn":"এল সালভাদোর","name_de":"El Salvador","name_en":"El Salvador","name_es":"El Salvador","name_fa":"السالوادور","name_fr":"Salvador","name_el":"Ελ Σαλβαδόρ","name_he":"אל סלוודור","name_hi":"अल साल्वाडोर","name_hu":"Salvador","name_id":"El Salvador","name_it":"El Salvador","name_ja":"エルサルバドル","name_ko":"엘살바도르","name_nl":"El Salvador","name_pl":"Salwador","name_pt":"El Salvador","name_ru":"Сальвадор","name_sv":"El Salvador","name_tr":"El Salvador","name_uk":"Сальвадор","name_ur":"ایل سیلواڈور","name_vi":"El Salvador","name_zh":"萨尔瓦多","name_zht":"薩爾瓦多"},{"id":"SOL","lon":"46.23221988265361","lat":"9.761285697932859","name":"Somaliland","iso_n3":"-3","fill":"#9c755f","featurecla":"Admin-0 country","scalerank":"1","labelrank":"5","continent":"Africa","region_un":"Africa","region_wb":"Sub-Saharan Africa","region_who":"EMRO","name_ar":"صوماليلاند","name_bn":"সোমালিল্যান্ড","name_de":"Somaliland","name_en":"Somaliland","name_es":"Somalilandia","name_fa":"سومالیلند","name_fr":"Somaliland","name_el":"Σομαλιλάνδη","name_he":"סומלילנד","name_hi":"सोमालीदेश","name_hu":"Szomáliföld","name_id":"Somaliland","name_it":"Somaliland","name_ja":"ソマリランド","name_ko":"소말릴란드","name_nl":"Somaliland","name_pl":"Somaliland","name_pt":"Somalilândia","name_ru":"Сомалиленд","name_sv":"Somaliland","name_tr":"Somaliland","name_uk":"Сомаліленд","name_ur":"صومالی لینڈ","name_vi":"Somaliland","name_zh":"索马里兰","name_zht":"索馬利蘭"},{"id":"SOM","lon":"45.69956494219362","lat":"4.741568093190164","name":"Somalia","iso_n3":"706","fill":"#ff9da7","featurecla":"Admin-0 country","scalerank":"1","labelrank":"6","continent":"Africa","region_un":"Africa","region_wb":"Sub-Saharan Africa","region_who":"EMRO","name_ar":"الصومال","name_bn":"সোমালিয়া","name_de":"Somalia","name_en":"Somalia","name_es":"Somalia","name_fa":"سومالی","name_fr":"Somalie","name_el":"Σομαλία","name_he":"סומליה","name_hi":"सोमालिया","name_hu":"Szomália","name_id":"Somalia","name_it":"Somalia","name_ja":"ソマリア","name_ko":"소말리아","name_nl":"Somalië","name_pl":"Somalia","name_pt":"Somália","name_ru":"Сомали","name_sv":"Somalia","name_tr":"Somali","name_uk":"Сомалі","name_ur":"صومالیہ","name_vi":"Somalia","name_zh":"索马里","name_zht":"索馬利亞"},{"id":"SRB","lon":"20.837114005316725","lat":"44.22290576068481","name":"Serbia","iso_n3":"688","fill":"#e15759","featurecla":"Admin-0 country","scalerank":"1","labelrank":"5","continent":"Europe","region_un":"Europe","region_wb":"Europe & Central Asia","region_who":"EURO","name_ar":"صربيا","name_bn":"সার্বিয়া","name_de":"Serbien","name_en":"Serbia","name_es":"Serbia","name_fa":"صربستان","name_fr":"Serbie","name_el":"Σερβία","name_he":"סרביה","name_hi":"सर्बिया","name_hu":"Szerbia","name_id":"Serbia","name_it":"Serbia","name_ja":"セルビア","name_ko":"세르비아","name_nl":"Servië","name_pl":"Serbia","name_pt":"Sérvia","name_ru":"Сербия","name_sv":"Serbien","name_tr":"Sırbistan","name_uk":"Сербія","name_ur":"سربیا","name_vi":"Serbia","name_zh":"塞尔维亚","name_zht":"塞爾維亞"},{"id":"SSD","lon":"30.202104861443463","lat":"7.292926003787505","name":"S. Sudan","iso_n3":"728","fill":"#76b7b2","featurecla":"Admin-0 country","scalerank":"1","labelrank":"3","continent":"Africa","region_un":"Africa","region_wb":"Sub-Saharan Africa","region_who":"AFRO","name_ar":"جنوب السودان","name_bn":"দক্ষিণ সুদান","name_de":"Südsudan","name_en":"South Sudan","name_es":"Sudán del Sur","name_fa":"سودان جنوبی","name_fr":"Soudan du Sud","name_el":"Νότιο Σουδάν","name_he":"דרום סודאן","name_hi":"दक्षिण सूडान","name_hu":"Dél-Szudán","name_id":"Sudan Selatan","name_it":"Sudan del Sud","name_ja":"南スーダン","name_ko":"남수단","name_nl":"Zuid-Soedan","name_pl":"Sudan Południowy","name_pt":"Sudão do Sul","name_ru":"Южный Судан","name_sv":"Sydsudan","name_tr":"Güney Sudan","name_uk":"Південний Судан","name_ur":"جنوبی سوڈان","name_vi":"Nam Sudan","name_zh":"南苏丹","name_zht":"南蘇丹"},{"id":"SUR","lon":"-55.911544652122615","lat":"4.119393636760442","name":"Suriname","iso_n3":"740","fill":"#f28e2c","featurecla":"Admin-0 country","scalerank":"1","labelrank":"4","continent":"South America","region_un":"Americas","region_wb":"Latin America & Caribbean","region_who":"AMRO","name_ar":"سورينام","name_bn":"সুরিনাম","name_de":"Suriname","name_en":"Suriname","name_es":"Surinam","name_fa":"سورینام","name_fr":"Suriname","name_el":"Σουρινάμ","name_he":"סורינאם","name_hi":"सूरीनाम","name_hu":"Suriname","name_id":"Suriname","name_it":"Suriname","name_ja":"スリナム","name_ko":"수리남","name_nl":"Suriname","name_pl":"Surinam","name_pt":"Suriname","name_ru":"Суринам","name_sv":"Surinam","name_tr":"Surinam","name_uk":"Суринам","name_ur":"سرینام","name_vi":"Suriname","name_zh":"苏里南","name_zht":"蘇利南"},{"id":"SVK","lon":"19.497269368255036","lat":"48.7332386521063","name":"Slovakia","iso_n3":"703","fill":"#e15759","featurecla":"Admin-0 country","scalerank":"1","labelrank":"6","continent":"Europe","region_un":"Europe","region_wb":"Europe & Central Asia","region_who":"EURO","name_ar":"سلوفاكيا","name_bn":"স্লোভাকিয়া","name_de":"Slowakei","name_en":"Slovakia","name_es":"Eslovaquia","name_fa":"اسلواکی","name_fr":"Slovaquie","name_el":"Σλοβακία","name_he":"סלובקיה","name_hi":"स्लोवाकिया","name_hu":"Szlovákia","name_id":"Slowakia","name_it":"Slovacchia","name_ja":"スロバキア","name_ko":"슬로바키아","name_nl":"Slowakije","name_pl":"Słowacja","name_pt":"Eslováquia","name_ru":"Словакия","name_sv":"Slovakien","name_tr":"Slovakya","name_uk":"Словаччина","name_ur":"سلوواکیہ","name_vi":"Slovakia","name_zh":"斯洛伐克","name_zht":"斯洛伐克"},{"id":"SVN","lon":"14.933920448643828","lat":"46.12586538590273","name":"Slovenia","iso_n3":"705","fill":"#e15759","featurecla":"Admin-0 country","scalerank":"1","labelrank":"6","continent":"Europe","region_un":"Europe","region_wb":"Europe & Central Asia","region_who":"EURO","name_ar":"سلوفينيا","name_bn":"স্লোভেনিয়া","name_de":"Slowenien","name_en":"Slovenia","name_es":"Eslovenia","name_fa":"اسلوونی","name_fr":"Slovénie","name_el":"Σλοβενία","name_he":"סלובניה","name_hi":"स्लोवेनिया","name_hu":"Szlovénia","name_id":"Slovenia","name_it":"Slovenia","name_ja":"スロベニア","name_ko":"슬로베니아","name_nl":"Slovenië","name_pl":"Słowenia","name_pt":"Eslovénia","name_ru":"Словения","name_sv":"Slovenien","name_tr":"Slovenya","name_uk":"Словенія","name_ur":"سلووینیا","name_vi":"Slovenia","name_zh":"斯洛文尼亚","name_zht":"斯洛維尼亞"},{"id":"SWE","lon":"16.10893574013581","lat":"62.41834091126858","name":"Sweden","iso_n3":"752","fill":"#af7aa1","featurecla":"Admin-0 country","scalerank":"1","labelrank":"3","continent":"Europe","region_un":"Europe","region_wb":"Europe & Central Asia","region_who":"EURO","name_ar":"السويد","name_bn":"সুইডেন","name_de":"Schweden","name_en":"Sweden","name_es":"Suecia","name_fa":"سوئد","name_fr":"Suède","name_el":"Σουηδία","name_he":"שוודיה","name_hi":"स्वीडन","name_hu":"Svédország","name_id":"Swedia","name_it":"Svezia","name_ja":"スウェーデン","name_ko":"스웨덴","name_nl":"Zweden","name_pl":"Szwecja","name_pt":"Suécia","name_ru":"Швеция","name_sv":"Sverige","name_tr":"İsveç","name_uk":"Швеція","name_ur":"سویڈن","name_vi":"Thụy Điển","name_zh":"瑞典","name_zht":"瑞典"},{"id":"SWZ","lon":"31.39505795065235","lat":"-26.48915825895077","name":"eSwatini","iso_n3":"748","fill":"#edc949","featurecla":"Admin-0 country","scalerank":"1","labelrank":"4","continent":"Africa","region_un":"Africa","region_wb":"Sub-Saharan Africa","region_who":"AFRO","name_ar":"إسواتيني","name_bn":"ইসোয়াতিনি","name_de":"Eswatini","name_en":"Eswatini","name_es":"Suazilandia","name_fa":"اسواتینی","name_fr":"Eswatini","name_el":"Εσουατίνι","name_he":"אסוואטיני","name_hi":"एस्वातीनी","name_hu":"Szváziföld","name_id":"Eswatini","name_it":"eSwatini","name_ja":"エスワティニ","name_ko":"에스와티니","name_nl":"Swaziland","name_pl":"Eswatini","name_pt":"Essuatíni","name_ru":"Эсватини","name_sv":"Swaziland","name_tr":"Esvatini","name_uk":"Есватіні","name_ur":"اسواتینی","name_vi":"Eswatini","name_zh":"斯威士兰","name_zht":"史瓦帝尼"},{"id":"SYR","lon":"38.5231164362703","lat":"35.00830452654838","name":"Syria","iso_n3":"760","fill":"#59a14f","featurecla":"Admin-0 country","scalerank":"1","labelrank":"3","continent":"Asia","region_un":"Asia","region_wb":"Middle East & North Africa","region_who":"EMRO","name_ar":"سوريا","name_bn":"সিরিয়া","name_de":"Syrien","name_en":"Syria","name_es":"Siria","name_fa":"سوریه","name_fr":"Syrie","name_el":"Συρία","name_he":"סוריה","name_hi":"सीरिया","name_hu":"Szíria","name_id":"Suriah","name_it":"Siria","name_ja":"シリア","name_ko":"시리아","name_nl":"Syrië","name_pl":"Syria","name_pt":"Síria","name_ru":"Сирия","name_sv":"Syrien","name_tr":"Suriye","name_uk":"Сирія","name_ur":"سوریہ","name_vi":"Syria","name_zh":"叙利亚","name_zht":"敘利亞"},{"id":"TCD","lon":"18.573328247754247","lat":"15.276276076983066","name":"Chad","iso_n3":"148","fill":"#f28e2c","featurecla":"Admin-0 country","scalerank":"1","labelrank":"3","continent":"Africa","region_un":"Africa","region_wb":"Sub-Saharan Africa","region_who":"AFRO","name_ar":"تشاد","name_bn":"চাদ","name_de":"Tschad","name_en":"Chad","name_es":"Chad","name_fa":"چاد","name_fr":"Tchad","name_el":"Τσαντ","name_he":"צ'אד","name_hi":"चाड","name_hu":"Csád","name_id":"Chad","name_it":"Ciad","name_ja":"チャド","name_ko":"차드","name_nl":"Tsjaad","name_pl":"Czad","name_pt":"Chade","name_ru":"Чад","name_sv":"Tchad","name_tr":"Çad","name_uk":"Чад","name_ur":"چاڈ","name_vi":"Tchad","name_zh":"乍得","name_zht":"查德"},{"id":"TGO","lon":"0.9979002459845195","lat":"8.434912551793422","name":"Togo","iso_n3":"768","fill":"#9c755f","featurecla":"Admin-0 country","scalerank":"1","labelrank":"6","continent":"Africa","region_un":"Africa","region_wb":"Sub-Saharan Africa","region_who":"AFRO","name_ar":"توغو","name_bn":"টোগো","name_de":"Togo","name_en":"Togo","name_es":"Togo","name_fa":"توگو","name_fr":"Togo","name_el":"Τόγκο","name_he":"טוגו","name_hi":"टोगो","name_hu":"Togo","name_id":"Togo","name_it":"Togo","name_ja":"トーゴ","name_ko":"토고","name_nl":"Togo","name_pl":"Togo","name_pt":"Togo","name_ru":"Того","name_sv":"Togo","name_tr":"Togo","name_uk":"Того","name_ur":"ٹوگو","name_vi":"Togo","name_zh":"多哥","name_zht":"多哥"},{"id":"THA","lon":"101.00279480162823","lat":"14.980983213678966","name":"Thailand","iso_n3":"764","fill":"#edc949","featurecla":"Admin-0 country","scalerank":"1","labelrank":"3","continent":"Asia","region_un":"Asia","region_wb":"East Asia & Pacific","region_who":"SEARO","name_ar":"تايلاند","name_bn":"থাইল্যান্ড","name_de":"Thailand","name_en":"Thailand","name_es":"Tailandia","name_fa":"تایلند","name_fr":"Thaïlande","name_el":"Ταϊλάνδη","name_he":"תאילנד","name_hi":"थाईलैण्ड","name_hu":"Thaiföld","name_id":"Thailand","name_it":"Thailandia","name_ja":"タイ王国","name_ko":"태국","name_nl":"Thailand","name_pl":"Tajlandia","name_pt":"Tailândia","name_ru":"Таиланд","name_sv":"Thailand","name_tr":"Tayland","name_uk":"Таїланд","name_ur":"تھائی لینڈ","name_vi":"Thái Lan","name_zh":"泰国","name_zht":"泰國"},{"id":"TJK","lon":"71.04827987819289","lat":"38.589029056368","name":"Tajikistan","iso_n3":"762","fill":"#f28e2c","featurecla":"Admin-0 country","scalerank":"1","labelrank":"4","continent":"Asia","region_un":"Asia","region_wb":"Europe & Central Asia","region_who":"EURO","name_ar":"طاجيكستان","name_bn":"তাজিকিস্তান","name_de":"Tadschikistan","name_en":"Tajikistan","name_es":"Tayikistán","name_fa":"تاجیکستان","name_fr":"Tadjikistan","name_el":"Τατζικιστάν","name_he":"טג׳יקיסטן","name_hi":"ताजिकिस्तान","name_hu":"Tádzsikisztán","name_id":"Tajikistan","name_it":"Tagikistan","name_ja":"タジキスタン","name_ko":"타지키스탄","name_nl":"Tadzjikistan","name_pl":"Tadżykistan","name_pt":"Tajiquistão","name_ru":"Таджикистан","name_sv":"Tadzjikistan","name_tr":"Tacikistan","name_uk":"Таджикистан","name_ur":"تاجکستان","name_vi":"Tajikistan","name_zh":"塔吉克斯坦","name_zht":"塔吉克"},{"id":"TKM","lon":"59.34836800476916","lat":"39.10215028909549","name":"Turkmenistan","iso_n3":"795","fill":"#76b7b2","featurecla":"Admin-0 country","scalerank":"1","labelrank":"4","continent":"Asia","region_un":"Asia","region_wb":"Europe & Central Asia","region_who":"EURO","name_ar":"تركمانستان","name_bn":"তুর্কমেনিস্তান","name_de":"Turkmenistan","name_en":"Turkmenistan","name_es":"Turkmenistán","name_fa":"ترکمنستان","name_fr":"Turkménistan","name_el":"Τουρκμενιστάν","name_he":"טורקמניסטן","name_hi":"तुर्कमेनिस्तान","name_hu":"Türkmenisztán","name_id":"Turkmenistan","name_it":"Turkmenistan","name_ja":"トルクメニスタン","name_ko":"투르크메니스탄","name_nl":"Turkmenistan","name_pl":"Turkmenistan","name_pt":"Turquemenistão","name_ru":"Туркмения","name_sv":"Turkmenistan","name_tr":"Türkmenistan","name_uk":"Туркменістан","name_ur":"ترکمانستان","name_vi":"Turkmenistan","name_zh":"土库曼斯坦","name_zht":"土庫曼"},{"id":"TLS","lon":"125.96692284497291","lat":"-8.7682191734432","name":"Timor-Leste","iso_n3":"626","fill":"#f28e2c","featurecla":"Admin-0 country","scalerank":"1","labelrank":"5","continent":"Asia","region_un":"Asia","region_wb":"East Asia & Pacific","region_who":"SEARO","name_ar":"تيمور الشرقية","name_bn":"পূর্ব তিমুর","name_de":"Osttimor","name_en":"East Timor","name_es":"Timor Oriental","name_fa":"تیمور شرقی","name_fr":"Timor oriental","name_el":"Ανατολικό Τιμόρ","name_he":"מזרח טימור","name_hi":"पूर्वी तिमोर","name_hu":"Kelet-Timor","name_id":"Timor Leste","name_it":"Timor Est","name_ja":"東ティモール","name_ko":"동티모르","name_nl":"Oost-Timor","name_pl":"Timor Wschodni","name_pt":"Timor-Leste","name_ru":"Восточный Тимор","name_sv":"Östtimor","name_tr":"Doğu Timor","name_uk":"Східний Тимор","name_ur":"مشرقی تیمور","name_vi":"Đông Timor","name_zh":"东帝汶","name_zht":"東帝汶"},{"id":"TTO","lon":"-61.330505272743416","lat":"10.428272992893652","name":"Trinidad and Tobago","iso_n3":"780","fill":"#edc949","featurecla":"Admin-0 country","scalerank":"1","labelrank":"5","continent":"North America","region_un":"Americas","region_wb":"Latin America & Caribbean","region_who":"AMRO","name_ar":"ترينيداد وتوباغو","name_bn":"ত্রিনিদাদ ও টোবাগো","name_de":"Trinidad und Tobago","name_en":"Trinidad and Tobago","name_es":"Trinidad y Tobago","name_fa":"ترینیداد و توباگو","name_fr":"Trinité-et-Tobago","name_el":"Τρινιντάντ και Τομπάγκο","name_he":"טרינידד וטובגו","name_hi":"त्रिनिदाद और टोबैगो","name_hu":"Trinidad és Tobago","name_id":"Trinidad dan Tobago","name_it":"Trinidad e Tobago","name_ja":"トリニダード・トバゴ","name_ko":"트리니다드 토바고","name_nl":"Trinidad en Tobago","name_pl":"Trynidad i Tobago","name_pt":"Trinidad e Tobago","name_ru":"Тринидад и Тобаго","name_sv":"Trinidad och Tobago","name_tr":"Trinidad ve Tobago","name_uk":"Тринідад і Тобаго","name_ur":"ٹرینیڈاڈ و ٹوباگو","name_vi":"Trinidad và Tobago","name_zh":"特立尼达和多巴哥","name_zht":"千里達及托巴哥"},{"id":"TUN","lon":"9.538545170938018","lat":"34.14387499192301","name":"Tunisia","iso_n3":"788","fill":"#59a14f","featurecla":"Admin-0 country","scalerank":"1","labelrank":"3","continent":"Africa","region_un":"Africa","region_wb":"Middle East & North Africa","region_who":"EMRO","name_ar":"تونس","name_bn":"তিউনিসিয়া","name_de":"Tunesien","name_en":"Tunisia","name_es":"Túnez","name_fa":"تونس","name_fr":"Tunisie","name_el":"Τυνησία","name_he":"תוניסיה","name_hi":"ट्यूनिशिया","name_hu":"Tunézia","name_id":"Tunisia","name_it":"Tunisia","name_ja":"チュニジア","name_ko":"튀니지","name_nl":"Tunesië","name_pl":"Tunezja","name_pt":"Tunísia","name_ru":"Тунис","name_sv":"Tunisien","name_tr":"Tunus","name_uk":"Туніс","name_ur":"تونس","name_vi":"Tuy-ni-di","name_zh":"突尼斯","name_zht":"突尼西亞"},{"id":"TUR","lon":"35.37458112366196","lat":"39.06349616749753","name":"Turkey","iso_n3":"792","fill":"#76b7b2","featurecla":"Admin-0 country","scalerank":"1","labelrank":"2","continent":"Asia","region_un":"Asia","region_wb":"Europe & Central Asia","region_who":"EURO","name_ar":"تركيا","name_bn":"তুরস্ক","name_de":"Türkei","name_en":"Turkey","name_es":"Turquía","name_fa":"ترکیه","name_fr":"Turquie","name_el":"Τουρκία","name_he":"טורקיה","name_hi":"तुर्की","name_hu":"Törökország","name_id":"Turki","name_it":"Turchia","name_ja":"トルコ","name_ko":"터키","name_nl":"Turkije","name_pl":"Turcja","name_pt":"Turquia","name_ru":"Турция","name_sv":"Turkiet","name_tr":"Türkiye","name_uk":"Туреччина","name_ur":"ترکی","name_vi":"Thổ Nhĩ Kỳ","name_zh":"土耳其","name_zht":"土耳其"},{"id":"TWN","lon":"120.97150802143243","lat":"23.738053151622697","name":"Taiwan","iso_n3":"158","fill":"#9c755f","featurecla":"Admin-0 country","scalerank":"1","labelrank":"3","continent":"Asia","region_un":"Asia","region_wb":"East Asia & Pacific","region_who":"WPRO","name_ar":"تايوان","name_bn":"তাইওয়ান","name_de":"Republik China","name_en":"Taiwan","name_es":"República de China","name_fa":"تایوان","name_fr":"Taïwan","name_el":"Δημοκρατία της Κίνας","name_he":"טאיוואן","name_hi":"चीनी गणराज्य","name_hu":"Kínai Köztársaság","name_id":"Taiwan","name_it":"Taiwan","name_ja":"中華民国","name_ko":"중화민국","name_nl":"Taiwan","name_pl":"Republika Chińska","name_pt":"Taiwan","name_ru":"Тайвань","name_sv":"Taiwan","name_tr":"Çin Cumhuriyeti","name_uk":"Республіка Китай","name_ur":"تائیوان","name_vi":"Đài Loan","name_zh":"中华民国","name_zht":"中華民國"},{"id":"TZA","lon":"34.74198175604694","lat":"-6.250564412856308","name":"Tanzania","iso_n3":"834","fill":"#edc949","featurecla":"Admin-0 country","scalerank":"1","labelrank":"3","continent":"Africa","region_un":"Africa","region_wb":"Sub-Saharan Africa","region_who":"AFRO","name_ar":"تنزانيا","name_bn":"তানজানিয়া","name_de":"Tansania","name_en":"Tanzania","name_es":"Tanzania","name_fa":"تانزانیا","name_fr":"Tanzanie","name_el":"Τανζανία","name_he":"טנזניה","name_hi":"तंज़ानिया","name_hu":"Tanzánia","name_id":"Tanzania","name_it":"Tanzania","name_ja":"タンザニア","name_ko":"탄자니아","name_nl":"Tanzania","name_pl":"Tanzania","name_pt":"Tanzânia","name_ru":"Танзания","name_sv":"Tanzania","name_tr":"Tanzanya","name_uk":"Танзанія","name_ur":"تنزانیہ","name_vi":"Tanzania","name_zh":"坦桑尼亚","name_zht":"坦尚尼亞"},{"id":"UGA","lon":"32.357112350199884","lat":"1.2950376717491607","name":"Uganda","iso_n3":"800","fill":"#4e79a7","featurecla":"Admin-0 country","scalerank":"1","labelrank":"3","continent":"Africa","region_un":"Africa","region_wb":"Sub-Saharan Africa","region_who":"AFRO","name_ar":"أوغندا","name_bn":"উগান্ডা","name_de":"Uganda","name_en":"Uganda","name_es":"Uganda","name_fa":"اوگاندا","name_fr":"Ouganda","name_el":"Ουγκάντα","name_he":"אוגנדה","name_hi":"युगाण्डा","name_hu":"Uganda","name_id":"Uganda","name_it":"Uganda","name_ja":"ウガンダ","name_ko":"우간다","name_nl":"Oeganda","name_pl":"Uganda","name_pt":"Uganda","name_ru":"Уганда","name_sv":"Uganda","name_tr":"Uganda","name_uk":"Уганда","name_ur":"یوگنڈا","name_vi":"Uganda","name_zh":"乌干达","name_zht":"烏干達"},{"id":"UKR","lon":"31.450148801750924","lat":"48.99849916948942","name":"Ukraine","iso_n3":"804","fill":"#9c755f","featurecla":"Admin-0 country","scalerank":"1","labelrank":"3","continent":"Europe","region_un":"Europe","region_wb":"Europe & Central Asia","region_who":"EURO","name_ar":"أوكرانيا","name_bn":"ইউক্রেন","name_de":"Ukraine","name_en":"Ukraine","name_es":"Ucrania","name_fa":"اوکراین","name_fr":"Ukraine","name_el":"Ουκρανία","name_he":"אוקראינה","name_hi":"युक्रेन","name_hu":"Ukrajna","name_id":"Ukraina","name_it":"Ucraina","name_ja":"ウクライナ","name_ko":"우크라이나","name_nl":"Oekraïne","name_pl":"Ukraina","name_pt":"Ucrânia","name_ru":"Украина","name_sv":"Ukraina","name_tr":"Ukrayna","name_uk":"Україна","name_ur":"یوکرین","name_vi":"Ukraina","name_zh":"乌克兰","name_zht":"烏克蘭"},{"id":"URY","lon":"-56.00999181348755","lat":"-32.773823211597374","name":"Uruguay","iso_n3":"858","fill":"#edc949","featurecla":"Admin-0 country","scalerank":"1","labelrank":"4","continent":"South America","region_un":"Americas","region_wb":"Latin America & Caribbean","region_who":"AMRO","name_ar":"الأوروغواي","name_bn":"উরুগুয়ে","name_de":"Uruguay","name_en":"Uruguay","name_es":"Uruguay","name_fa":"اروگوئه","name_fr":"Uruguay","name_el":"Ουρουγουάη","name_he":"אורוגוואי","name_hi":"उरुग्वे","name_hu":"Uruguay","name_id":"Uruguay","name_it":"Uruguay","name_ja":"ウルグアイ","name_ko":"우루과이","name_nl":"Uruguay","name_pl":"Urugwaj","name_pt":"Uruguai","name_ru":"Уругвай","name_sv":"Uruguay","name_tr":"Uruguay","name_uk":"Уругвай","name_ur":"یوراگوئے","name_vi":"Uruguay","name_zh":"乌拉圭","name_zht":"烏拉圭"},{"id":"USA","lon":"-98.73427340939371","lat":"39.86758621895058","name":"United States of America","iso_n3":"840","fill":"#9c755f","featurecla":"Admin-0 country","scalerank":"1","labelrank":"2","continent":"North America","region_un":"Americas","region_wb":"North America","region_who":"AMRO","name_ar":"الولايات المتحدة","name_bn":"মার্কিন যুক্তরাষ্ট্র","name_de":"Vereinigte Staaten","name_en":"United States of America","name_es":"Estados Unidos","name_fa":"ایالات متحده آمریکا","name_fr":"États-Unis","name_el":"Ηνωμένες Πολιτείες Αμερικής","name_he":"ארצות הברית","name_hi":"संयुक्त राज्य अमेरिका","name_hu":"Amerikai Egyesült Államok","name_id":"Amerika Serikat","name_it":"Stati Uniti d'America","name_ja":"アメリカ合衆国","name_ko":"미국","name_nl":"Verenigde Staten van Amerika","name_pl":"Stany Zjednoczone","name_pt":"Estados Unidos","name_ru":"США","name_sv":"USA","name_tr":"Amerika Birleşik Devletleri","name_uk":"Сполучені Штати Америки","name_ur":"ریاستہائے متحدہ امریکا","name_vi":"Hoa Kỳ","name_zh":"美国","name_zht":"美國"},{"id":"UZB","lon":"63.365863428046126","lat":"41.771087030943704","name":"Uzbekistan","iso_n3":"860","fill":"#e15759","featurecla":"Admin-0 country","scalerank":"1","labelrank":"3","continent":"Asia","region_un":"Asia","region_wb":"Europe & Central Asia","region_who":"EURO","name_ar":"أوزبكستان","name_bn":"উজবেকিস্তান","name_de":"Usbekistan","name_en":"Uzbekistan","name_es":"Uzbekistán","name_fa":"ازبکستان","name_fr":"Ouzbékistan","name_el":"Ουζμπεκιστάν","name_he":"אוזבקיסטן","name_hi":"उज़्बेकिस्तान","name_hu":"Üzbegisztán","name_id":"Uzbekistan","name_it":"Uzbekistan","name_ja":"ウズベキスタン","name_ko":"우즈베키스탄","name_nl":"Oezbekistan","name_pl":"Uzbekistan","name_pt":"Uzbequistão","name_ru":"Узбекистан","name_sv":"Uzbekistan","name_tr":"Özbekistan","name_uk":"Узбекистан","name_ur":"ازبکستان","name_vi":"Uzbekistan","name_zh":"乌兹别克斯坦","name_zht":"烏茲別克"},{"id":"VEN","lon":"-66.15277666633324","lat":"7.160597778060593","name":"Venezuela","iso_n3":"862","fill":"#9c755f","featurecla":"Admin-0 country","scalerank":"1","labelrank":"3","continent":"South America","region_un":"Americas","region_wb":"Latin America & Caribbean","region_who":"AMRO","name_ar":"فنزويلا","name_bn":"ভেনেজুয়েলা","name_de":"Venezuela","name_en":"Venezuela","name_es":"Venezuela","name_fa":"ونزوئلا","name_fr":"Venezuela","name_el":"Βενεζουέλα","name_he":"ונצואלה","name_hi":"वेनेज़ुएला","name_hu":"Venezuela","name_id":"Venezuela","name_it":"Venezuela","name_ja":"ベネズエラ","name_ko":"베네수엘라","name_nl":"Venezuela","name_pl":"Wenezuela","name_pt":"Venezuela","name_ru":"Венесуэла","name_sv":"Venezuela","name_tr":"Venezuela","name_uk":"Венесуела","name_ur":"وینیزویلا","name_vi":"Venezuela","name_zh":"委内瑞拉","name_zht":"委內瑞拉"},{"id":"VNM","lon":"106.33295358041136","lat":"16.55531952780846","name":"Vietnam","iso_n3":"704","fill":"#9c755f","featurecla":"Admin-0 country","scalerank":"1","labelrank":"2","continent":"Asia","region_un":"Asia","region_wb":"East Asia & Pacific","region_who":"WPRO","name_ar":"فيتنام","name_bn":"ভিয়েতনাম","name_de":"Vietnam","name_en":"Vietnam","name_es":"Vietnam","name_fa":"ویتنام","name_fr":"Viêt Nam","name_el":"Βιετνάμ","name_he":"וייטנאם","name_hi":"वियतनाम","name_hu":"Vietnám","name_id":"Vietnam","name_it":"Vietnam","name_ja":"ベトナム","name_ko":"베트남","name_nl":"Vietnam","name_pl":"Wietnam","name_pt":"Vietname","name_ru":"Вьетнам","name_sv":"Vietnam","name_tr":"Vietnam","name_uk":"В'єтнам","name_ur":"ویتنام","name_vi":"Việt Nam","name_zh":"越南","name_zht":"越南"},{"id":"VUT","lon":"166.90701082534991","lat":"-15.223152058687928","name":"Vanuatu","iso_n3":"548","fill":"#76b7b2","featurecla":"Admin-0 country","scalerank":"1","labelrank":"4","continent":"Oceania","region_un":"Oceania","region_wb":"East Asia & Pacific","region_who":"WPRO","name_ar":"فانواتو","name_bn":"ভানুয়াতু","name_de":"Vanuatu","name_en":"Vanuatu","name_es":"Vanuatu","name_fa":"وانواتو","name_fr":"Vanuatu","name_el":"Βανουάτου","name_he":"ונואטו","name_hi":"वानूआटू","name_hu":"Vanuatu","name_id":"Vanuatu","name_it":"Vanuatu","name_ja":"バヌアツ","name_ko":"바누아투","name_nl":"Vanuatu","name_pl":"Vanuatu","name_pt":"Vanuatu","name_ru":"Вануату","name_sv":"Vanuatu","name_tr":"Vanuatu","name_uk":"Вануату","name_ur":"وانواتو","name_vi":"Vanuatu","name_zh":"瓦努阿图","name_zht":"萬那杜"},{"id":"WEST","lon":"-13.69034591461345","lat":"24.86092200136406","name":"Western part of Western Sahara","iso_n3":"","fill":"","featurecla":"PIECE","scalerank":"3","labelrank":"6","continent":"Africa","region_un":"Africa","region_wb":"Middle East & North Africa","region_who":"AFRO","name_ar":"","name_bn":"","name_de":"","name_en":"","name_es":"","name_fa":"","name_fr":"","name_el":"","name_he":"","name_hi":"","name_hu":"","name_id":"","name_it":"","name_ja":"","name_ko":"","name_nl":"","name_pl":"","name_pt":"","name_ru":"","name_sv":"","name_tr":"","name_uk":"","name_ur":"","name_vi":"","name_zh":"","name_zht":""},{"id":"YEM","lon":"47.51493513978399","lat":"15.92208071251389","name":"Yemen","iso_n3":"887","fill":"#ff9da7","featurecla":"Admin-0 country","scalerank":"1","labelrank":"3","continent":"Asia","region_un":"Asia","region_wb":"Middle East & North Africa","region_who":"EMRO","name_ar":"اليمن","name_bn":"ইয়েমেন","name_de":"Jemen","name_en":"Yemen","name_es":"Yemen","name_fa":"یمن","name_fr":"Yémen","name_el":"Υεμένη","name_he":"תימן","name_hi":"यमन","name_hu":"Jemen","name_id":"Yaman","name_it":"Yemen","name_ja":"イエメン","name_ko":"예멘","name_nl":"Jemen","name_pl":"Jemen","name_pt":"Iémen","name_ru":"Йемен","name_sv":"Jemen","name_tr":"Yemen","name_uk":"Ємен","name_ur":"یمن","name_vi":"Yemen","name_zh":"也门","name_zht":"葉門"},{"id":"ZAF","lon":"25.157862195196323","lat":"-28.92324390402206","name":"South Africa","iso_n3":"710","fill":"#e15759","featurecla":"Admin-0 country","scalerank":"1","labelrank":"2","continent":"Africa","region_un":"Africa","region_wb":"Sub-Saharan Africa","region_who":"AFRO","name_ar":"جنوب أفريقيا","name_bn":"দক্ষিণ আফ্রিকা","name_de":"Südafrika","name_en":"South Africa","name_es":"Sudáfrica","name_fa":"آفریقای جنوبی","name_fr":"Afrique du Sud","name_el":"Νότια Αφρική","name_he":"דרום אפריקה","name_hi":"दक्षिण अफ़्रीका","name_hu":"Dél-afrikai Köztársaság","name_id":"Afrika Selatan","name_it":"Sudafrica","name_ja":"南アフリカ共和国","name_ko":"남아프리카 공화국","name_nl":"Zuid-Afrika","name_pl":"Południowa Afryka","name_pt":"África do Sul","name_ru":"ЮАР","name_sv":"Sydafrika","name_tr":"Güney Afrika Cumhuriyeti","name_uk":"Південно-Африканська Республіка","name_ur":"جنوبی افریقا","name_vi":"Cộng hòa Nam Phi","name_zh":"南非","name_zht":"南非"},{"id":"ZMB","lon":"27.761679814959063","lat":"-13.392944033763657","name":"Zambia","iso_n3":"894","fill":"#e15759","featurecla":"Admin-0 country","scalerank":"1","labelrank":"3","continent":"Africa","region_un":"Africa","region_wb":"Sub-Saharan Africa","region_who":"AFRO","name_ar":"زامبيا","name_bn":"জাম্বিয়া","name_de":"Sambia","name_en":"Zambia","name_es":"Zambia","name_fa":"زامبیا","name_fr":"Zambie","name_el":"Ζάμπια","name_he":"זמביה","name_hi":"ज़ाम्बिया","name_hu":"Zambia","name_id":"Zambia","name_it":"Zambia","name_ja":"ザンビア","name_ko":"잠비아","name_nl":"Zambia","name_pl":"Zambia","name_pt":"Zâmbia","name_ru":"Замбия","name_sv":"Zambia","name_tr":"Zambiya","name_uk":"Замбія","name_ur":"زیمبیا","name_vi":"Zambia","name_zh":"赞比亚","name_zht":"尚比亞"},{"id":"ZWE","lon":"29.78893995829432","lat":"-18.900177549082642","name":"Zimbabwe","iso_n3":"716","fill":"#ff9da7","featurecla":"Admin-0 country","scalerank":"1","labelrank":"3","continent":"Africa","region_un":"Africa","region_wb":"Sub-Saharan Africa","region_who":"AFRO","name_ar":"زيمبابوي","name_bn":"জিম্বাবুয়ে","name_de":"Simbabwe","name_en":"Zimbabwe","name_es":"Zimbabue","name_fa":"زیمبابوه","name_fr":"Zimbabwe","name_el":"Ζιμπάμπουε","name_he":"זימבבואה","name_hi":"ज़िम्बाब्वे","name_hu":"Zimbabwe","name_id":"Zimbabwe","name_it":"Zimbabwe","name_ja":"ジンバブエ","name_ko":"짐바브웨","name_nl":"Zimbabwe","name_pl":"Zimbabwe","name_pt":"Zimbábue","name_ru":"Зимбабве","name_sv":"Zimbabwe","name_tr":"Zimbabve","name_uk":"Зімбабве","name_ur":"زمبابوے","name_vi":"Zimbabwe","name_zh":"津巴布韦","name_zht":"辛巴威"},{"id":"AND","lon":"1.53","lat":"42.53","name":"Andorre","iso_n3":"","fill":"#4e79a7","featurecla":"small nation","scalerank":"7","labelrank":"7","continent":"","region_un":"","region_wb":"","region_who":"","name_ar":"","name_bn":"","name_de":"","name_en":"","name_es":"","name_fa":"","name_fr":"","name_el":"","name_he":"","name_hi":"","name_hu":"","name_id":"","name_it":"","name_ja":"","name_ko":"","name_nl":"","name_pl":"","name_pt":"","name_ru":"","name_sv":"","name_tr":"","name_uk":"","name_ur":"","name_vi":"","name_zh":"","name_zht":""},{"id":"ATG","lon":"-61.854","lat":"17.087","name":"Antigua & Barbuda","iso_n3":"","fill":"#f28e2c","featurecla":"small nation","scalerank":"7","labelrank":"7","continent":"","region_un":"","region_wb":"","region_who":"","name_ar":"","name_bn":"","name_de":"","name_en":"","name_es":"","name_fa":"","name_fr":"","name_el":"","name_he":"","name_hi":"","name_hu":"","name_id":"","name_it":"","name_ja":"","name_ko":"","name_nl":"","name_pl":"","name_pt":"","name_ru":"","name_sv":"","name_tr":"","name_uk":"","name_ur":"","name_vi":"","name_zh":"","name_zht":""},{"id":"BHR","lon":"50.558","lat":"26.067","name":"Bahrain","iso_n3":"","fill":"#e15759","featurecla":"small nation","scalerank":"7","labelrank":"7","continent":"","region_un":"","region_wb":"","region_who":"","name_ar":"","name_bn":"","name_de":"","name_en":"","name_es":"","name_fa":"","name_fr":"","name_el":"","name_he":"","name_hi":"","name_hu":"","name_id":"","name_it":"","name_ja":"","name_ko":"","name_nl":"","name_pl":"","name_pt":"","name_ru":"","name_sv":"","name_tr":"","name_uk":"","name_ur":"","name_vi":"","name_zh":"","name_zht":""},{"id":"BRB","lon":"-59.56","lat":"13.187","name":"Barbados","iso_n3":"","fill":"#76b7b2","featurecla":"small nation","scalerank":"7","labelrank":"7","continent":"","region_un":"","region_wb":"","region_who":"","name_ar":"","name_bn":"","name_de":"","name_en":"","name_es":"","name_fa":"","name_fr":"","name_el":"","name_he":"","name_hi":"","name_hu":"","name_id":"","name_it":"","name_ja":"","name_ko":"","name_nl":"","name_pl":"","name_pt":"","name_ru":"","name_sv":"","name_tr":"","name_uk":"","name_ur":"","name_vi":"","name_zh":"","name_zht":""},{"id":"COK","lon":"-159.73","lat":"-21.28","name":"Cook Islands","iso_n3":"","fill":"#59a14f","featurecla":"small nation","scalerank":"7","labelrank":"7","continent":"","region_un":"","region_wb":"","region_who":"","name_ar":"","name_bn":"","name_de":"","name_en":"","name_es":"","name_fa":"","name_fr":"","name_el":"","name_he":"","name_hi":"","name_hu":"","name_id":"","name_it":"","name_ja":"","name_ko":"","name_nl":"","name_pl":"","name_pt":"","name_ru":"","name_sv":"","name_tr":"","name_uk":"","name_ur":"","name_vi":"","name_zh":"","name_zht":""},{"id":"COM","lon":"43.441","lat":"-11.732","name":"Comores","iso_n3":"","fill":"#edc949","featurecla":"small nation","scalerank":"7","labelrank":"7","continent":"","region_un":"","region_wb":"","region_who":"","name_ar":"","name_bn":"","name_de":"","name_en":"","name_es":"","name_fa":"","name_fr":"","name_el":"","name_he":"","name_hi":"","name_hu":"","name_id":"","name_it":"","name_ja":"","name_ko":"","name_nl":"","name_pl":"","name_pt":"","name_ru":"","name_sv":"","name_tr":"","name_uk":"","name_ur":"","name_vi":"","name_zh":"","name_zht":""},{"id":"CPV","lon":"-23.605","lat":"15.12","name":"Cape Verde","iso_n3":"","fill":"#af7aa1","featurecla":"small nation","scalerank":"7","labelrank":"7","continent":"","region_un":"","region_wb":"","region_who":"","name_ar":"","name_bn":"","name_de":"","name_en":"","name_es":"","name_fa":"","name_fr":"","name_el":"","name_he":"","name_hi":"","name_hu":"","name_id":"","name_it":"","name_ja":"","name_ko":"","name_nl":"","name_pl":"","name_pt":"","name_ru":"","name_sv":"","name_tr":"","name_uk":"","name_ur":"","name_vi":"","name_zh":"","name_zht":""},{"id":"DGA","lon":"72.397","lat":"-7.344","name":"Diego Garcia","iso_n3":"","fill":"#ff9da7","featurecla":"small nation","scalerank":"7","labelrank":"7","continent":"","region_un":"","region_wb":"","region_who":"","name_ar":"","name_bn":"","name_de":"","name_en":"","name_es":"","name_fa":"","name_fr":"","name_el":"","name_he":"","name_hi":"","name_hu":"","name_id":"","name_it":"","name_ja":"","name_ko":"","name_nl":"","name_pl":"","name_pt":"","name_ru":"","name_sv":"","name_tr":"","name_uk":"","name_ur":"","name_vi":"","name_zh":"","name_zht":""},{"id":"DMA","lon":"-61.371","lat":"15.415","name":"Dominica","iso_n3":"","fill":"#9c755f","featurecla":"small nation","scalerank":"7","labelrank":"7","continent":"","region_un":"","region_wb":"","region_who":"","name_ar":"","name_bn":"","name_de":"","name_en":"","name_es":"","name_fa":"","name_fr":"","name_el":"","name_he":"","name_hi":"","name_hu":"","name_id":"","name_it":"","name_ja":"","name_ko":"","name_nl":"","name_pl":"","name_pt":"","name_ru":"","name_sv":"","name_tr":"","name_uk":"","name_ur":"","name_vi":"","name_zh":"","name_zht":""},{"id":"FSM","lon":"158.215","lat":"6.887","name":"Micronesia","iso_n3":"","fill":"#4e79a7","featurecla":"small nation","scalerank":"7","labelrank":"7","continent":"","region_un":"","region_wb":"","region_who":"","name_ar":"","name_bn":"","name_de":"","name_en":"","name_es":"","name_fa":"","name_fr":"","name_el":"","name_he":"","name_hi":"","name_hu":"","name_id":"","name_it":"","name_ja":"","name_ko":"","name_nl":"","name_pl":"","name_pt":"","name_ru":"","name_sv":"","name_tr":"","name_uk":"","name_ur":"","name_vi":"","name_zh":"","name_zht":""},{"id":"GRD","lon":"-61.679","lat":"12.117","name":"Grenada","iso_n3":"","fill":"#f28e2c","featurecla":"small nation","scalerank":"7","labelrank":"7","continent":"","region_un":"","region_wb":"","region_who":"","name_ar":"","name_bn":"","name_de":"","name_en":"","name_es":"","name_fa":"","name_fr":"","name_el":"","name_he":"","name_hi":"","name_hu":"","name_id":"","name_it":"","name_ja":"","name_ko":"","name_nl":"","name_pl":"","name_pt":"","name_ru":"","name_sv":"","name_tr":"","name_uk":"","name_ur":"","name_vi":"","name_zh":"","name_zht":""},{"id":"HKG","lon":"114.109","lat":"22.396","name":"Hong Kong, China","iso_n3":"","fill":"#e15759","featurecla":"small nation","scalerank":"7","labelrank":"7","continent":"","region_un":"","region_wb":"","region_who":"","name_ar":"","name_bn":"","name_de":"","name_en":"","name_es":"","name_fa":"","name_fr":"","name_el":"","name_he":"","name_hi":"","name_hu":"","name_id":"","name_it":"","name_ja":"","name_ko":"","name_nl":"","name_pl":"","name_pt":"","name_ru":"","name_sv":"","name_tr":"","name_uk":"","name_ur":"","name_vi":"","name_zh":"","name_zht":""},{"id":"KIR","lon":"-157.363","lat":"1.871","name":"Kiribati","iso_n3":"","fill":"#76b7b2","featurecla":"small nation","scalerank":"7","labelrank":"7","continent":"","region_un":"","region_wb":"","region_who":"","name_ar":"","name_bn":"","name_de":"","name_en":"","name_es":"","name_fa":"","name_fr":"","name_el":"","name_he":"","name_hi":"","name_hu":"","name_id":"","name_it":"","name_ja":"","name_ko":"","name_nl":"","name_pl":"","name_pt":"","name_ru":"","name_sv":"","name_tr":"","name_uk":"","name_ur":"","name_vi":"","name_zh":"","name_zht":""},{"id":"KNA","lon":"-62.783","lat":"17.358","name":"St. Kitts and Nevis","iso_n3":"","fill":"#59a14f","featurecla":"small nation","scalerank":"7","labelrank":"7","continent":"","region_un":"","region_wb":"","region_who":"","name_ar":"","name_bn":"","name_de":"","name_en":"","name_es":"","name_fa":"","name_fr":"","name_el":"","name_he":"","name_hi":"","name_hu":"","name_id":"","name_it":"","name_ja":"","name_ko":"","name_nl":"","name_pl":"","name_pt":"","name_ru":"","name_sv":"","name_tr":"","name_uk":"","name_ur":"","name_vi":"","name_zh":"","name_zht":""},{"id":"LCA","lon":"-60.979","lat":"13.909","name":"St. Lucia","iso_n3":"","fill":"#edc949","featurecla":"small nation","scalerank":"7","labelrank":"7","continent":"","region_un":"","region_wb":"","region_who":"","name_ar":"","name_bn":"","name_de":"","name_en":"","name_es":"","name_fa":"","name_fr":"","name_el":"","name_he":"","name_hi":"","name_hu":"","name_id":"","name_it":"","name_ja":"","name_ko":"","name_nl":"","name_pl":"","name_pt":"","name_ru":"","name_sv":"","name_tr":"","name_uk":"","name_ur":"","name_vi":"","name_zh":"","name_zht":""},{"id":"LIE","lon":"9.46","lat":"47.16","name":"Liechtenstein","iso_n3":"","fill":"#af7aa1","featurecla":"small nation","scalerank":"7","labelrank":"7","continent":"","region_un":"","region_wb":"","region_who":"","name_ar":"","name_bn":"","name_de":"","name_en":"","name_es":"","name_fa":"","name_fr":"","name_el":"","name_he":"","name_hi":"","name_hu":"","name_id":"","name_it":"","name_ja":"","name_ko":"","name_nl":"","name_pl":"","name_pt":"","name_ru":"","name_sv":"","name_tr":"","name_uk":"","name_ur":"","name_vi":"","name_zh":"","name_zht":""},{"id":"MAC","lon":"113.544","lat":"22.199","name":"Macao, China","iso_n3":"","fill":"#ff9da7","featurecla":"small nation","scalerank":"7","labelrank":"7","continent":"","region_un":"","region_wb":"","region_who":"","name_ar":"","name_bn":"","name_de":"","name_en":"","name_es":"","name_fa":"","name_fr":"","name_el":"","name_he":"","name_hi":"","name_hu":"","name_id":"","name_it":"","name_ja":"","name_ko":"","name_nl":"","name_pl":"","name_pt":"","name_ru":"","name_sv":"","name_tr":"","name_uk":"","name_ur":"","name_vi":"","name_zh":"","name_zht":""},{"id":"MCO","lon":"7.42","lat":"43.73","name":"Monaco","iso_n3":"","fill":"#9c755f","featurecla":"small nation","scalerank":"7","labelrank":"7","continent":"","region_un":"","region_wb":"","region_who":"","name_ar":"","name_bn":"","name_de":"","name_en":"","name_es":"","name_fa":"","name_fr":"","name_el":"","name_he":"","name_hi":"","name_hu":"","name_id":"","name_it":"","name_ja":"","name_ko":"","name_nl":"","name_pl":"","name_pt":"","name_ru":"","name_sv":"","name_tr":"","name_uk":"","name_ur":"","name_vi":"","name_zh":"","name_zht":""},{"id":"MDV","lon":"73.536","lat":"1.977","name":"Maldives","iso_n3":"","fill":"#4e79a7","featurecla":"small nation","scalerank":"7","labelrank":"7","continent":"","region_un":"","region_wb":"","region_who":"","name_ar":"","name_bn":"","name_de":"","name_en":"","name_es":"","name_fa":"","name_fr":"","name_el":"","name_he":"","name_hi":"","name_hu":"","name_id":"","name_it":"","name_ja":"","name_ko":"","name_nl":"","name_pl":"","name_pt":"","name_ru":"","name_sv":"","name_tr":"","name_uk":"","name_ur":"","name_vi":"","name_zh":"","name_zht":""},{"id":"MHL","lon":"171.989","lat":"6.068","name":"Marshall Islands","iso_n3":"","fill":"#f28e2c","featurecla":"small nation","scalerank":"7","labelrank":"7","continent":"","region_un":"","region_wb":"","region_who":"","name_ar":"","name_bn":"","name_de":"","name_en":"","name_es":"","name_fa":"","name_fr":"","name_el":"","name_he":"","name_hi":"","name_hu":"","name_id":"","name_it":"","name_ja":"","name_ko":"","name_nl":"","name_pl":"","name_pt":"","name_ru":"","name_sv":"","name_tr":"","name_uk":"","name_ur":"","name_vi":"","name_zh":"","name_zht":""},{"id":"MLT","lon":"14.384","lat":"35.945","name":"Malta","iso_n3":"","fill":"#e15759","featurecla":"small nation","scalerank":"7","labelrank":"7","continent":"","region_un":"","region_wb":"","region_who":"","name_ar":"","name_bn":"","name_de":"","name_en":"","name_es":"","name_fa":"","name_fr":"","name_el":"","name_he":"","name_hi":"","name_hu":"","name_id":"","name_it":"","name_ja":"","name_ko":"","name_nl":"","name_pl":"","name_pt":"","name_ru":"","name_sv":"","name_tr":"","name_uk":"","name_ur":"","name_vi":"","name_zh":"","name_zht":""},{"id":"MUS","lon":"57.552","lat":"-20.348","name":"Mauritius","iso_n3":"","fill":"#76b7b2","featurecla":"small nation","scalerank":"7","labelrank":"7","continent":"","region_un":"","region_wb":"","region_who":"","name_ar":"","name_bn":"","name_de":"","name_en":"","name_es":"","name_fa":"","name_fr":"","name_el":"","name_he":"","name_hi":"","name_hu":"","name_id":"","name_it":"","name_ja":"","name_ko":"","name_nl":"","name_pl":"","name_pt":"","name_ru":"","name_sv":"","name_tr":"","name_uk":"","name_ur":"","name_vi":"","name_zh":"","name_zht":""},{"id":"MYT","lon":"45.159","lat":"-12.821","name":"Mayotte","iso_n3":"","fill":"#59a14f","featurecla":"small nation","scalerank":"7","labelrank":"7","continent":"","region_un":"","region_wb":"","region_who":"","name_ar":"","name_bn":"","name_de":"","name_en":"","name_es":"","name_fa":"","name_fr":"","name_el":"","name_he":"","name_hi":"","name_hu":"","name_id":"","name_it":"","name_ja":"","name_ko":"","name_nl":"","name_pl":"","name_pt":"","name_ru":"","name_sv":"","name_tr":"","name_uk":"","name_ur":"","name_vi":"","name_zh":"","name_zht":""},{"id":"NIU","lon":"-169.861","lat":"-19.054","name":"Niue","iso_n3":"","fill":"#edc949","featurecla":"small nation","scalerank":"7","labelrank":"7","continent":"","region_un":"","region_wb":"","region_who":"","name_ar":"","name_bn":"","name_de":"","name_en":"","name_es":"","name_fa":"","name_fr":"","name_el":"","name_he":"","name_hi":"","name_hu":"","name_id":"","name_it":"","name_ja":"","name_ko":"","name_nl":"","name_pl":"","name_pt":"","name_ru":"","name_sv":"","name_tr":"","name_uk":"","name_ur":"","name_vi":"","name_zh":"","name_zht":""},{"id":"NRU","lon":"166.932","lat":"-0.525","name":"Nauru","iso_n3":"","fill":"#af7aa1","featurecla":"small nation","scalerank":"7","labelrank":"7","continent":"","region_un":"","region_wb":"","region_who":"","name_ar":"","name_bn":"","name_de":"","name_en":"","name_es":"","name_fa":"","name_fr":"","name_el":"","name_he":"","name_hi":"","name_hu":"","name_id":"","name_it":"","name_ja":"","name_ko":"","name_nl":"","name_pl":"","name_pt":"","name_ru":"","name_sv":"","name_tr":"","name_uk":"","name_ur":"","name_vi":"","name_zh":"","name_zht":""},{"id":"PLW","lon":"134.496","lat":"7.324","name":"Palaos","iso_n3":"","fill":"#ff9da7","featurecla":"small nation","scalerank":"7","labelrank":"7","continent":"","region_un":"","region_wb":"","region_who":"","name_ar":"","name_bn":"","name_de":"","name_en":"","name_es":"","name_fa":"","name_fr":"","name_el":"","name_he":"","name_hi":"","name_hu":"","name_id":"","name_it":"","name_ja":"","name_ko":"","name_nl":"","name_pl":"","name_pt":"","name_ru":"","name_sv":"","name_tr":"","name_uk":"","name_ur":"","name_vi":"","name_zh":"","name_zht":""},{"id":"REU","lon":"55.532","lat":"-21.144","name":"La Réunion","iso_n3":"","fill":"#9c755f","featurecla":"small nation","scalerank":"7","labelrank":"7","continent":"","region_un":"","region_wb":"","region_who":"","name_ar":"","name_bn":"","name_de":"","name_en":"","name_es":"","name_fa":"","name_fr":"","name_el":"","name_he":"","name_hi":"","name_hu":"","name_id":"","name_it":"","name_ja":"","name_ko":"","name_nl":"","name_pl":"","name_pt":"","name_ru":"","name_sv":"","name_tr":"","name_uk":"","name_ur":"","name_vi":"","name_zh":"","name_zht":""},{"id":"SGP","lon":"103.82","lat":"1.352","name":"Singapore","iso_n3":"","fill":"#4e79a7","featurecla":"small nation","scalerank":"7","labelrank":"7","continent":"","region_un":"","region_wb":"","region_who":"","name_ar":"","name_bn":"","name_de":"","name_en":"","name_es":"","name_fa":"","name_fr":"","name_el":"","name_he":"","name_hi":"","name_hu":"","name_id":"","name_it":"","name_ja":"","name_ko":"","name_nl":"","name_pl":"","name_pt":"","name_ru":"","name_sv":"","name_tr":"","name_uk":"","name_ur":"","name_vi":"","name_zh":"","name_zht":""},{"id":"SMR","lon":"12.45","lat":"43.94","name":"San Marino","iso_n3":"","fill":"#f28e2c","featurecla":"small nation","scalerank":"7","labelrank":"7","continent":"","region_un":"","region_wb":"","region_who":"","name_ar":"","name_bn":"","name_de":"","name_en":"","name_es":"","name_fa":"","name_fr":"","name_el":"","name_he":"","name_hi":"","name_hu":"","name_id":"","name_it":"","name_ja":"","name_ko":"","name_nl":"","name_pl":"","name_pt":"","name_ru":"","name_sv":"","name_tr":"","name_uk":"","name_ur":"","name_vi":"","name_zh":"","name_zht":""},{"id":"STP","lon":"6.594","lat":"0.224","name":"S. Tomé & Principe","iso_n3":"","fill":"#e15759","featurecla":"small nation","scalerank":"7","labelrank":"7","continent":"","region_un":"","region_wb":"","region_who":"","name_ar":"","name_bn":"","name_de":"","name_en":"","name_es":"","name_fa":"","name_fr":"","name_el":"","name_he":"","name_hi":"","name_hu":"","name_id":"","name_it":"","name_ja":"","name_ko":"","name_nl":"","name_pl":"","name_pt":"","name_ru":"","name_sv":"","name_tr":"","name_uk":"","name_ur":"","name_vi":"","name_zh":"","name_zht":""},{"id":"SYC","lon":"55.492","lat":"-4.68","name":"Seychelles","iso_n3":"","fill":"#76b7b2","featurecla":"small nation","scalerank":"7","labelrank":"7","continent":"","region_un":"","region_wb":"","region_who":"","name_ar":"","name_bn":"","name_de":"","name_en":"","name_es":"","name_fa":"","name_fr":"","name_el":"","name_he":"","name_hi":"","name_hu":"","name_id":"","name_it":"","name_ja":"","name_ko":"","name_nl":"","name_pl":"","name_pt":"","name_ru":"","name_sv":"","name_tr":"","name_uk":"","name_ur":"","name_vi":"","name_zh":"","name_zht":""},{"id":"TKL","lon":"-171.814","lat":"-9.183","name":"Tokelau","iso_n3":"","fill":"#59a14f","featurecla":"small nation","scalerank":"7","labelrank":"7","continent":"","region_un":"","region_wb":"","region_who":"","name_ar":"","name_bn":"","name_de":"","name_en":"","name_es":"","name_fa":"","name_fr":"","name_el":"","name_he":"","name_hi":"","name_hu":"","name_id":"","name_it":"","name_ja":"","name_ko":"","name_nl":"","name_pl":"","name_pt":"","name_ru":"","name_sv":"","name_tr":"","name_uk":"","name_ur":"","name_vi":"","name_zh":"","name_zht":""},{"id":"TON","lon":"-175.203","lat":"-21.202","name":"Tonga","iso_n3":"","fill":"#edc949","featurecla":"small nation","scalerank":"7","labelrank":"7","continent":"","region_un":"","region_wb":"","region_who":"","name_ar":"","name_bn":"","name_de":"","name_en":"","name_es":"","name_fa":"","name_fr":"","name_el":"","name_he":"","name_hi":"","name_hu":"","name_id":"","name_it":"","name_ja":"","name_ko":"","name_nl":"","name_pl":"","name_pt":"","name_ru":"","name_sv":"","name_tr":"","name_uk":"","name_ur":"","name_vi":"","name_zh":"","name_zht":""},{"id":"TUV","lon":"179.158","lat":"-8.641","name":"Tuvalu","iso_n3":"","fill":"#af7aa1","featurecla":"small nation","scalerank":"7","labelrank":"7","continent":"","region_un":"","region_wb":"","region_who":"","name_ar":"","name_bn":"","name_de":"","name_en":"","name_es":"","name_fa":"","name_fr":"","name_el":"","name_he":"","name_hi":"","name_hu":"","name_id":"","name_it":"","name_ja":"","name_ko":"","name_nl":"","name_pl":"","name_pt":"","name_ru":"","name_sv":"","name_tr":"","name_uk":"","name_ur":"","name_vi":"","name_zh":"","name_zht":""},{"id":"VAT","lon":"12.45","lat":"41.9","name":"Vatican","iso_n3":"","fill":"#ff9da7","featurecla":"small nation","scalerank":"7","labelrank":"7","continent":"","region_un":"","region_wb":"","region_who":"","name_ar":"","name_bn":"","name_de":"","name_en":"","name_es":"","name_fa":"","name_fr":"","name_el":"","name_he":"","name_hi":"","name_hu":"","name_id":"","name_it":"","name_ja":"","name_ko":"","name_nl":"","name_pl":"","name_pt":"","name_ru":"","name_sv":"","name_tr":"","name_uk":"","name_ur":"","name_vi":"","name_zh":"","name_zht":""},{"id":"VCT","lon":"-61.197","lat":"13.266","name":"St. Vincent and the G.","iso_n3":"","fill":"#9c755f","featurecla":"small nation","scalerank":"7","labelrank":"7","continent":"","region_un":"","region_wb":"","region_who":"","name_ar":"","name_bn":"","name_de":"","name_en":"","name_es":"","name_fa":"","name_fr":"","name_el":"","name_he":"","name_hi":"","name_hu":"","name_id":"","name_it":"","name_ja":"","name_ko":"","name_nl":"","name_pl":"","name_pt":"","name_ru":"","name_sv":"","name_tr":"","name_uk":"","name_ur":"","name_vi":"","name_zh":"","name_zht":""},{"id":"WSM","lon":"-172.105","lat":"-13.759","name":"Samoa","iso_n3":"","fill":"#4e79a7","featurecla":"small nation","scalerank":"7","labelrank":"7","continent":"","region_un":"","region_wb":"","region_who":"","name_ar":"","name_bn":"","name_de":"","name_en":"","name_es":"","name_fa":"","name_fr":"","name_el":"","name_he":"","name_hi":"","name_hu":"","name_id":"","name_it":"","name_ja":"","name_ko":"","name_nl":"","name_pl":"","name_pt":"","name_ru":"","name_sv":"","name_tr":"","name_uk":"","name_ur":"","name_vi":"","name_zh":"","name_zht":""}]
