id,lon,lat,name,iso_n3,fill,featurecla,scalerank,labelrank,continent,region_un,region_wb,region_who,name_ar,name_bn,name_de,name_en,name_es,name_fa,name_fr,name_el,name_he,name_hi,name_hu,name_id,name_it,name_ja,name_ko,name_nl,name_pl,name_pt,name_ru,name_sv,name_tr,name_uk,name_ur,name_vi,name_zh,name_zht
ABYI,28.42589179051027,9.78940099079343,Abyei,,,PIECE,3,6,Africa,Africa,Sub-Saharan Africa,EMRO,,,,,,,,,,,,,,,,,,,,,,,,,,
AFG,66.00365050597627,33.84034788178962,Afghanistan,004,#9c755f,Admin-0 country,1,3,Asia,Asia,South Asia,EMRO,أفغانستان,আফগানিস্তান,Afghanistan,Afghanistan,Afganistán,افغانستان,Afghanistan,Αφγανιστάν,אפגניסטן,अफ़्गानिस्तान,Afganisztán,Afganistan,Afghanistan,アフガニスタン,아프가니스탄,Afghanistan,Afganistan,Afeganistão,Афганистан,Afghanistan,Afganistan,Афганістан,افغانستان,Afghanistan,阿富汗,阿富汗
AGO,17.498923181088923,-12.27209065893035,Angola,024,#ff9da7,Admin-0 country,1,3,Africa,Africa,Sub-Saharan Africa,AFRO,أنغولا,অ্যাঙ্গোলা,Angola,Angola,Angola,آنگولا,Angola,Ανγκόλα,אנגולה,अंगोला,Angola,Angola,Angola,アンゴラ,앙골라,Angola,Angola,Angola,Ангола,Angola,Angola,Ангола,انگولا,Angola,安哥拉,安哥拉
AKSA,79.21089426267352,34.84923566181821,Aksai Chin,,,PIECE,3,6,Asia,Asia,East Asia & Pacific,WPRO,,,,,,,,,,,,,,,,,,,,,,,,,,
ALB,20.034096404149913,41.13420353314991,Albania,008,#76b7b2,Admin-0 country,1,6,Europe,Europe,Europe & Central Asia,EURO,ألبانيا,আলবেনিয়া,Albanien,Albania,Albania,آلبانی,Albanie,Αλβανία,אלבניה,अल्बानिया,Albánia,Albania,Albania,アルバニア,알바니아,Albanië,Albania,Albânia,Албания,Albanien,Arnavutluk,Албанія,البانیا,Albania,阿尔巴尼亚,阿爾巴尼亞
ARE,54.2006759945207,23.87149868531639,United Arab Emirates,784,#ff9da7,Admin-0 country,1,4,Asia,Asia,Middle East & North Africa,EMRO,الإمارات العربية المتحدة,সংযুক্ত আরব আমিরাত,Vereinigte Arabische Emirate,United Arab Emirates,Emiratos Árabes Unidos,امارات متحده عربی,Émirats arabes unis,Ηνωμένα Αραβικά Εμιράτα,איחוד האמירויות הערביות,संयुक्त अरब अमीरात,Egyesült Arab Emírségek,Uni Emirat Arab,Emirati Arabi Uniti,アラブ首長国連邦,아랍에미리트,Verenigde Arabische Emiraten,Zjednoczone Emiraty Arabskie,Emirados Árabes Unidos,Объединённые Арабские Эмираты,Förenade Arabemiraten,Birleşik Arap Emirlikleri,Об'єднані Арабські Емірати,متحدہ عرب امارات,Các Tiểu vương quốc Ả Rập Thống nhất,阿拉伯联合酋长国,阿拉伯聯合大公國
ARG,-64.73849605718141,-34.56958640662245,Argentina,032,#59a14f,Admin-0 country,1,2,South America,Americas,Latin America & Caribbean,AMRO,الأرجنتين,আর্জেন্টিনা,Argentinien,Argentina,Argentina,آرژانتین,Argentine,Αργεντινή,ארגנטינה,अर्जेण्टीना,Argentína,Argentina,Argentina,アルゼンチン,아르헨티나,Argentinië,Argentyna,Argentina,Аргентина,Argentina,Arjantin,Аргентина,ارجنٹائن,Argentina,阿根廷,阿根廷
ARM,45.00983140342925,40.214353643539916,Armenia,051,#edc949,Admin-0 country,1,6,Asia,Asia,Europe & Central Asia,EURO,أرمينيا,আর্মেনিয়া,Armenien,Armenia,Armenia,ارمنستان,Arménie,Αρμενία,ארמניה,आर्मीनिया,Örményország,Armenia,Armenia,アルメニア,아르메니아,Armenië,Armenia,Arménia,Армения,Armenien,Ermenistan,Вірменія,آرمینیا,Armenia,亚美尼亚,亞美尼亞
ATA,83.14741680244573,-84.77988125581173,Antarctica,010,#9c755f,Admin-0 country,1,4,Antarctica,Antarctica,Antarctica,,القارة القطبية الجنوبية,অ্যান্টার্কটিকা,Antarktika,Antarctica,Antártida,جنوبگان,Antarctique,Ανταρκτική,אנטארקטיקה,अंटार्कटिका,Antarktika,Antartika,Antartide,南極大陸,남극,Antarctica,Antarktyda,Antártida,Антарктида,Antarktis,Antarktika,Антарктида,انٹارکٹکا,Châu Nam Cực,南极洲,南極洲
ATF,69.5310302124909,-49.30729944946228,Fr. S. Antarctic Lands,260,#4e79a7,Admin-0 country,3,6,Seven seas (open ocean),Africa,Sub-Saharan Africa,,أراض فرنسية جنوبية وأنتارتيكية,ফ্র. এস. অ্যান্ড অ্যান্টার্কটিক ল্যান্ড,Französische Süd- und Antarktisgebiete,French Southern and Antarctic Lands,Tierras Australes y Antárticas Francesas,سرزمینهای جنوبی و جنوبگانی فرانسه,Terres australes et antarctiques françaises,Γαλλικά Νότια και Ανταρκτικά Εδάφη,הארצות הדרומיות והאנטארקטיות של צרפת,दक्षिण फ्रांसीसी और अंटार्कटिक लैंड,Francia déli és antarktiszi területek,Daratan Selatan dan Antarktika Perancis,Terre australi e antartiche francesi,フランス領南方・南極地域,프랑스령 남방 및 남극,Franse Zuidelijke Gebieden,Francuskie Terytoria Południowe i Antarktyczne,Terras Austrais e Antárticas Francesas,Французские Южные и Антарктические территории,Franska sydterritorierna,Fransız Güney ve Antarktika Toprakları,Французькі Південні і Антарктичні території,سرزمین جنوبی فرانسیسیہ و انٹارکٹیکا,Vùng đất phía Nam và châu Nam Cực thuộc Pháp,法属南部和南极领地,法屬南部和南極領地
AUS,134.2255801001199,-25.618250474312905,Australia,036,#af7aa1,Admin-0 country,1,2,Oceania,Oceania,East Asia & Pacific,WPRO,أستراليا,অস্ট্রেলিয়া,Australien,Australia,Australia,استرالیا,Australie,Αυστραλία,אוסטרליה,ऑस्ट्रेलिया,Ausztrália,Australia,Australia,オーストラリア,오스트레일리아,Australië,Australia,Austrália,Австралия,Australien,Avustralya,Австралія,آسٹریلیا,Úc,澳大利亚,澳大利亞
AUT,14.061123562528888,47.621010378006126,Austria,040,#f28e2c,Admin-0 country,1,4,Europe,Europe,Europe & Central Asia,EURO,النمسا,অস্ট্রিয়া,Österreich,Austria,Austria,اتریش,Autriche,Αυστρία,אוסטריה,ऑस्ट्रिया,Ausztria,Austria,Austria,オーストリア,오스트리아,Oostenrijk,Austria,Áustria,Австрия,Österrike,Avusturya,Австрія,آسٹریا,Áo,奥地利,奧地利
AZE,47.686226664899856,40.27893431953854,Azerbaijan,031,#af7aa1,Admin-0 country,1,5,Asia,Asia,Europe & Central Asia,EURO,أذربيجان,আজারবাইজান,Aserbaidschan,Azerbaijan,Azerbaiyán,جمهوری آذربایجان,Azerbaïdjan,Αζερμπαϊτζάν,אזרבייג'ן,अज़रबैजान,Azerbajdzsán,Azerbaijan,Azerbaigian,アゼルバイジャン,아제르바이잔,Azerbeidzjan,Azerbejdżan,Azerbaijão,Азербайджан,Azerbajdzjan,Azerbaycan,Азербайджан,آذربائیجان,Azerbaijan,阿塞拜疆,亞塞拜然
BDI,29.914033849560425,-3.377226601774969,Burundi,108,#ff9da7,Admin-0 country,1,6,Africa,Africa,Sub-Saharan Africa,AFRO,بوروندي,বুরুন্ডি,Burundi,Burundi,Burundi,بوروندی,Burundi,Μπουρούντι,בורונדי,बुरुण्डी,Burundi,Burundi,Burundi,ブルンジ,부룬디,Burundi,Burundi,Burundi,Бурунди,Burundi,Burundi,Бурунді,برونڈی,Burundi,布隆迪,蒲隆地
BEL,4.586919984313668,50.65275971229001,Belgium,056,#ff9da7,Admin-0 country,1,2,Europe,Europe,Europe & Central Asia,EURO,بلجيكا,বেলজিয়াম,Belgien,Belgium,Bélgica,بلژیک,Belgique,Βέλγιο,בלגיה,बेल्जियम,Belgium,Belgia,Belgio,ベルギー,벨기에,België,Belgia,Bélgica,Бельгия,Belgien,Belçika,Бельгія,بلجئیم,Bỉ,比利时,比利時
BEN,2.3363494260238373,9.641226571151039,Benin,204,#59a14f,Admin-0 country,1,5,Africa,Africa,Sub-Saharan Africa,AFRO,بنين,বেনিন,Benin,Benin,Benín,بنین,Bénin,Μπενίν,בנין,बेनिन,Benin,Benin,Benin,ベナン,베냉,Benin,Benin,Benim,Бенин,Benin,Benin,Бенін,بینن,Bénin,贝宁,貝南
BFA,-1.7830523717400357,12.312755595946902,Burkina Faso,854,#af7aa1,Admin-0 country,1,3,Africa,Africa,Sub-Saharan Africa,AFRO,بوركينا فاسو,বুর্কিনা ফাসো,Burkina Faso,Burkina Faso,Burkina Faso,بورکینافاسو,Burkina Faso,Μπουρκίνα Φάσο,בורקינה פאסו,बुर्किना फासो,Burkina Faso,Burkina Faso,Burkina Faso,ブルキナファソ,부르키나파소,Burkina Faso,Burkina Faso,Burkina Faso,Буркина-Фасо,Burkina Faso,Burkina Faso,Буркіна-Фасо,برکینا فاسو,Burkina Faso,布基纳法索,布基納法索
BGD,90.2768036794414,23.833588022914842,Bangladesh,050,#59a14f,Admin-0 country,1,3,Asia,Asia,South Asia,SEARO,بنغلاديش,বাংলাদেশ,Bangladesch,Bangladesh,Bangladés,بنگلادش,Bangladesh,Μπανγκλαντές,בנגלדש,बांग्लादेश,Banglades,Bangladesh,Bangladesh,バングラデシュ,방글라데시,Bangladesh,Bangladesz,Bangladesh,Бангладеш,Bangladesh,Bangladeş,Бангладеш,بنگلہ دیش,Bangladesh,孟加拉国,孟加拉
BGR,25.187896659016772,42.755838186452586,Bulgaria,100,#4e79a7,Admin-0 country,1,4,Europe,Europe,Europe & Central Asia,EURO,بلغاريا,বুলগেরিয়া,Bulgarien,Bulgaria,Bulgaria,بلغارستان,Bulgarie,Βουλγαρία,בולגריה,बुल्गारिया,Bulgária,Bulgaria,Bulgaria,ブルガリア,불가리아,Bulgarije,Bułgaria,Bulgária,Болгария,Bulgarien,Bulgaristan,Болгарія,بلغاریہ,Bulgaria,保加利亚,保加利亞
BHS,-77.91501424414028,24.505761752828334,Bahamas,044,#edc949,Admin-0 country,1,4,North America,Americas,Latin America & Caribbean,AMRO,باهاماس,বাহামা দ্বীপপুঞ্জ,Bahamas,The Bahamas,Bahamas,باهاما,Bahamas,Μπαχάμες,איי בהאמה,बहामास,Bahama-szigetek,Bahama,Bahamas,バハマ,바하마,Bahama's,Bahamy,Bahamas,Багамские Острова,Bahamas,Bahamalar,Багамські Острови,بہاماس,Bahamas,巴哈马,巴哈馬
BIH,17.823433853251768,44.17870829808945,Bosnia and Herz.,070,#f28e2c,Admin-0 country,1,5,Europe,Europe,Europe & Central Asia,EURO,البوسنة والهرسك,বসনিয়া ও হার্জেগোভিনা,Bosnien und Herzegowina,Bosnia and Herzegovina,Bosnia y Herzegovina,بوسنی و هرزگوین,Bosnie-Herzégovine,Βοσνία και Ερζεγοβίνη,בוסניה והרצגובינה,बॉस्निया और हर्ज़ेगोविना,Bosznia-Hercegovina,Bosnia dan Herzegovina,Bosnia ed Erzegovina,ボスニア・ヘルツェゴビナ,보스니아 헤르체고비나,Bosnië en Herzegovina,Bośnia i Hercegowina,Bósnia e Herzegovina,Босния и Герцеговина,Bosnien och Hercegovina,Bosna-Hersek,Боснія і Герцеговина,بوسنیا و ہرزیگووینا,Bosna và Hercegovina,波斯尼亚和黑塞哥维那,波士尼亞與赫塞哥維納
BLR,27.96491004656633,53.49530769816388,Belarus,112,#ff9da7,Admin-0 country,1,4,Europe,Europe,Europe & Central Asia,EURO,بيلاروسيا,বেলারুশ,Belarus,Belarus,Bielorrusia,بلاروس,Biélorussie,Λευκορωσία,בלארוס,बेलारूस,Fehéroroszország,Belarus,Bielorussia,ベラルーシ,벨라루스,Wit-Rusland,Białoruś,Bielorrússia,Белоруссия,Belarus,Beyaz Rusya,Білорусь,بیلاروس,Belarus,白俄罗斯,白俄羅斯
BLZ,-88.70435448350987,17.19510073262299,Belize,084,#ff9da7,Admin-0 country,1,6,North America,Americas,Latin America & Caribbean,AMRO,بليز,বেলিজ,Belize,Belize,Belice,بلیز,Belize,Μπελίζ,בליז,बेलीज़,Belize,Belize,Belize,ベリーズ,벨리즈,Belize,Belize,Belize,Белиз,Belize,Belize,Беліз,بیلیز,Belize,伯利兹,貝里斯
BOL,-64.65466772421404,-16.704018236588883,Bolivia,068,#ff9da7,Admin-0 country,1,3,South America,Americas,Latin America & Caribbean,AMRO,بوليفيا,বলিভিয়া,Bolivien,Bolivia,Bolivia,بولیوی,Bolivie,Βολιβία,בוליביה,बोलिविया,Bolívia,Bolivia,Bolivia,ボリビア,볼리비아,Bolivia,Boliwia,Bolívia,Боливия,Bolivia,Bolivya,Болівія,بولیویا,Bolivia,玻利维亚,玻利維亞
BRA,-53.17255950569008,-10.65543630342764,Brazil,076,#af7aa1,Admin-0 country,1,2,South America,Americas,Latin America & Caribbean,AMRO,البرازيل,ব্রাজিল,Brasilien,Brazil,Brasil,برزیل,Brésil,Βραζιλία,ברזיל,ब्राज़ील,Brazília,Brasil,Brasile,ブラジル,브라질,Brazilië,Brazylia,Brasil,Бразилия,Brasilien,Brezilya,Бразилія,برازیل,Brasil,巴西,巴西
BRN,114.91499528930574,4.690302499225582,Brunei,096,#9c755f,Admin-0 country,1,6,Asia,Asia,East Asia & Pacific,WPRO,بروناي,ব্রুনাই,Brunei,Brunei,Brunéi,برونئی,Brunei,Μπρουνέι,ברוניי,ब्रुनेई,Brunei,Brunei Darussalam,Brunei,ブルネイ,브루나이,Brunei,Brunei,Brunei,Бруней,Brunei,Brunei,Бруней,برونائی دار السلام,Brunei,文莱,汶萊
BTN,90.47272751196701,27.429619991723325,Bhutan,064,#edc949,Admin-0 country,1,5,Asia,Asia,South Asia,SEARO,بوتان,ভুটান,Bhutan,Bhutan,Bután,بوتان,Bhoutan,Μπουτάν,בהוטן,भूटान,Bhután,Bhutan,Bhutan,ブータン,부탄,Bhutan,Bhutan,Butão,Бутан,Bhutan,Bhutan,Бутан,بھوٹان,Bhutan,不丹,不丹
BWA,23.782967551653698,-22.082050598289058,Botswana,072,#9c755f,Admin-0 country,1,4,Africa,Africa,Sub-Saharan Africa,AFRO,بوتسوانا,বতসোয়ানা,Botswana,Botswana,Botsuana,بوتسوانا,Botswana,Μποτσουάνα,בוטסואנה,बोत्सवाना,Botswana,Botswana,Botswana,ボツワナ,보츠와나,Botswana,Botswana,Botsuana,Ботсвана,Botswana,Botsvana,Ботсвана,بوٹسوانا,Botswana,博茨瓦纳,波札那
CAF,20.367630558916698,6.5467657820563945,Central African Rep.,140,#9c755f,Admin-0 country,1,4,Africa,Africa,Sub-Saharan Africa,AFRO,جمهورية أفريقيا الوسطى,মধ্য আফ্রিকান প্রজাতন্ত্র,Zentralafrikanische Republik,Central African Republic,República Centroafricana,جمهوری آفریقای مرکزی,République centrafricaine,Κεντροαφρικανική Δημοκρατία,הרפובליקה המרכז-אפריקאית,मध्य अफ़्रीकी गणराज्य,Közép-afrikai Köztársaság,Republik Afrika Tengah,Repubblica Centrafricana,中央アフリカ共和国,중앙아프리카 공화국,Centraal-Afrikaanse Republiek,Republika Środkowoafrykańska,República Centro-Africana,Центральноафриканская Республика,Centralafrikanska republiken,Orta Afrika Cumhuriyeti,Центральноафриканська Республіка,وسطی افریقی جمہوریہ,Cộng hòa Trung Phi,中非共和国,中非共和國
CAN,-97.85915849653648,58.4498229082331,Canada,124,#ff9da7,Admin-0 country,1,2,North America,Americas,North America,AMRO,كندا,কানাডা,Kanada,Canada,Canadá,کانادا,Canada,Καναδάς,קנדה,कनाडा,Kanada,Kanada,Canada,カナダ,캐나다,Canada,Kanada,Canadá,Канада,Kanada,Kanada,Канада,کینیڈا,Canada,加拿大,加拿大
CHE,8.115739312516014,46.79305119772176,Switzerland,756,#edc949,Admin-0 country,1,4,Europe,Europe,Europe & Central Asia,EURO,سويسرا,সুইজারল্যান্ড,Schweiz,Switzerland,Suiza,سوئیس,Suisse,Ελβετία,שווייץ,स्विट्ज़रलैण्ड,Svájc,Swiss,Svizzera,スイス,스위스,Zwitserland,Szwajcaria,Suíça,Швейцария,Schweiz,İsviçre,Швейцарія,سویٹزرلینڈ,Thụy Sĩ,瑞士,瑞士
CHL,-71.23816679739888,-35.87973493565719,Chile,152,#edc949,Admin-0 country,1,2,South America,Americas,Latin America & Caribbean,AMRO,تشيلي,চিলি,Chile,Chile,Chile,شیلی,Chili,Χιλή,צ'ילה,चिली,Chile,Chili,Cile,チリ,칠레,Chili,Chile,Chile,Чили,Chile,Şili,Чилі,چلی,Chile,智利,智利
CHN,103.42477876298135,36.74837931687952,China,156,#4e79a7,Admin-0 country,1,2,Asia,Asia,East Asia & Pacific,WPRO,الصين,গণচীন,Volksrepublik China,People's Republic of China,China,جمهوری خلق چین,République populaire de Chine,Λαϊκή Δημοκρατία της Κίνας,הרפובליקה העממית של סין,चीनी जनवादी गणराज्य,Kína,Republik Rakyat Tiongkok,Cina,中華人民共和国,중화인민공화국,Volksrepubliek China,Chińska Republika Ludowa,China,Китайская Народная Республика,Kina,Çin Halk Cumhuriyeti,Китайська Народна Республіка,عوامی جمہوریہ چین,Trung Quốc,中华人民共和国,中華人民共和國
CIV,-5.611993519807218,7.551393666666226,Côte d'Ivoire,384,#f28e2c,Admin-0 country,1,3,Africa,Africa,Sub-Saharan Africa,AFRO,ساحل العاج,কোত দিভোয়ার,Elfenbeinküste,Ivory Coast,Costa de Marfil,ساحل عاج,Côte d'Ivoire,Ακτή Ελεφαντοστού,חוף השנהב,कोत दिव्वार,Elefántcsontpart,Pantai Gading,Costa d'Avorio,コートジボワール,코트디부아르,Ivoorkust,Wybrzeże Kości Słoniowej,Costa do Marfim,Кот-д’Ивуар,Elfenbenskusten,Fildişi Sahili,Кот-д'Івуар,کوت داوواغ,Bờ Biển Ngà,科特迪瓦,象牙海岸
CMR,12.605832745547673,5.654113302666526,Cameroon,120,#ff9da7,Admin-0 country,1,3,Africa,Africa,Sub-Saharan Africa,AFRO,الكاميرون,ক্যামেরুন,Kamerun,Cameroon,Camerún,کامرون,Cameroun,Καμερούν,קמרון,कैमरुन,Kamerun,Kamerun,Camerun,カメルーン,카메룬,Kameroen,Kamerun,Camarões,Камерун,Kamerun,Kamerun,Камерун,کیمرون,Cameroon,喀麦隆,喀麥隆
COD,23.576839570493316,-2.838936719787684,Dem. Rep. Congo,180,#af7aa1,Admin-0 country,1,2,Africa,Africa,Sub-Saharan Africa,AFRO,جمهورية الكونغو الديمقراطية,গণতান্ত্রিক কঙ্গো প্রজাতন্ত্র,Demokratische Republik Kongo,Democratic Republic of the Congo,República Democrática del Congo,جمهوری دموکراتیک کنگو,République démocratique du Congo,Λαϊκή Δημοκρατία του Κονγκό,הרפובליקה הדמוקרטית של קונגו,कांगो लोकतान्त्रिक गणराज्य,Kongói Demokratikus Köztársaság,Republik Demokratik Kongo,Repubblica Democratica del Congo,コンゴ民主共和国,콩고 민주 공화국,Congo-Kinshasa,Demokratyczna Republika Konga,República Democrática do Congo,Демократическая Республика Конго,Kongo-Kinshasa,Demokratik Kongo Cumhuriyeti,Демократична Республіка Конго,جمہوری جمہوریہ کانگو,Cộng hòa Dân chủ Congo,刚果民主共和国,剛果民主共和國
COG,15.136013230143398,-0.8368022492342536,Congo,178,#4e79a7,Admin-0 country,1,4,Africa,Africa,Sub-Saharan Africa,AFRO,جمهورية الكونغو,কঙ্গো প্রজাতন্ত্র,Republik Kongo,Republic of the Congo,República del Congo,جمهوری کنگو,République du Congo,Δημοκρατία του Κονγκό,הרפובליקה של קונגו,कांगो गणराज्य,Kongói Köztársaság,Republik Kongo,Repubblica del Congo,コンゴ共和国,콩고 공화국,Congo-Brazzaville,Kongo,República do Congo,Республика Конго,Kongo-Brazzaville,Kongo Cumhuriyeti,Республіка Конго,جمہوریہ کانگو,Cộng hòa Congo,刚果共和国,剛果共和國
COL,-73.07341489988089,3.916890091818208,Colombia,170,#4e79a7,Admin-0 country,1,2,South America,Americas,Latin America & Caribbean,AMRO,كولومبيا,কলম্বিয়া,Kolumbien,Colombia,Colombia,کلمبیا,Colombie,Κολομβία,קולומביה,कोलम्बिया,Kolumbia,Kolombia,Colombia,コロンビア,콜롬비아,Colombia,Kolumbia,Colômbia,Колумбия,Colombia,Kolombiya,Колумбія,کولمبیا,Colombia,哥伦比亚,哥倫比亞
CRI,-84.1731053933957,9.965461833494153,Costa Rica,188,#e15759,Admin-0 country,1,5,North America,Americas,Latin America & Caribbean,AMRO,كوستاريكا,কোস্টা রিকা,Costa Rica,Costa Rica,Costa Rica,کاستاریکا,Costa Rica,Κόστα Ρίκα,קוסטה ריקה,कोस्टा रीका,Costa Rica,Kosta Rika,Costa Rica,コスタリカ,코스타리카,Costa Rica,Kostaryka,Costa Rica,Коста-Рика,Costa Rica,Kosta Rika,Коста-Рика,کوسٹاریکا,Costa Rica,哥斯达黎加,哥斯大黎加
CRMA,34.308418634652554,45.29548112010839,Crimea,,,PIECE,3,6,Europe,Europe,Europe & Central Asia,EURO,,,,,,,,,,,,,,,,,,,,,,,,,,
CUB,-78.93115170024161,21.646982765894553,Cuba,192,#af7aa1,Admin-0 country,1,3,North America,Americas,Latin America & Caribbean,AMRO,كوبا,কিউবা,Kuba,Cuba,Cuba,کوبا,Cuba,Κούβα,קובה,क्यूबा,Kuba,Kuba,Cuba,キューバ,쿠바,Cuba,Kuba,Cuba,Куба,Kuba,Küba,Куба,کیوبا,Cuba,古巴,古巴
CYN,33.55771451108076,35.27472460988615,N. Cyprus,-1,#4e79a7,Admin-0 country,1,6,Asia,Asia,Europe & Central Asia,,قبرص الشمالية,উত্তর সাইপ্রাস,Türkische Republik Nordzypern,Turkish Republic of Northern Cyprus,República Turca del Norte de Chipre,جمهوری ترک قبرس شمالی,Chypre du Nord,Τουρκική Δημοκρατία της Βόρειας Κύπρου,הרפובליקה הטורקית של צפון קפריסין,उत्तरी साइप्रस,Észak-Ciprus,Republik Turki Siprus Utara,Cipro del Nord,北キプロス・トルコ共和国,북키프로스,Noord-Cyprus,Cypr Północny,República Turca do Chipre do Norte,Турецкая Республика Северного Кипра,Nordcypern,Kuzey Kıbrıs Türk Cumhuriyeti,Турецька Республіка Північного Кіпру,ترک جمہوریہ شمالی قبرص,Bắc Síp,北塞浦路斯土耳其共和国,北賽普勒斯土耳其共和國
CYP,33.03871953466749,34.90780740180796,Cyprus,196,#f28e2c,Admin-0 country,1,5,Asia,Asia,Europe & Central Asia,EURO,قبرص,সাইপ্রাস,Republik Zypern,Cyprus,Chipre,قبرس,Chypre,Κύπρος,קפריסין,साइप्रस,Ciprus,Siprus,Cipro,キプロス,키프로스,Cyprus,Cypr,Chipre,Кипр,Cypern,Kıbrıs Cumhuriyeti,Кіпр,قبرص,Cộng hòa Síp,塞浦路斯,賽普勒斯
CZE,15.343243618792016,49.77965935437406,Czechia,203,#76b7b2,Admin-0 country,1,5,Europe,Europe,Europe & Central Asia,EURO,التشيك,চেক প্রজাতন্ত্র,Tschechien,Czech Republic,República Checa,جمهوری چک,Tchéquie,Τσεχία,צ'כיה,चेक गणराज्य,Csehország,Republik Ceko,Repubblica Ceca,チェコ,체코,Tsjechië,Czechy,Chéquia,Чехия,Tjeckien,Çek Cumhuriyeti,Чехія,چیک جمہوریہ,Cộng hòa Séc,捷克,捷克共和國
DEU,10.270439759446337,51.07731333800235,Germany,276,#9c755f,Admin-0 country,1,2,Europe,Europe,Europe & Central Asia,EURO,ألمانيا,জার্মানি,Deutschland,Germany,Alemania,آلمان,Allemagne,Γερμανία,גרמניה,जर्मनी,Németország,Jerman,Germania,ドイツ,독일,Duitsland,Niemcy,Alemanha,Германия,Tyskland,Almanya,Німеччина,جرمنی,Đức,德国,德國
DJI,42.49749843708743,11.772747687160933,Djibouti,262,#af7aa1,Admin-0 country,1,5,Africa,Africa,Middle East & North Africa,EMRO,جيبوتي,জিবুতি,Dschibuti,Djibouti,Yibuti,جیبوتی,Djibouti,Τζιμπουτί,ג'יבוטי,जिबूती,Dzsibuti,Djibouti,Gibuti,ジブチ,지부티,Djibouti,Dżibuti,Djibouti,Джибути,Djibouti,Cibuti,Джибуті,جبوتی,Djibouti,吉布提,吉布地
DNK,9.302446290564934,56.21011215646454,Denmark,208,#f28e2c,Admin-0 country,1,4,Europe,Europe,Europe & Central Asia,EURO,الدنمارك,ডেনমার্ক,Dänemark,Denmark,Dinamarca,دانمارک,Danemark,Δανία,דנמרק,डेनमार्क,Dánia,Denmark,Danimarca,デンマーク,덴마크,Denemarken,Dania,Dinamarca,Дания,Danmark,Danimarka,Данія,ڈنمارک,Đan Mạch,丹麦,丹麥
DOM,-70.46192196924756,18.885400264151517,Dominican Rep.,214,#76b7b2,Admin-0 country,1,5,North America,Americas,Latin America & Caribbean,AMRO,جمهورية الدومينيكان,ডোমিনিকান প্রজাতন্ত্র,Dominikanische Republik,Dominican Republic,República Dominicana,جمهوری دومینیکن,République dominicaine,Δομινικανή Δημοκρατία,הרפובליקה הדומיניקנית,डोमिनिकन गणराज्य,Dominikai Köztársaság,Republik Dominika,Repubblica Dominicana,ドミニカ共和国,도미니카 공화국,Dominicaanse Republiek,Dominikana,República Dominicana,Доминиканская Республика,Dominikanska republiken,Dominik Cumhuriyeti,Домініканська Республіка,جمہوریہ ڈومینیکن,Cộng hòa Dominica,多米尼加,多明尼加
DZA,2.6120318945465635,28.085750135320083,Algeria,012,#ff9da7,Admin-0 country,1,3,Africa,Africa,Middle East & North Africa,AFRO,الجزائر,আলজেরিয়া,Algerien,Algeria,Argelia,الجزایر,Algérie,Αλγερία,אלג'יריה,अल्जीरिया,Algéria,Aljazair,Algeria,アルジェリア,알제리,Algerije,Algieria,Argélia,Алжир,Algeriet,Cezayir,Алжир,الجزائر,Algérie,阿尔及利亚,阿爾及利亞
ECU,-78.38356921602876,-1.4541825175872267,Ecuador,218,#76b7b2,Admin-0 country,1,3,South America,Americas,Latin America & Caribbean,AMRO,الإكوادور,ইকুয়েডর,Ecuador,Ecuador,Ecuador,اکوادور,Équateur,Εκουαδόρ,אקוודור,ईक्वाडोर,Ecuador,Ekuador,Ecuador,エクアドル,에콰도르,Ecuador,Ekwador,Equador,Эквадор,Ecuador,Ekvador,Еквадор,ایکواڈور,Ecuador,厄瓜多尔,厄瓜多爾
EGY,29.861516823819,26.475686356549005,Egypt,818,#76b7b2,Admin-0 country,1,2,Africa,Africa,Middle East & North Africa,EMRO,مصر,মিশর,Ägypten,Egypt,Egipto,مصر,Égypte,Αίγυπτος,מצרים,मिस्र,Egyiptom,Mesir,Egitto,エジプト,이집트,Egypte,Egipt,Egito,Египет,Egypten,Mısır,Єгипет,مصر,Ai Cập,埃及,埃及
ERI,38.68881983862753,15.427086181404894,Eritrea,232,#59a14f,Admin-0 country,1,4,Africa,Africa,Sub-Saharan Africa,AFRO,إريتريا,ইরিত্রিয়া,Eritrea,Eritrea,Eritrea,اریتره,Érythrée,Ερυθραία,אריתריאה,इरित्रिया,Eritrea,Eritrea,Eritrea,エリトリア,에리트레아,Eritrea,Erytrea,Eritreia,Эритрея,Eritrea,Eritre,Еритрея,اریتریا,Eritrea,厄立特里亚,厄利垂亞
ESH,-13.165195103154517,24.659912192146336,W. Sahara,732,#af7aa1,Admin-0 country,1,7,Africa,Africa,Middle East & North Africa,AFRO,الصحراء الغربية,পশ্চিম সাহারা,Westsahara,Western Sahara,Sahara Occidental,صحرای غربی,Sahara occidental,Δυτική Σαχάρα,סהרה המערבית,पश्चिमी सहारा,Nyugat-Szahara,Sahara Barat,Sahara Occidentale,西サハラ,서사하라,Westelijke Sahara,Sahara Zachodnia,Sara Ocidental,Западная Сахара,Västsahara,Batı Sahra,Західна Сахара,مغربی صحارا,Tây Sahara,西撒哈拉,西撒哈拉
ESP,-3.624326269454768,40.32048996260356,Spain,724,#f28e2c,Admin-0 country,1,2,Europe,Europe,Europe & Central Asia,EURO,إسبانيا,স্পেন,Spanien,Spain,España,اسپانیا,Espagne,Ισπανία,ספרד,स्पेन,Spanyolország,Spanyol,Spagna,スペイン,스페인,Spanje,Hiszpania,Espanha,Испания,Spanien,İspanya,Іспанія,ہسپانیہ,Tây Ban Nha,西班牙,西班牙
EST,25.83008789274069,58.641571414645725,Estonia,233,#ff9da7,Admin-0 country,1,6,Europe,Europe,Europe & Central Asia,EURO,إستونيا,এস্তোনিয়া,Estland,Estonia,Estonia,استونی,Estonie,Εσθονία,אסטוניה,एस्टोनिया,Észtország,Estonia,Estonia,エストニア,에스토니아,Estland,Estonia,Estónia,Эстония,Estland,Estonya,Естонія,استونیا,Estonia,爱沙尼亚,愛沙尼亞
ETH,39.56007370100575,8.645620232347198,Ethiopia,231,#edc949,Admin-0 country,1,2,Africa,Africa,Sub-Saharan Africa,AFRO,إثيوبيا,ইথিওপিয়া,Äthiopien,Ethiopia,Etiopía,اتیوپی,Éthiopie,Αιθιοπία,אתיופיה,इथियोपिया,Etiópia,Ethiopia,Etiopia,エチオピア,에티오피아,Ethiopië,Etiopia,Etiópia,Эфиопия,Etiopien,Etiyopya,Ефіопія,ایتھوپیا,Ethiopia,埃塞俄比亚,衣索比亞
FIN,26.14195119652387,64.26143454180604,Finland,246,#f28e2c,Admin-0 country,1,3,Europe,Europe,Europe & Central Asia,EURO,فنلندا,ফিনল্যান্ড,Finnland,Finland,Finlandia,فنلاند,Finlande,Φινλανδία,פינלנד,फ़िनलैण्ड,Finnország,Finlandia,Finlandia,フィンランド,핀란드,Finland,Finlandia,Finlândia,Финляндия,Finland,Finlandiya,Фінляндія,فن لینڈ,Phần Lan,芬兰,芬蘭
FJI,177.99719177971875,-17.83112647437822,Fiji,242,#59a14f,Admin-0 country,1,6,Oceania,Oceania,East Asia & Pacific,WPRO,فيجي,ফিজি,Fidschi,Fiji,Fiyi,فیجی,Fidji,Φίτζι,פיג'י,फ़िजी,Fidzsi-szigetek,Fiji,Figi,フィジー,피지,Fiji,Fidżi,Fiji,Фиджи,Fiji,Fiji,Фіджі,فجی,Fiji,斐济,斐濟
FLK,-59.41698377615848,-51.71651538650911,Falkland Is.,238,#af7aa1,Admin-0 country,1,5,South America,Americas,Latin America & Caribbean,AMRO,جزر فوكلاند,ফকল্যান্ড দ্বীপপুঞ্জ,Falklandinseln,Falkland Islands,Islas Malvinas,جزایر فالکلند,îles Malouines,Νήσοι Φώκλαντ,איי פוקלנד,फ़ॉकलैंड द्वीपसमूह,Falkland-szigetek,Kepulauan Falkland,Isole Falkland,フォークランド諸島,포클랜드 제도,Falklandeilanden,Falklandy,Ilhas Malvinas,Фолклендские острова,Falklandsöarna,Falkland Adaları,Фолклендські острови,جزائر فاکلینڈ,Quần đảo Falkland,福克兰群岛,福克蘭群島
FRA,2.3493390499091733,46.55887712470802,France,,#e15759,Admin-0 country,1,2,Europe,Europe,Europe & Central Asia,EURO,فرنسا,ফ্রান্স,Frankreich,France,Francia,فرانسه,France,Γαλλία,צרפת,फ़्रान्स,Franciaország,Prancis,Francia,フランス,프랑스,Frankrijk,Francja,França,Франция,Frankrike,Fransa,Франція,فرانس,Pháp,法国,法國
GAB,11.687838753842257,-0.646917957299105,Gabon,266,#f28e2c,Admin-0 country,1,4,Africa,Africa,Sub-Saharan Africa,AFRO,الغابون,গ্যাবন,Gabun,Gabon,Gabón,گابن,Gabon,Γκαμπόν,גבון,गबॉन,Gabon,Gabon,Gabon,ガボン,가봉,Gabon,Gabon,Gabão,Габон,Gabon,Gabon,Габон,گیبون,Gabon,加蓬,加彭
GBR,-2.565895928897334,53.76868240658356,United Kingdom,826,#76b7b2,Admin-0 country,1,2,Europe,Europe,Europe & Central Asia,EURO,المملكة المتحدة,যুক্তরাজ্য,Vereinigtes Königreich,United Kingdom,Reino Unido,بریتانیا,Royaume-Uni,Ηνωμένο Βασίλειο,הממלכה המאוחדת,यूनाइटेड किंगडम,Egyesült Királyság,Britania Raya,Regno Unito,イギリス,영국,Verenigd Koninkrijk,Wielka Brytania,Reino Unido,Великобритания,Storbritannien,Birleşik Krallık,Велика Британія,مملکت متحدہ,Vương quốc Liên hiệp Anh và Bắc Ireland,英国,英國
GEO,43.499112315524506,42.16761165463408,Georgia,268,#ff9da7,Admin-0 country,1,5,Asia,Asia,Europe & Central Asia,EURO,جورجيا,জর্জিয়া,Georgien,Georgia,Georgia,گرجستان,Géorgie,Γεωργία,גאורגיה,जॉर्जिया,Grúzia,Georgia,Georgia,ジョージア,조지아,Georgië,Gruzja,Geórgia,Грузия,Georgien,Gürcistan,Грузія,جارجیا,Gruzia,格鲁吉亚,喬治亞
GHA,-1.237166496551762,7.923032784256636,Ghana,288,#4e79a7,Admin-0 country,1,3,Africa,Africa,Sub-Saharan Africa,AFRO,غانا,ঘানা,Ghana,Ghana,Ghana,غنا,Ghana,Γκάνα,גאנה,घाना,Ghána,Ghana,Ghana,ガーナ,가나,Ghana,Ghana,Gana,Гана,Ghana,Gana,Гана,گھانا,Ghana,加纳,迦納
GILG,74.91476599369003,35.5574015397985,Gilgit and Azad,,,PIECE,3,6,Asia,Asia,South Asia,EMRO,,,,,,,,,,,,,,,,,,,,,,,,,,
GIN,-11.055139061652204,10.449799189831825,Guinea,324,#76b7b2,Admin-0 country,1,3,Africa,Africa,Sub-Saharan Africa,AFRO,غينيا,গিনি,Guinea,Guinea,Guinea,گینه,Guinée,Γουινέα,גינאה,गिनी,Guinea,Guinea,Guinea,ギニア,기니,Guinee,Gwinea,Guiné,Гвинея,Guinea,Gine,Гвінея,جمہوریہ گنی,Guinée,几内亚,幾內亞
GMB,-15.43245486945954,13.476705346165549,Gambia,270,#76b7b2,Admin-0 country,1,6,Africa,Africa,Sub-Saharan Africa,AFRO,غامبيا,গাম্বিয়া,Gambia,The Gambia,Gambia,گامبیا,Gambie,Γκάμπια,גמביה,गाम्बिया,Gambia,Gambia,Gambia,ガンビア,감비아,Gambia,Gambia,Gâmbia,Гамбия,Gambia,Gambiya,Гамбія,گیمبیا,Gambia,冈比亚,甘比亞
GNB,-15.110407723896978,12.023628202312427,Guinea-Bissau,624,#59a14f,Admin-0 country,1,6,Africa,Africa,Sub-Saharan Africa,AFRO,غينيا بيساو,গিনি-বিসাউ,Guinea-Bissau,Guinea-Bissau,Guinea-Bisáu,گینه بیسائو,Guinée-Bissau,Γουινέα-Μπισσάου,גינאה ביסאו,गिनी-बिसाऊ,Bissau-Guinea,Guinea-Bissau,Guinea-Bissau,ギニアビサウ,기니비사우,Guinee-Bissau,Gwinea Bissau,Guiné-Bissau,Гвинея-Бисау,Guinea-Bissau,Gine-Bissau,Гвінея-Бісау,گنی بساؤ,Guiné-Bissau,几内亚比绍,幾內亞比索
GNQ,10.36600375975049,1.6459674502113855,Eq. Guinea,226,#e15759,Admin-0 country,1,4,Africa,Africa,Sub-Saharan Africa,AFRO,غينيا الاستوائية,বিষুবীয় গিনি,Äquatorialguinea,Equatorial Guinea,Guinea Ecuatorial,گینه استوایی,Guinée équatoriale,Ισημερινή Γουινέα,גינאה המשוונית,भूमध्यरेखीय गिनी,Egyenlítői-Guinea,Guinea Khatulistiwa,Guinea Equatoriale,赤道ギニア,적도 기니,Equatoriaal-Guinea,Gwinea Równikowa,Guiné Equatorial,Экваториальная Гвинея,Ekvatorialguinea,Ekvator Ginesi,Екваторіальна Гвінея,استوائی گنی,Guinea Xích Đạo,赤道几内亚,赤道幾內亞
GRC,22.54627964610661,39.322881134378044,Greece,300,#f28e2c,Admin-0 country,1,3,Europe,Europe,Europe & Central Asia,EURO,اليونان,গ্রিস,Griechenland,Greece,Grecia,یونان,Grèce,Ελλάδα,יוון,यूनान,Görögország,Yunani,Grecia,ギリシャ,그리스,Griekenland,Grecja,Grécia,Греция,Grekland,Yunanistan,Греція,یونان,Hy Lạp,希腊,希臘
GRL,-41.965035175521535,73.15078433131023,Greenland,304,#9c755f,Admin-0 country,1,3,North America,Americas,Europe & Central Asia,EURO,جرينلاند,গ্রিনল্যান্ড,Grönland,Greenland,Groenlandia,گرینلند,Groenland,Γροιλανδία,גרינלנד,ग्रीनलैण्ड,Grönland,Greenland,Groenlandia,グリーンランド,그린란드,Groenland,Grenlandia,Groenlândia,Гренландия,Grönland,Grönland,Гренландія,گرین لینڈ,Greenland,格陵兰,格陵蘭
GTM,-90.37200105299998,15.695546534221272,Guatemala,320,#af7aa1,Admin-0 country,1,3,North America,Americas,Latin America & Caribbean,AMRO,غواتيمالا,গুয়াতেমালা,Guatemala,Guatemala,Guatemala,گواتمالا,Guatemala,Γουατεμάλα,גואטמלה,ग्वाटेमाला,Guatemala,Guatemala,Guatemala,グアテマラ,과테말라,Guatemala,Gwatemala,Guatemala,Гватемала,Guatemala,Guatemala,Гватемала,گواتیمالا,Guatemala,危地马拉,瓜地馬拉
GUF,-53.237715659889886,3.905877214149476,Guyane,,,PIECE,3,6,South America,Americas,Europe & Central Asia,AMRO,,,,,,,,,,,,,,,,,,,,,,,,,,
GUY,-58.96900182621626,4.786187986576615,Guyana,328,#4e79a7,Admin-0 country,1,4,South America,Americas,Latin America & Caribbean,AMRO,غيانا,গায়ানা,Guyana,Guyana,Guyana,گویان,Guyana,Γουιάνα,גיאנה,गयाना,Guyana,Guyana,Guyana,ガイアナ,가이아나,Guyana,Gujana,Guiana,Гайана,Guyana,Guyana,Гаяна,گیانا,Guyana,圭亚那,圭亞那
HND,-86.59252539519912,14.825314374545956,Honduras,340,#59a14f,Admin-0 country,1,5,North America,Americas,Latin America & Caribbean,AMRO,هندوراس,হন্ডুরাস,Honduras,Honduras,Honduras,هندوراس,Honduras,Ονδούρα,הונדורס,हौण्डुरस,Honduras,Honduras,Honduras,ホンジュラス,온두라스,Honduras,Honduras,Honduras,Гондурас,Honduras,Honduras,Гондурас,ہونڈوراس,Honduras,洪都拉斯,宏都拉斯
HRV,16.566675070303592,45.01007125778648,Croatia,191,#59a14f,Admin-0 country,1,6,Europe,Europe,Europe & Central Asia,EURO,كرواتيا,ক্রোয়েশিয়া,Kroatien,Croatia,Croacia,کرواسی,Croatie,Κροατία,קרואטיה,क्रोएशिया,Horvátország,Kroasia,Croazia,クロアチア,크로아티아,Kroatië,Chorwacja,Croácia,Хорватия,Kroatien,Hırvatistan,Хорватія,کروشیا,Croatia,克罗地亚,克羅地亞
HTI,-72.65973392506096,18.90049488636689,Haiti,332,#e15759,Admin-0 country,1,5,North America,Americas,Latin America & Caribbean,AMRO,هايتي,হাইতি,Haiti,Haiti,Haití,هائیتی,Haïti,Αϊτή,האיטי,हैती,Haiti,Haiti,Haiti,ハイチ,아이티,Haïti,Haiti,Haiti,Республика Гаити,Haiti,Haiti,Гаїті,ہیٹی,Haiti,海地,海地
HUN,19.342733132190713,47.203375771231734,Hungary,348,#76b7b2,Admin-0 country,1,5,Europe,Europe,Europe & Central Asia,EURO,المجر,হাঙ্গেরি,Ungarn,Hungary,Hungría,مجارستان,Hongrie,Ουγγαρία,הונגריה,हंगरी,Magyarország,Hongaria,Ungheria,ハンガリー,헝가리,Hongarije,Węgry,Hungria,Венгрия,Ungern,Macaristan,Угорщина,ہنگری,Hungary,匈牙利,匈牙利
IDN,114.022083506986,-0.25461476829329943,Indonesia,360,#76b7b2,Admin-0 country,1,2,Asia,Asia,East Asia & Pacific,SEARO,إندونيسيا,ইন্দোনেশিয়া,Indonesien,Indonesia,Indonesia,اندونزی,Indonésie,Ινδονησία,אינדונזיה,इंडोनेशिया,Indonézia,Indonesia,Indonesia,インドネシア,인도네시아,Indonesië,Indonezja,Indonésia,Индонезия,Indonesien,Endonezya,Індонезія,انڈونیشیا,Indonesia,印度尼西亚,印度尼西亞
IND,79.5402367088549,22.819235137215014,India,356,#76b7b2,Admin-0 country,1,2,Asia,Asia,South Asia,SEARO,الهند,ভারত,Indien,India,India,هند,Inde,Ινδία,הודו,भारत,India,India,India,インド,인도,India,Indie,Índia,Индия,Indien,Hindistan,Індія,بھارت,Ấn Độ,印度,印度
IRL,-8.01686289480868,53.171685868770275,Ireland,372,#e15759,Admin-0 country,1,3,Europe,Europe,Europe & Central Asia,EURO,جمهورية أيرلندا,প্রজাতন্ত্রী আয়ারল্যান্ড,Irland,Ireland,Irlanda,ایرلند,Irlande,Δημοκρατία της Ιρλανδίας,אירלנד,आयरलैण्ड,Írország,Republik Irlandia,Irlanda,アイルランド,아일랜드,Ierland,Irlandia,República da Irlanda,Ирландия,Irland,İrlanda,Ірландія,جمہوریہ آئرلینڈ,Cộng hòa Ireland,爱尔兰,愛爾蘭
IRN,54.45283267164994,32.4741062313244,Iran,364,#59a14f,Admin-0 country,1,2,Asia,Asia,Middle East & North Africa,EMRO,إيران,ইরান,Iran,Iran,Irán,ایران,Iran,Ιράν,איראן,ईरान,Irán,Iran,Iran,イラン,이란,Iran,Iran,Irão,Иран,Iran,İran,Іран,ایران,Iran,伊朗,伊朗
IRQ,43.78696128391436,33.009969087298884,Iraq,368,#e15759,Admin-0 country,1,3,Asia,Asia,Middle East & North Africa,EMRO,العراق,ইরাক,Irak,Iraq,Irak,عراق,Irak,Ιράκ,עיראק,इराक,Irak,Irak,Iraq,イラク,이라크,Irak,Irak,Iraque,Ирак,Irak,Irak,Ірак,عراق,Iraq,伊拉克,伊拉克
ISL,-18.765540730316456,65.07986297139261,Iceland,352,#76b7b2,Admin-0 country,1,3,Europe,Europe,Europe & Central Asia,EURO,آيسلندا,আইসল্যান্ড,Island,Iceland,Islandia,ایسلند,Islande,Ισλανδία,איסלנד,आइसलैण्ड,Izland,Islandia,Islanda,アイスランド,아이슬란드,IJsland,Islandia,Islândia,Исландия,Island,İzlanda,Ісландія,آئس لینڈ,Iceland,冰岛,冰島
ISR,35.02099684974604,31.48504487357725,Israel,376,#9c755f,Admin-0 country,1,4,Asia,Asia,Middle East & North Africa,EURO,إسرائيل,ইসরায়েল,Israel,Israel,Israel,اسرائیل,Israël,Ισραήλ,ישראל,इज़राइल,Izrael,Israel,Israele,イスラエル,이스라엘,Israël,Izrael,Israel,Израиль,Israel,İsrail,Ізраїль,اسرائیل,Israel,以色列,以色列
ITA,12.36754552271482,43.42849433887631,Italy,380,#4e79a7,Admin-0 country,1,2,Europe,Europe,Europe & Central Asia,EURO,إيطاليا,ইতালি,Italien,Italy,Italia,ایتالیا,Italie,Ιταλία,איטליה,इटली,Olaszország,Italia,Italia,イタリア,이탈리아,Italië,Włochy,Itália,Италия,Italien,İtalya,Італія,اطالیہ,Ý,意大利,義大利
JAM,-77.32383283423296,18.138243637741148,Jamaica,388,#edc949,Admin-0 country,1,4,North America,Americas,Latin America & Caribbean,AMRO,جامايكا,জ্যামাইকা,Jamaika,Jamaica,Jamaica,جامائیکا,Jamaïque,Τζαμάικα,ג'מייקה,जमैका,Jamaica,Jamaika,Giamaica,ジャマイカ,자메이카,Jamaica,Jamajka,Jamaica,Ямайка,Jamaica,Jamaika,Ямайка,جمیکا,Jamaica,牙买加,牙買加
JAMM,76.57659811749167,33.78376150114603,Jammu & Kashmir,,,PIECE,3,6,Asia,Asia,South Asia,SEARO,,,,,,,,,,,,,,,,,,,,,,,,,,
JOR,36.76606151226754,31.240104267427533,Jordan,400,#af7aa1,Admin-0 country,1,4,Asia,Asia,Middle East & North Africa,EMRO,الأردن,জর্ডান,Jordanien,Jordan,Jordania,اردن,Jordanie,Ιορδανία,ירדן,जॉर्डन,Jordánia,Yordania,Giordania,ヨルダン,요르단,Jordanië,Jordania,Jordânia,Иордания,Jordanien,Ürdün,Йорданія,اردن,Jordan,约旦,約旦
JPN,136.7129877967453,36.008114678918396,Japan,392,#edc949,Admin-0 country,1,2,Asia,Asia,East Asia & Pacific,WPRO,اليابان,জাপান,Japan,Japan,Japón,ژاپن,Japon,Ιαπωνία,יפן,जापान,Japán,Jepang,Giappone,日本,일본,Japan,Japonia,Japão,Япония,Japan,Japonya,Японія,جاپان,Nhật Bản,日本,日本
KASH,,,Kashmir Region,,,PIECE,3,6,Asia,Asia,Asia,,,,,,,,,,,,,,,,,,,,,,,,,,,
KAZ,67.23543784833399,48.40587970107135,Kazakhstan,398,#f28e2c,Admin-0 country,1,3,Asia,Asia,Europe & Central Asia,EURO,كازاخستان,কাজাখস্তান,Kasachstan,Kazakhstan,Kazajistán,قزاقستان,Kazakhstan,Καζακστάν,קזחסטן,कज़ाख़िस्तान,Kazahsztán,Kazakhstan,Kazakistan,カザフスタン,카자흐스탄,Kazachstan,Kazachstan,Cazaquistão,Казахстан,Kazakstan,Kazakistan,Казахстан,قازقستان,Kazakhstan,哈萨克斯坦,哈薩克
KEN,37.79169954883896,0.5952661846657812,Kenya,404,#9c755f,Admin-0 country,1,2,Africa,Africa,Sub-Saharan Africa,AFRO,كينيا,কেনিয়া,Kenia,Kenya,Kenia,کنیا,Kenya,Κένυα,קניה,कीनिया,Kenya,Kenya,Kenya,ケニア,케냐,Kenia,Kenia,Quénia,Кения,Kenya,Kenya,Кенія,کینیا,Kenya,肯尼亚,肯亞
KGZ,74.58684062177359,41.51862530874172,Kyrgyzstan,417,#76b7b2,Admin-0 country,1,4,Asia,Asia,Europe & Central Asia,EURO,قيرغيزستان,কিরগিজস্তান,Kirgisistan,Kyrgyzstan,Kirguistán,قرقیزستان,Kirghizistan,Κιργιζία,קירגיזסטן,किर्गिज़स्तान,Kirgizisztán,Kirgizstan,Kirghizistan,キルギス,키르기스스탄,Kirgizië,Kirgistan,Quirguistão,Киргизия,Kirgizistan,Kırgızistan,Киргизстан,کرغیزستان,Kyrgyzstan,吉尔吉斯斯坦,吉爾吉斯
KHM,104.87420679025203,12.68480123988617,Cambodia,116,#59a14f,Admin-0 country,1,3,Asia,Asia,East Asia & Pacific,WPRO,كمبوديا,কম্বোডিয়া,Kambodscha,Cambodia,Camboya,کامبوج,Cambodge,Καμπότζη,קמבודיה,कम्बोडिया,Kambodzsa,Kamboja,Cambogia,カンボジア,캄보디아,Cambodja,Kambodża,Camboja,Камбоджа,Kambodja,Kamboçya,Камбоджа,کمبوڈیا,Campuchia,柬埔寨,柬埔寨
KOR,127.81978049675283,36.41823167448104,South Korea,410,#e15759,Admin-0 country,1,2,Asia,Asia,East Asia & Pacific,WPRO,كوريا الجنوبية,দক্ষিণ কোরিয়া,Südkorea,South Korea,Corea del Sur,کره جنوبی,Corée du Sud,Νότια Κορέα,קוריאה הדרומית,दक्षिण कोरिया,Dél-Korea,Korea Selatan,Corea del Sud,大韓民国,대한민국,Zuid-Korea,Korea Południowa,Coreia do Sul,Республика Корея,Sydkorea,Güney Kore,Південна Корея,جنوبی کوریا,Hàn Quốc,大韩民国,大韓民國
KOS,20.89535381264201,42.57881008126808,Kosovo,-2,#af7aa1,Admin-0 country,1,6,Europe,Europe,Europe & Central Asia,EURO,كوسوفو,কসোভো,Kosovo,Kosovo,Kosovo,کوزووو,Kosovo,Κοσσυφοπέδιο,קוסובו,कोसोवो गणराज्य,Koszovó,Kosovo,Kosovo,コソボ共和国,코소보,Kosovo,Kosowo,Kosovo,Республика Косово,Kosovo,Kosova,Косово,کوسووہ,Kosovo,科索沃,科索沃
KWT,47.60065376925095,29.30691149776296,Kuwait,414,#4e79a7,Admin-0 country,1,6,Asia,Asia,Middle East & North Africa,EMRO,الكويت,কুয়েত,Kuwait,Kuwait,Kuwait,کویت,Koweït,Κουβέιτ,כווית,कुवैत,Kuvait,Kuwait,Kuwait,クウェート,쿠웨이트,Koeweit,Kuwejt,Kuwait,Кувейт,Kuwait,Kuveyt,Кувейт,کویت,Kuwait,科威特,科威特
LAO,103.78756905288016,18.430690340638606,Laos,418,#af7aa1,Admin-0 country,1,4,Asia,Asia,East Asia & Pacific,WPRO,لاوس,লাওস,Laos,Laos,Laos,لائوس,Laos,Λάος,לאוס,लाओस,Laosz,Laos,Laos,ラオス,라오스,Laos,Laos,Laos,Лаос,Laos,Laos,Лаос,لاؤس,Lào,老挝,寮國
LBN,35.868037042913876,33.9104702743485,Lebanon,422,#4e79a7,Admin-0 country,1,5,Asia,Asia,Middle East & North Africa,EMRO,لبنان,লেবানন,Libanon,Lebanon,Líbano,لبنان,Liban,Λίβανος,לבנון,लेबनान,Libanon,Lebanon,Libano,レバノン,레바논,Libanon,Liban,Líbano,Ливан,Libanon,Lübnan,Ліван,لبنان,Liban,黎巴嫩,黎巴嫩
LBR,-9.408757171222733,6.430773269753357,Liberia,430,#59a14f,Admin-0 country,1,4,Africa,Africa,Sub-Saharan Africa,AFRO,ليبيريا,লাইবেরিয়া,Liberia,Liberia,Liberia,لیبریا,Liberia,Λιβερία,ליבריה,लाइबेरिया,Libéria,Liberia,Liberia,リベリア,라이베리아,Liberia,Liberia,Libéria,Либерия,Liberia,Liberya,Ліберія,لائبیریا,Liberia,利比里亚,賴比瑞亞
LBY,18.030390963750943,26.988368604851846,Libya,434,#af7aa1,Admin-0 country,1,3,Africa,Africa,Middle East & North Africa,EMRO,ليبيا,লিবিয়া,Libyen,Libya,Libia,لیبی,Libye,Λιβύη,לוב,लीबिया,Líbia,Libya,Libia,リビア,리비아,Libië,Libia,Líbia,Ливия,Libyen,Libya,Лівія,لیبیا,Libya,利比亚,利比亞
LKA,80.66774349507399,7.699231798330134,Sri Lanka,144,#ff9da7,Admin-0 country,1,3,Asia,Asia,South Asia,SEARO,سريلانكا,শ্রীলঙ্কা,Sri Lanka,Sri Lanka,Sri Lanka,سریلانکا,Sri Lanka,Σρι Λάνκα,סרי לנקה,श्रीलंका,Srí Lanka,Sri Lanka,Sri Lanka,スリランカ,스리랑카,Sri Lanka,Sri Lanka,Sri Lanka,Шри-Ланка,Sri Lanka,Sri Lanka,Шрі-Ланка,سری لنکا,Sri Lanka,斯里兰卡,斯里蘭卡
LSO,28.17181656210157,-29.624793413615688,Lesotho,426,#76b7b2,Admin-0 country,1,6,Africa,Africa,Sub-Saharan Africa,AFRO,ليسوتو,লেসোথো,Lesotho,Lesotho,Lesoto,لسوتو,Lesotho,Λεσότο,לסוטו,लेसोथो,Lesotho,Lesotho,Lesotho,レソト,레소토,Lesotho,Lesotho,Lesoto,Лесото,Lesotho,Lesotho,Лесото,لیسوتھو,Lesotho,莱索托,賴索托
LTU,23.888610405222718,55.28291384315471,Lithuania,440,#edc949,Admin-0 country,1,5,Europe,Europe,Europe & Central Asia,EURO,ليتوانيا,লিথুয়ানিয়া,Litauen,Lithuania,Lituania,لیتوانی,Lituanie,Λιθουανία,ליטא,लिथुआनिया,Litvánia,Lituania,Lituania,リトアニア,리투아니아,Litouwen,Litwa,Lituânia,Литва,Litauen,Litvanya,Литва,لتھووینیا,Litva,立陶宛,立陶宛
LUX,5.965095895902207,49.76523883872334,Luxembourg,442,#af7aa1,Admin-0 country,1,6,Europe,Europe,Europe & Central Asia,EURO,لوكسمبورغ,লুক্সেমবুর্গ,Luxemburg,Luxembourg,Luxemburgo,لوکزامبورگ,Luxembourg,Λουξεμβούργο,לוקסמבורג,लक्ज़मबर्ग,Luxemburg,Luksemburg,Lussemburgo,ルクセンブルク,룩셈부르크,Luxemburg,Luksemburg,Luxemburgo,Люксембург,Luxemburg,Lüksemburg,Люксембург,لکسمبرگ,Luxembourg,卢森堡,盧森堡
LVA,24.840541034229314,56.81724694447376,Latvia,428,#af7aa1,Admin-0 country,1,5,Europe,Europe,Europe & Central Asia,EURO,لاتفيا,লাতভিয়া,Lettland,Latvia,Letonia,لتونی,Lettonie,Λετονία,לטביה,लातविया,Lettország,Latvia,Lettonia,ラトビア,라트비아,Letland,Łotwa,Letónia,Латвия,Lettland,Letonya,Латвія,لٹویا,Latvia,拉脱维亚,拉脫維亞
MAR,-6.348929315903622,31.92621870812855,Morocco,504,#e15759,Admin-0 country,1,3,Africa,Africa,Middle East & North Africa,EMRO,المغرب,মরক্কো,Marokko,Morocco,Marruecos,مراکش,Maroc,Μαρόκο,מרוקו,मोरक्को,Marokkó,Maroko,Marocco,モロッコ,모로코,Marokko,Maroko,Marrocos,Марокко,Marocko,Fas,Марокко,مراکش,Maroc,摩洛哥,摩洛哥
MDA,28.419789598579413,47.196663840232794,Moldova,498,#76b7b2,Admin-0 country,1,6,Europe,Europe,Europe & Central Asia,EURO,مولدوفا,মলদোভা,Republik Moldau,Moldova,Moldavia,مولداوی,Moldavie,Μολδαβία,מולדובה,मॉल्डोवा,Moldova,Moldova,Moldavia,モルドバ,몰도바,Moldavië,Mołdawia,Moldávia,Молдавия,Moldavien,Moldova,Молдова,مالدووا,Moldova,摩尔多瓦,摩爾多瓦
MDG,46.72940880650801,-19.30166695055485,Madagascar,450,#f28e2c,Admin-0 country,1,3,Africa,Africa,Sub-Saharan Africa,AFRO,مدغشقر,মাদাগাস্কার,Madagaskar,Madagascar,Madagascar,ماداگاسکار,Madagascar,Μαδαγασκάρη,מדגסקר,मेडागास्कर,Madagaszkár,Madagaskar,Madagascar,マダガスカル,마다가스카르,Madagaskar,Madagaskar,Madagáscar,Мадагаскар,Madagaskar,Madagaskar,Мадагаскар,مڈغاسکر,Madagascar,马达加斯加,馬達加斯加
MEX,-102.22348178860769,23.91345270210856,Mexico,484,#59a14f,Admin-0 country,1,2,North America,Americas,Latin America & Caribbean,AMRO,المكسيك,মেক্সিকো,Mexiko,Mexico,México,مکزیک,Mexique,Μεξικό,מקסיקו,मेक्सिको,Mexikó,Meksiko,Messico,メキシコ,멕시코,Mexico,Meksyk,México,Мексика,Mexiko,Meksika,Мексика,میکسیکو,México,墨西哥,墨西哥
MKD,21.696438886714688,41.60602384570754,North Macedonia,807,#59a14f,Admin-0 country,1,6,Europe,Europe,Europe & Central Asia,EURO,مقدونيا الشمالية,উত্তর মেসিডোনিয়া,Nordmazedonien,North Macedonia,Macedonia del Norte,مقدونیه شمالی,Macédoine du Nord,Βόρεια Μακεδονία,מקדוניה הצפונית,उत्तर मैसिडोनिया,Észak-Macedónia,Republik Makedonia Utara,Macedonia del Nord,北マケドニア,북마케도니아,Noord-Macedonië,Macedonia Północna,Macedónia do Norte,Северная Македония,Nordmakedonien,Kuzey Makedonya,Північна Македонія,شمالی مقدونیہ,Bắc Macedonia,北马其顿,北馬其頓
MLI,-3.5934453244567455,17.24052797630695,Mali,466,#e15759,Admin-0 country,1,3,Africa,Africa,Sub-Saharan Africa,AFRO,مالي,মালি,Mali,Mali,Malí,مالی,Mali,Μάλι,מאלי,माली,Mali,Mali,Mali,マリ共和国,말리,Mali,Mali,Mali,Мали,Mali,Mali,Малі,مالی,Mali,马里,馬利共和國
MMR,96.51316182702033,20.944634828333413,Myanmar,104,#ff9da7,Admin-0 country,1,3,Asia,Asia,East Asia & Pacific,SEARO,ميانمار,মিয়ানমার,Myanmar,Myanmar,Birmania,میانمار,Birmanie,Μιανμάρ,מיאנמר,म्यान्मार,Mianmar,Myanmar,Birmania,ミャンマー,미얀마,Myanmar,Mjanma,Myanmar,Мьянма,Myanmar,Myanmar,М'янма,میانمار,Myanma,缅甸,緬甸
MNE,19.28559376022889,42.78821911062296,Montenegro,499,#edc949,Admin-0 country,1,6,Europe,Europe,Europe & Central Asia,EURO,الجبل الأسود,মন্টিনিগ্রো,Montenegro,Montenegro,Montenegro,مونتهنگرو,Monténégro,Μαυροβούνιο,מונטנגרו,मॉन्टेनीग्रो,Montenegró,Montenegro,Montenegro,モンテネグロ,몬테네그로,Montenegro,Czarnogóra,Montenegro,Черногория,Montenegro,Karadağ,Чорногорія,مونٹینیگرو,Montenegro,黑山,蒙特內哥羅
MNG,103.0155890533905,46.954177917558155,Mongolia,496,#e15759,Admin-0 country,1,3,Asia,Asia,East Asia & Pacific,WPRO,منغوليا,মঙ্গোলিয়া,Mongolei,Mongolia,Mongolia,مغولستان,Mongolie,Μογγολία,מונגוליה,मंगोलिया,Mongólia,Mongolia,Mongolia,モンゴル国,몽골,Mongolië,Mongolia,Mongólia,Монголия,Mongoliet,Moğolistan,Монголія,منگولیا,Mông Cổ,蒙古国,蒙古國
MOZ,35.54240118775743,-17.153966224105503,Mozambique,508,#59a14f,Admin-0 country,1,3,Africa,Africa,Sub-Saharan Africa,AFRO,موزمبيق,মোজাম্বিক,Mosambik,Mozambique,Mozambique,موزامبیک,Mozambique,Μοζαμβίκη,מוזמביק,मोज़ाम्बीक,Mozambik,Mozambik,Mozambico,モザンビーク,모잠비크,Mozambique,Mozambik,Moçambique,Мозамбик,Moçambique,Mozambik,Мозамбік,موزمبیق,Mozambique,莫桑比克,莫三比克
MRT,-10.348791444914367,20.180467156267564,Mauritania,478,#76b7b2,Admin-0 country,1,3,Africa,Africa,Sub-Saharan Africa,AFRO,موريتانيا,মৌরিতানিয়া,Mauretanien,Mauritania,Mauritania,موریتانی,Mauritanie,Μαυριτανία,מאוריטניה,मॉरीतानिया,Mauritánia,Mauritania,Mauritania,モーリタニア,모리타니,Mauritanië,Mauretania,Mauritânia,Мавритания,Mauretanien,Moritanya,Мавританія,موریتانیہ,Mauritanie,毛里塔尼亚,茅利塔尼亞
MWI,34.18644681665131,-13.159973856748222,Malawi,454,#76b7b2,Admin-0 country,1,6,Africa,Africa,Sub-Saharan Africa,AFRO,مالاوي,মালাউই,Malawi,Malawi,Malaui,مالاوی,Malawi,Μαλάουι,מלאווי,मलावी,Malawi,Malawi,Malawi,マラウイ,말라위,Malawi,Malawi,Malawi,Малави,Malawi,Malavi,Малаві,ملاوی,Malawi,马拉维,馬拉威
MYS,114.6685990802099,3.548112506265955,Malaysia,458,#ff9da7,Admin-0 country,1,3,Asia,Asia,East Asia & Pacific,WPRO,ماليزيا,মালয়েশিয়া,Malaysia,Malaysia,Malasia,مالزی,Malaisie,Μαλαισία,מלזיה,मलेशिया,Malajzia,Malaysia,Malaysia,マレーシア,말레이시아,Maleisië,Malezja,Malásia,Малайзия,Malaysia,Malezya,Малайзія,ملائیشیا,Malaysia,马来西亚,馬來西亞
NAM,17.14206210999222,-22.040194882619307,Namibia,516,#4e79a7,Admin-0 country,1,3,Africa,Africa,Sub-Saharan Africa,AFRO,ناميبيا,নামিবিয়া,Namibia,Namibia,Namibia,نامیبیا,Namibie,Ναμίμπια,נמיביה,नामीबिया,Namíbia,Namibia,Namibia,ナミビア,나미비아,Namibië,Namibia,Namíbia,Намибия,Namibia,Namibya,Намібія,نمیبیا,Namibia,纳米比亚,納米比亞
NCL,165.52848311496922,-21.26083257262374,New Caledonia,540,#76b7b2,Admin-0 country,1,3,Oceania,Oceania,East Asia & Pacific,WPRO,كاليدونيا الجديدة,নতুন ক্যালিডোনিয়া,Neukaledonien,New Caledonia,Nueva Caledonia,کالدونیای جدید,Nouvelle-Calédonie,Νέα Καληδονία,קלדוניה החדשה,नया कैलेडोनिया,Új-Kaledónia,Kaledonia Baru,Nuova Caledonia,ニューカレドニア,누벨칼레도니,Nieuw-Caledonië,Nowa Kaledonia,Nova Caledónia,Новая Каледония,Nya Kaledonien,Yeni Kaledonya,Нова Каледонія,نیو کیلیڈونیا,Nouvelle-Calédonie,新喀里多尼亚,新喀里多尼亞
NER,9.274063190028773,17.34085411273817,Niger,562,#edc949,Admin-0 country,1,3,Africa,Africa,Sub-Saharan Africa,AFRO,النيجر,নাইজার,Niger,Niger,Níger,نیجر,Niger,Νίγηρας,ניז'ר,नाइजर,Niger,Niger,Niger,ニジェール,니제르,Niger,Niger,Níger,Нигер,Niger,Nijer,Нігер,نائجر,Niger,尼日尔,尼日
NGA,7.985654139168394,9.544975137568802,Nigeria,566,#af7aa1,Admin-0 country,1,2,Africa,Africa,Sub-Saharan Africa,AFRO,نيجيريا,নাইজেরিয়া,Nigeria,Nigeria,Nigeria,نیجریه,Nigeria,Νιγηρία,ניגריה,नाईजीरिया,Nigéria,Nigeria,Nigeria,ナイジェリア,나이지리아,Nigeria,Nigeria,Nigéria,Нигерия,Nigeria,Nijerya,Нігерія,نائجیریا,Nigeria,尼日利亚,奈及利亞
NIC,-85.02172645259063,12.846224812897704,Nicaragua,558,#76b7b2,Admin-0 country,1,5,North America,Americas,Latin America & Caribbean,AMRO,نيكاراغوا,নিকারাগুয়া,Nicaragua,Nicaragua,Nicaragua,نیکاراگوئه,Nicaragua,Νικαράγουα,ניקרגואה,निकारागुआ,Nicaragua,Nikaragua,Nicaragua,ニカラグア,니카라과,Nicaragua,Nikaragua,Nicarágua,Никарагуа,Nicaragua,Nikaragua,Нікарагуа,نکاراگوا,Nicaragua,尼加拉瓜,尼加拉瓜
NLD,5.500560784404633,52.29335053358046,Netherlands,528,#4e79a7,Admin-0 country,1,5,Europe,Europe,Europe & Central Asia,EURO,هولندا,নেদারল্যান্ডস,Niederlande,Netherlands,Países Bajos,هلند,Pays-Bas,Ολλανδία,הולנד,नीदरलैण्ड,Hollandia,Belanda,Paesi Bassi,オランダ,네덜란드,Nederland,Holandia,Países Baixos,Нидерланды,Nederländerna,Hollanda,Нідерланди,نیدرلینڈز,Hà Lan,荷兰,荷蘭
NOR,12.36818591979518,64.08604164844404,Norway,578,#ff9da7,Admin-0 country,1,3,Europe,Europe,Europe & Central Asia,EURO,النرويج,নরওয়ে,Norwegen,Norway,Noruega,نروژ,Norvège,Νορβηγία,נורווגיה,नॉर्वे,Norvégia,Norwegia,Norvegia,ノルウェー,노르웨이,Noorwegen,Norwegia,Noruega,Норвегия,Norge,Norveç,Норвегія,ناروے,Na Uy,挪威,挪威
NPL,84.04388570458818,28.248979478271064,Nepal,524,#af7aa1,Admin-0 country,1,3,Asia,Asia,South Asia,SEARO,نيبال,নেপাল,Nepal,Nepal,Nepal,نپال,Népal,Νεπάλ,נפאל,नेपाल,Nepál,Nepal,Nepal,ネパール,네팔,Nepal,Nepal,Nepal,Непал,Nepal,Nepal,Непал,نیپال,Nepal,尼泊尔,尼泊爾
NZL,170.59750090354524,-43.96189644226908,New Zealand,554,#edc949,Admin-0 country,1,2,Oceania,Oceania,East Asia & Pacific,WPRO,نيوزيلندا,নিউজিল্যান্ড,Neuseeland,New Zealand,Nueva Zelanda,نیوزیلند,Nouvelle-Zélande,Νέα Ζηλανδία,ניו זילנד,न्यूज़ीलैण्ड,Új-Zéland,Selandia Baru,Nuova Zelanda,ニュージーランド,뉴질랜드,Nieuw-Zeeland,Nowa Zelandia,Nova Zelândia,Новая Зеландия,Nya Zeeland,Yeni Zelanda,Нова Зеландія,نیوزی لینڈ,New Zealand,新西兰,新西蘭
OMN,56.06652556747393,20.562156161227158,Oman,512,#e15759,Admin-0 country,1,4,Asia,Asia,Middle East & North Africa,EMRO,سلطنة عمان,ওমান,Oman,Oman,Omán,عمان,Oman,Ομάν,עומאן,ओमान,Omán,Oman,Oman,オマーン,오만,Oman,Oman,Omã,Оман,Oman,Umman,Оман,عمان,Oman,阿曼,阿曼
PAK,69.23494779711595,29.908118020443705,Pakistan,586,#ff9da7,Admin-0 country,1,2,Asia,Asia,South Asia,EMRO,باكستان,পাকিস্তান,Pakistan,Pakistan,Pakistán,پاکستان,Pakistan,Πακιστάν,פקיסטן,पाकिस्तान,Pakisztán,Pakistan,Pakistan,パキスタン,파키스탄,Pakistan,Pakistan,Paquistão,Пакистан,Pakistan,Pakistan,Пакистан,پاکستان,Pakistan,巴基斯坦,巴基斯坦
PAN,-80.108823940374,8.532768288618756,Panama,591,#f28e2c,Admin-0 country,1,4,North America,Americas,Latin America & Caribbean,AMRO,بنما,পানামা,Panama,Panama,Panamá,پاناما,Panama,Παναμάς,פנמה,पनामा,Panama,Panama,Panama,パナマ,파나마,Panama,Panama,Panamá,Панама,Panama,Panama,Панама,پاناما,Panama,巴拿马,巴拿馬
PER,-74.43044720648331,-9.14679692445557,Peru,604,#9c755f,Admin-0 country,1,2,South America,Americas,Latin America & Caribbean,AMRO,بيرو,পেরু,Peru,Peru,Perú,پرو,Pérou,Περού,פרו,पेरू,Peru,Peru,Perù,ペルー,페루,Peru,Peru,Peru,Перу,Peru,Peru,Перу,پیرو,Peru,秘鲁,秘魯
PHL,121.55092323259043,15.741222114207021,Philippines,608,#af7aa1,Admin-0 country,1,2,Asia,Asia,East Asia & Pacific,WPRO,الفلبين,ফিলিপাইন,Philippinen,Philippines,Filipinas,فیلیپین,Philippines,Φιλιππίνες,הפיליפינים,फ़िलीपीन्स,Fülöp-szigetek,Filipina,Filippine,フィリピン,필리핀,Filipijnen,Filipiny,Filipinas,Филиппины,Filippinerna,Filipinler,Філіппіни,فلپائن,Philippines,菲律宾,菲律賓
PNG,144.32072423719492,-6.644143049774546,Papua New Guinea,598,#e15759,Admin-0 country,1,2,Oceania,Oceania,East Asia & Pacific,WPRO,بابوا غينيا الجديدة,পাপুয়া নিউগিনি,Papua-Neuguinea,Papua New Guinea,Papúa Nueva Guinea,پاپوآ گینه نو,Papouasie-Nouvelle-Guinée,Παπούα Νέα Γουινέα,פפואה גינאה החדשה,पापुआ न्यू गिनी,Pápua Új-Guinea,Papua Nugini,Papua Nuova Guinea,パプアニューギニア,파푸아뉴기니,Papoea-Nieuw-Guinea,Papua-Nowa Gwinea,Papua-Nova Guiné,Папуа — Новая Гвинея,Papua Nya Guinea,Papua Yeni Gine,Папуа Нова Гвінея,پاپوا نیو گنی,Papua New Guinea,巴布亚新几内亚,巴布亞紐幾內亞
POL,19.343538760681042,52.13396310668422,Poland,616,#4e79a7,Admin-0 country,1,3,Europe,Europe,Europe & Central Asia,EURO,بولندا,পোল্যান্ড,Polen,Poland,Polonia,لهستان,Pologne,Πολωνία,פולין,पोलैंड,Lengyelország,Polandia,Polonia,ポーランド,폴란드,Polen,Polska,Polónia,Польша,Polen,Polonya,Польща,پولینڈ,Ba Lan,波兰,波蘭
PRI,-66.4792526249674,18.237780263673603,Puerto Rico,630,#59a14f,Admin-0 country,1,5,North America,Americas,Latin America & Caribbean,AMRO,بورتوريكو,পুয়ের্তো রিকো,Puerto Rico,Puerto Rico,Puerto Rico,پورتوریکو,Porto Rico,Πουέρτο Ρίκο,פוארטו ריקו,पोर्टो रीको,Puerto Rico,Puerto Riko,Porto Rico,プエルトリコ,푸에르토리코,Puerto Rico,Portoryko,Porto Rico,Пуэрто-Рико,Puerto Rico,Porto Riko,Пуерто-Рико,پورٹو ریکو,Puerto Rico,波多黎各,波多黎各
PRK,127.13101045885267,40.129923543628195,North Korea,408,#f28e2c,Admin-0 country,1,3,Asia,Asia,East Asia & Pacific,SEARO,كوريا الشمالية,উত্তর কোরিয়া,Nordkorea,North Korea,Corea del Norte,کره شمالی,Corée du Nord,Βόρεια Κορέα,קוריאה הצפונית,उत्तर कोरिया,Észak-Korea,Korea Utara,Corea del Nord,朝鮮民主主義人民共和国,조선민주주의인민공화국,Noord-Korea,Korea Północna,Coreia do Norte,КНДР,Nordkorea,Kuzey Kore,Корейська Народно-Демократична Республіка,شمالی کوریا,Cộng hòa Dân chủ Nhân dân Triều Tiên,朝鲜民主主义人民共和国,朝鮮民主主義人民共和國
PRT,-8.06120261096763,39.607048686481185,Portugal,620,#4e79a7,Admin-0 country,1,2,Europe,Europe,Europe & Central Asia,EURO,البرتغال,পর্তুগাল,Portugal,Portugal,Portugal,پرتغال,Portugal,Πορτογαλία,פורטוגל,पुर्तगाल,Portugália,Portugal,Portogallo,ポルトガル,포르투갈,Portugal,Portugalia,Portugal,Португалия,Portugal,Portekiz,Португалія,پرتگال,Bồ Đào Nha,葡萄牙,葡萄牙
PRY,-58.431860573447004,-23.229342089158383,Paraguay,600,#9c755f,Admin-0 country,1,4,South America,Americas,Latin America & Caribbean,AMRO,باراغواي,প্যারাগুয়ে,Paraguay,Paraguay,Paraguay,پاراگوئه,Paraguay,Παραγουάη,פרגוואי,पैराग्वे,Paraguay,Paraguay,Paraguay,パラグアイ,파라과이,Paraguay,Paragwaj,Paraguai,Парагвай,Paraguay,Paraguay,Парагвай,پیراگوئے,Paraguay,巴拉圭,巴拉圭
PSX,35.27296889135123,31.940508476769576,Palestine,275,#e15759,Admin-0 country,1,5,Asia,Asia,Middle East & North Africa,EMRO,فلسطين,ফিলিস্তিন অঞ্চল,Palästina,Palestine,Palestina,فلسطین,Palestine,Παλαιστίνη,ארץ ישראל,फ़िलिस्तीनी राज्यक्षेत्र,Palesztina,Palestina,Palestina,パレスチナ,팔레스타인,Palestina,Palestyna,Palestina,Палестина,Palestina,Filistin,Палестина,فلسطین,Palestine,巴勒斯坦,巴勒斯坦地區
QAT,51.18330565891534,25.320978149522695,Qatar,634,#9c755f,Admin-0 country,1,5,Asia,Asia,Middle East & North Africa,EMRO,قطر,কাতার,Katar,Qatar,Catar,قطر,Qatar,Κατάρ,קטר,क़तर,Katar,Qatar,Qatar,カタール,카타르,Qatar,Katar,Catar,Катар,Qatar,Katar,Катар,قطر,Qatar,卡塔尔,卡達
ROU,24.953866483849826,45.85321844377588,Romania,642,#59a14f,Admin-0 country,1,3,Europe,Europe,Europe & Central Asia,EURO,رومانيا,রোমানিয়া,Rumänien,Romania,Rumania,رومانی,Roumanie,Ρουμανία,רומניה,रोमानिया,Románia,Rumania,Romania,ルーマニア,루마니아,Roemenië,Rumunia,Roménia,Румыния,Rumänien,Romanya,Румунія,رومانیہ,Romania,罗马尼亚,羅馬尼亞
RUS,95.71822104818995,65.94289819640538,Russia,643,#59a14f,Admin-0 country,1,2,Europe,Europe,Europe & Central Asia,EURO,روسيا,রাশিয়া,Russland,Russia,Rusia,روسیه,Russie,Ρωσία,רוסיה,रूस,Oroszország,Rusia,Russia,ロシア,러시아,Rusland,Rosja,Rússia,Россия,Ryssland,Rusya,Росія,روس,Nga,俄罗斯,俄羅斯
RWA,29.9190697583557,-2.0134979971464086,Rwanda,646,#f28e2c,Admin-0 country,1,3,Africa,Africa,Sub-Saharan Africa,AFRO,رواندا,রুয়ান্ডা,Ruanda,Rwanda,Ruanda,رواندا,Rwanda,Ρουάντα,רואנדה,रवाण्डा,Ruanda,Rwanda,Ruanda,ルワンダ,르완다,Rwanda,Rwanda,Ruanda,Руанда,Rwanda,Ruanda,Руанда,روانڈا,Rwanda,卢旺达,盧旺達
SAU,44.64153396462998,24.089567164297087,Saudi Arabia,682,#f28e2c,Admin-0 country,1,2,Asia,Asia,Middle East & North Africa,EMRO,السعودية,সৌদি আরব,Saudi-Arabien,Saudi Arabia,Arabia Saudita,عربستان سعودی,Arabie saoudite,Σαουδική Αραβία,ערב הסעודית,सउदी अरब,Szaúd-Arábia,Arab Saudi,Arabia Saudita,サウジアラビア,사우디아라비아,Saoedi-Arabië,Arabia Saudyjska,Arábia Saudita,Саудовская Аравия,Saudiarabien,Suudi Arabistan,Саудівська Аравія,سعودی عرب,Ả Rập Saudi,沙特阿拉伯,沙烏地阿拉伯
SDN,29.830407996799625,15.971341981737176,Sudan,729,#4e79a7,Admin-0 country,1,3,Africa,Africa,Sub-Saharan Africa,EMRO,السودان,সুদান,Sudan,Sudan,Sudán,سودان,Soudan,Σουδάν,סודאן,सूडान,Szudán,Sudan,Sudan,スーダン,수단,Soedan,Sudan,Sudão,Судан,Sudan,Sudan,Судан,سوڈان,Sudan,苏丹,蘇丹
SEN,-14.505709239464665,14.353378438465864,Senegal,686,#f28e2c,Admin-0 country,1,3,Africa,Africa,Sub-Saharan Africa,AFRO,السنغال,সেনেগাল,Senegal,Senegal,Senegal,سنگال,Sénégal,Σενεγάλη,סנגל,सेनेगल,Szenegál,Senegal,Senegal,セネガル,세네갈,Senegal,Senegal,Senegal,Сенегал,Senegal,Senegal,Сенегал,سینیگال,Sénégal,塞内加尔,塞內加爾
SLB,159.1019850826657,-7.902313514770886,Solomon Is.,090,#59a14f,Admin-0 country,1,3,Oceania,Oceania,East Asia & Pacific,WPRO,جزر سليمان,সলোমন দ্বীপপুঞ্জ,Salomonen,Solomon Islands,Islas Salomón,جزایر سلیمان,Îles Salomon,Νησιά Σολομώντα,איי שלמה,सोलोमन द्वीपसमूह,Salamon-szigetek,Kepulauan Solomon,Isole Salomone,ソロモン諸島,솔로몬 제도,Salomonseilanden,Wyspy Salomona,Ilhas Salomão,Соломоновы Острова,Salomonöarna,Solomon Adaları,Соломонові Острови,جزائر سلیمان,Quần đảo Solomon,所罗门群岛,索羅門群島
SLE,-11.795406381760714,8.529458936123344,Sierra Leone,694,#edc949,Admin-0 country,1,4,Africa,Africa,Sub-Saharan Africa,AFRO,سيراليون,সিয়েরা লিওন,Sierra Leone,Sierra Leone,Sierra Leona,سیرالئون,Sierra Leone,Σιέρα Λεόνε,סיירה לאון,सिएरा लियोन,Sierra Leone,Sierra Leone,Sierra Leone,シエラレオネ,시에라리온,Sierra Leone,Sierra Leone,Serra Leoa,Сьерра-Леоне,Sierra Leone,Sierra Leone,Сьєрра-Леоне,سیرالیون,Sierra Leone,塞拉利昂,獅子山
SLV,-88.87223493574567,13.726547461583705,El Salvador,222,#edc949,Admin-0 country,1,6,North America,Americas,Latin America & Caribbean,AMRO,السلفادور,এল সালভাদোর,El Salvador,El Salvador,El Salvador,السالوادور,Salvador,Ελ Σαλβαδόρ,אל סלוודור,अल साल्वाडोर,Salvador,El Salvador,El Salvador,エルサルバドル,엘살바도르,El Salvador,Salwador,El Salvador,Сальвадор,El Salvador,El Salvador,Сальвадор,ایل سیلواڈور,El Salvador,萨尔瓦多,薩爾瓦多
SOL,46.23221988265361,9.761285697932859,Somaliland,-3,#9c755f,Admin-0 country,1,5,Africa,Africa,Sub-Saharan Africa,EMRO,صوماليلاند,সোমালিল্যান্ড,Somaliland,Somaliland,Somalilandia,سومالیلند,Somaliland,Σομαλιλάνδη,סומלילנד,सोमालीदेश,Szomáliföld,Somaliland,Somaliland,ソマリランド,소말릴란드,Somaliland,Somaliland,Somalilândia,Сомалиленд,Somaliland,Somaliland,Сомаліленд,صومالی لینڈ,Somaliland,索马里兰,索馬利蘭
SOM,45.69956494219362,4.741568093190164,Somalia,706,#ff9da7,Admin-0 country,1,6,Africa,Africa,Sub-Saharan Africa,EMRO,الصومال,সোমালিয়া,Somalia,Somalia,Somalia,سومالی,Somalie,Σομαλία,סומליה,सोमालिया,Szomália,Somalia,Somalia,ソマリア,소말리아,Somalië,Somalia,Somália,Сомали,Somalia,Somali,Сомалі,صومالیہ,Somalia,索马里,索馬利亞
SRB,20.837114005316725,44.22290576068481,Serbia,688,#e15759,Admin-0 country,1,5,Europe,Europe,Europe & Central Asia,EURO,صربيا,সার্বিয়া,Serbien,Serbia,Serbia,صربستان,Serbie,Σερβία,סרביה,सर्बिया,Szerbia,Serbia,Serbia,セルビア,세르비아,Servië,Serbia,Sérvia,Сербия,Serbien,Sırbistan,Сербія,سربیا,Serbia,塞尔维亚,塞爾維亞
SSD,30.202104861443463,7.292926003787505,S. Sudan,728,#76b7b2,Admin-0 country,1,3,Africa,Africa,Sub-Saharan Africa,AFRO,جنوب السودان,দক্ষিণ সুদান,Südsudan,South Sudan,Sudán del Sur,سودان جنوبی,Soudan du Sud,Νότιο Σουδάν,דרום סודאן,दक्षिण सूडान,Dél-Szudán,Sudan Selatan,Sudan del Sud,南スーダン,남수단,Zuid-Soedan,Sudan Południowy,Sudão do Sul,Южный Судан,Sydsudan,Güney Sudan,Південний Судан,جنوبی سوڈان,Nam Sudan,南苏丹,南蘇丹
SUR,-55.911544652122615,4.119393636760442,Suriname,740,#f28e2c,Admin-0 country,1,4,South America,Americas,Latin America & Caribbean,AMRO,سورينام,সুরিনাম,Suriname,Suriname,Surinam,سورینام,Suriname,Σουρινάμ,סורינאם,सूरीनाम,Suriname,Suriname,Suriname,スリナム,수리남,Suriname,Surinam,Suriname,Суринам,Surinam,Surinam,Суринам,سرینام,Suriname,苏里南,蘇利南
SVK,19.497269368255036,48.7332386521063,Slovakia,703,#e15759,Admin-0 country,1,6,Europe,Europe,Europe & Central Asia,EURO,سلوفاكيا,স্লোভাকিয়া,Slowakei,Slovakia,Eslovaquia,اسلواکی,Slovaquie,Σλοβακία,סלובקיה,स्लोवाकिया,Szlovákia,Slowakia,Slovacchia,スロバキア,슬로바키아,Slowakije,Słowacja,Eslováquia,Словакия,Slovakien,Slovakya,Словаччина,سلوواکیہ,Slovakia,斯洛伐克,斯洛伐克
SVN,14.933920448643828,46.12586538590273,Slovenia,705,#e15759,Admin-0 country,1,6,Europe,Europe,Europe & Central Asia,EURO,سلوفينيا,স্লোভেনিয়া,Slowenien,Slovenia,Eslovenia,اسلوونی,Slovénie,Σλοβενία,סלובניה,स्लोवेनिया,Szlovénia,Slovenia,Slovenia,スロベニア,슬로베니아,Slovenië,Słowenia,Eslovénia,Словения,Slovenien,Slovenya,Словенія,سلووینیا,Slovenia,斯洛文尼亚,斯洛維尼亞
SWE,16.10893574013581,62.41834091126858,Sweden,752,#af7aa1,Admin-0 country,1,3,Europe,Europe,Europe & Central Asia,EURO,السويد,সুইডেন,Schweden,Sweden,Suecia,سوئد,Suède,Σουηδία,שוודיה,स्वीडन,Svédország,Swedia,Svezia,スウェーデン,스웨덴,Zweden,Szwecja,Suécia,Швеция,Sverige,İsveç,Швеція,سویڈن,Thụy Điển,瑞典,瑞典
SWZ,31.39505795065235,-26.48915825895077,eSwatini,748,#edc949,Admin-0 country,1,4,Africa,Africa,Sub-Saharan Africa,AFRO,إسواتيني,ইসোয়াতিনি,Eswatini,Eswatini,Suazilandia,اسواتینی,Eswatini,Εσουατίνι,אסוואטיני,एस्वातीनी,Szváziföld,Eswatini,eSwatini,エスワティニ,에스와티니,Swaziland,Eswatini,Essuatíni,Эсватини,Swaziland,Esvatini,Есватіні,اسواتینی,Eswatini,斯威士兰,史瓦帝尼
SYR,38.5231164362703,35.00830452654838,Syria,760,#59a14f,Admin-0 country,1,3,Asia,Asia,Middle East & North Africa,EMRO,سوريا,সিরিয়া,Syrien,Syria,Siria,سوریه,Syrie,Συρία,סוריה,सीरिया,Szíria,Suriah,Siria,シリア,시리아,Syrië,Syria,Síria,Сирия,Syrien,Suriye,Сирія,سوریہ,Syria,叙利亚,敘利亞
TCD,18.573328247754247,15.276276076983066,Chad,148,#f28e2c,Admin-0 country,1,3,Africa,Africa,Sub-Saharan Africa,AFRO,تشاد,চাদ,Tschad,Chad,Chad,چاد,Tchad,Τσαντ,צ'אד,चाड,Csád,Chad,Ciad,チャド,차드,Tsjaad,Czad,Chade,Чад,Tchad,Çad,Чад,چاڈ,Tchad,乍得,查德
TGO,0.9979002459845195,8.434912551793422,Togo,768,#9c755f,Admin-0 country,1,6,Africa,Africa,Sub-Saharan Africa,AFRO,توغو,টোগো,Togo,Togo,Togo,توگو,Togo,Τόγκο,טוגו,टोगो,Togo,Togo,Togo,トーゴ,토고,Togo,Togo,Togo,Того,Togo,Togo,Того,ٹوگو,Togo,多哥,多哥
THA,101.00279480162823,14.980983213678966,Thailand,764,#edc949,Admin-0 country,1,3,Asia,Asia,East Asia & Pacific,SEARO,تايلاند,থাইল্যান্ড,Thailand,Thailand,Tailandia,تایلند,Thaïlande,Ταϊλάνδη,תאילנד,थाईलैण्ड,Thaiföld,Thailand,Thailandia,タイ王国,태국,Thailand,Tajlandia,Tailândia,Таиланд,Thailand,Tayland,Таїланд,تھائی لینڈ,Thái Lan,泰国,泰國
TJK,71.04827987819289,38.589029056368,Tajikistan,762,#f28e2c,Admin-0 country,1,4,Asia,Asia,Europe & Central Asia,EURO,طاجيكستان,তাজিকিস্তান,Tadschikistan,Tajikistan,Tayikistán,تاجیکستان,Tadjikistan,Τατζικιστάν,טג׳יקיסטן,ताजिकिस्तान,Tádzsikisztán,Tajikistan,Tagikistan,タジキスタン,타지키스탄,Tadzjikistan,Tadżykistan,Tajiquistão,Таджикистан,Tadzjikistan,Tacikistan,Таджикистан,تاجکستان,Tajikistan,塔吉克斯坦,塔吉克
TKM,59.34836800476916,39.10215028909549,Turkmenistan,795,#76b7b2,Admin-0 country,1,4,Asia,Asia,Europe & Central Asia,EURO,تركمانستان,তুর্কমেনিস্তান,Turkmenistan,Turkmenistan,Turkmenistán,ترکمنستان,Turkménistan,Τουρκμενιστάν,טורקמניסטן,तुर्कमेनिस्तान,Türkmenisztán,Turkmenistan,Turkmenistan,トルクメニスタン,투르크메니스탄,Turkmenistan,Turkmenistan,Turquemenistão,Туркмения,Turkmenistan,Türkmenistan,Туркменістан,ترکمانستان,Turkmenistan,土库曼斯坦,土庫曼
TLS,125.96692284497291,-8.7682191734432,Timor-Leste,626,#f28e2c,Admin-0 country,1,5,Asia,Asia,East Asia & Pacific,SEARO,تيمور الشرقية,পূর্ব তিমুর,Osttimor,East Timor,Timor Oriental,تیمور شرقی,Timor oriental,Ανατολικό Τιμόρ,מזרח טימור,पूर्वी तिमोर,Kelet-Timor,Timor Leste,Timor Est,東ティモール,동티모르,Oost-Timor,Timor Wschodni,Timor-Leste,Восточный Тимор,Östtimor,Doğu Timor,Східний Тимор,مشرقی تیمور,Đông Timor,东帝汶,東帝汶
TTO,-61.330505272743416,10.428272992893652,Trinidad and Tobago,780,#edc949,Admin-0 country,1,5,North America,Americas,Latin America & Caribbean,AMRO,ترينيداد وتوباغو,ত্রিনিদাদ ও টোবাগো,Trinidad und Tobago,Trinidad and Tobago,Trinidad y Tobago,ترینیداد و توباگو,Trinité-et-Tobago,Τρινιντάντ και Τομπάγκο,טרינידד וטובגו,त्रिनिदाद और टोबैगो,Trinidad és Tobago,Trinidad dan Tobago,Trinidad e Tobago,トリニダード・トバゴ,트리니다드 토바고,Trinidad en Tobago,Trynidad i Tobago,Trinidad e Tobago,Тринидад и Тобаго,Trinidad och Tobago,Trinidad ve Tobago,Тринідад і Тобаго,ٹرینیڈاڈ و ٹوباگو,Trinidad và Tobago,特立尼达和多巴哥,千里達及托巴哥
TUN,9.538545170938018,34.14387499192301,Tunisia,788,#59a14f,Admin-0 country,1,3,Africa,Africa,Middle East & North Africa,EMRO,تونس,তিউনিসিয়া,Tunesien,Tunisia,Túnez,تونس,Tunisie,Τυνησία,תוניסיה,ट्यूनिशिया,Tunézia,Tunisia,Tunisia,チュニジア,튀니지,Tunesië,Tunezja,Tunísia,Тунис,Tunisien,Tunus,Туніс,تونس,Tuy-ni-di,突尼斯,突尼西亞
TUR,35.37458112366196,39.06349616749753,Turkey,792,#76b7b2,Admin-0 country,1,2,Asia,Asia,Europe & Central Asia,EURO,تركيا,তুরস্ক,Türkei,Turkey,Turquía,ترکیه,Turquie,Τουρκία,טורקיה,तुर्की,Törökország,Turki,Turchia,トルコ,터키,Turkije,Turcja,Turquia,Турция,Turkiet,Türkiye,Туреччина,ترکی,Thổ Nhĩ Kỳ,土耳其,土耳其
TWN,120.97150802143243,23.738053151622697,Taiwan,158,#9c755f,Admin-0 country,1,3,Asia,Asia,East Asia & Pacific,WPRO,تايوان,তাইওয়ান,Republik China,Taiwan,República de China,تایوان,Taïwan,Δημοκρατία της Κίνας,טאיוואן,चीनी गणराज्य,Kínai Köztársaság,Taiwan,Taiwan,中華民国,중화민국,Taiwan,Republika Chińska,Taiwan,Тайвань,Taiwan,Çin Cumhuriyeti,Республіка Китай,تائیوان,Đài Loan,中华民国,中華民國
TZA,34.74198175604694,-6.250564412856308,Tanzania,834,#edc949,Admin-0 country,1,3,Africa,Africa,Sub-Saharan Africa,AFRO,تنزانيا,তানজানিয়া,Tansania,Tanzania,Tanzania,تانزانیا,Tanzanie,Τανζανία,טנזניה,तंज़ानिया,Tanzánia,Tanzania,Tanzania,タンザニア,탄자니아,Tanzania,Tanzania,Tanzânia,Танзания,Tanzania,Tanzanya,Танзанія,تنزانیہ,Tanzania,坦桑尼亚,坦尚尼亞
UGA,32.357112350199884,1.2950376717491607,Uganda,800,#4e79a7,Admin-0 country,1,3,Africa,Africa,Sub-Saharan Africa,AFRO,أوغندا,উগান্ডা,Uganda,Uganda,Uganda,اوگاندا,Ouganda,Ουγκάντα,אוגנדה,युगाण्डा,Uganda,Uganda,Uganda,ウガンダ,우간다,Oeganda,Uganda,Uganda,Уганда,Uganda,Uganda,Уганда,یوگنڈا,Uganda,乌干达,烏干達
UKR,31.450148801750924,48.99849916948942,Ukraine,804,#9c755f,Admin-0 country,1,3,Europe,Europe,Europe & Central Asia,EURO,أوكرانيا,ইউক্রেন,Ukraine,Ukraine,Ucrania,اوکراین,Ukraine,Ουκρανία,אוקראינה,युक्रेन,Ukrajna,Ukraina,Ucraina,ウクライナ,우크라이나,Oekraïne,Ukraina,Ucrânia,Украина,Ukraina,Ukrayna,Україна,یوکرین,Ukraina,乌克兰,烏克蘭
URY,-56.00999181348755,-32.773823211597374,Uruguay,858,#edc949,Admin-0 country,1,4,South America,Americas,Latin America & Caribbean,AMRO,الأوروغواي,উরুগুয়ে,Uruguay,Uruguay,Uruguay,اروگوئه,Uruguay,Ουρουγουάη,אורוגוואי,उरुग्वे,Uruguay,Uruguay,Uruguay,ウルグアイ,우루과이,Uruguay,Urugwaj,Uruguai,Уругвай,Uruguay,Uruguay,Уругвай,یوراگوئے,Uruguay,乌拉圭,烏拉圭
USA,-98.73427340939371,39.86758621895058,United States of America,840,#9c755f,Admin-0 country,1,2,North America,Americas,North America,AMRO,الولايات المتحدة,মার্কিন যুক্তরাষ্ট্র,Vereinigte Staaten,United States of America,Estados Unidos,ایالات متحده آمریکا,États-Unis,Ηνωμένες Πολιτείες Αμερικής,ארצות הברית,संयुक्त राज्य अमेरिका,Amerikai Egyesült Államok,Amerika Serikat,Stati Uniti d'America,アメリカ合衆国,미국,Verenigde Staten van Amerika,Stany Zjednoczone,Estados Unidos,США,USA,Amerika Birleşik Devletleri,Сполучені Штати Америки,ریاستہائے متحدہ امریکا,Hoa Kỳ,美国,美國
UZB,63.365863428046126,41.771087030943704,Uzbekistan,860,#e15759,Admin-0 country,1,3,Asia,Asia,Europe & Central Asia,EURO,أوزبكستان,উজবেকিস্তান,Usbekistan,Uzbekistan,Uzbekistán,ازبکستان,Ouzbékistan,Ουζμπεκιστάν,אוזבקיסטן,उज़्बेकिस्तान,Üzbegisztán,Uzbekistan,Uzbekistan,ウズベキスタン,우즈베키스탄,Oezbekistan,Uzbekistan,Uzbequistão,Узбекистан,Uzbekistan,Özbekistan,Узбекистан,ازبکستان,Uzbekistan,乌兹别克斯坦,烏茲別克
VEN,-66.15277666633324,7.160597778060593,Venezuela,862,#9c755f,Admin-0 country,1,3,South America,Americas,Latin America & Caribbean,AMRO,فنزويلا,ভেনেজুয়েলা,Venezuela,Venezuela,Venezuela,ونزوئلا,Venezuela,Βενεζουέλα,ונצואלה,वेनेज़ुएला,Venezuela,Venezuela,Venezuela,ベネズエラ,베네수엘라,Venezuela,Wenezuela,Venezuela,Венесуэла,Venezuela,Venezuela,Венесуела,وینیزویلا,Venezuela,委内瑞拉,委內瑞拉
VNM,106.33295358041136,16.55531952780846,Vietnam,704,#9c755f,Admin-0 country,1,2,Asia,Asia,East Asia & Pacific,WPRO,فيتنام,ভিয়েতনাম,Vietnam,Vietnam,Vietnam,ویتنام,Viêt Nam,Βιετνάμ,וייטנאם,वियतनाम,Vietnám,Vietnam,Vietnam,ベトナム,베트남,Vietnam,Wietnam,Vietname,Вьетнам,Vietnam,Vietnam,В'єтнам,ویتنام,Việt Nam,越南,越南
VUT,166.90701082534991,-15.223152058687928,Vanuatu,548,#76b7b2,Admin-0 country,1,4,Oceania,Oceania,East Asia & Pacific,WPRO,فانواتو,ভানুয়াতু,Vanuatu,Vanuatu,Vanuatu,وانواتو,Vanuatu,Βανουάτου,ונואטו,वानूआटू,Vanuatu,Vanuatu,Vanuatu,バヌアツ,바누아투,Vanuatu,Vanuatu,Vanuatu,Вануату,Vanuatu,Vanuatu,Вануату,وانواتو,Vanuatu,瓦努阿图,萬那杜
WEST,-13.69034591461345,24.86092200136406,Western part of Western Sahara,,,PIECE,3,6,Africa,Africa,Middle East & North Africa,AFRO,,,,,,,,,,,,,,,,,,,,,,,,,,
YEM,47.51493513978399,15.92208071251389,Yemen,887,#ff9da7,Admin-0 country,1,3,Asia,Asia,Middle East & North Africa,EMRO,اليمن,ইয়েমেন,Jemen,Yemen,Yemen,یمن,Yémen,Υεμένη,תימן,यमन,Jemen,Yaman,Yemen,イエメン,예멘,Jemen,Jemen,Iémen,Йемен,Jemen,Yemen,Ємен,یمن,Yemen,也门,葉門
ZAF,25.157862195196323,-28.92324390402206,South Africa,710,#e15759,Admin-0 country,1,2,Africa,Africa,Sub-Saharan Africa,AFRO,جنوب أفريقيا,দক্ষিণ আফ্রিকা,Südafrika,South Africa,Sudáfrica,آفریقای جنوبی,Afrique du Sud,Νότια Αφρική,דרום אפריקה,दक्षिण अफ़्रीका,Dél-afrikai Köztársaság,Afrika Selatan,Sudafrica,南アフリカ共和国,남아프리카 공화국,Zuid-Afrika,Południowa Afryka,África do Sul,ЮАР,Sydafrika,Güney Afrika Cumhuriyeti,Південно-Африканська Республіка,جنوبی افریقا,Cộng hòa Nam Phi,南非,南非
ZMB,27.761679814959063,-13.392944033763657,Zambia,894,#e15759,Admin-0 country,1,3,Africa,Africa,Sub-Saharan Africa,AFRO,زامبيا,জাম্বিয়া,Sambia,Zambia,Zambia,زامبیا,Zambie,Ζάμπια,זמביה,ज़ाम्बिया,Zambia,Zambia,Zambia,ザンビア,잠비아,Zambia,Zambia,Zâmbia,Замбия,Zambia,Zambiya,Замбія,زیمبیا,Zambia,赞比亚,尚比亞
ZWE,29.78893995829432,-18.900177549082642,Zimbabwe,716,#ff9da7,Admin-0 country,1,3,Africa,Africa,Sub-Saharan Africa,AFRO,زيمبابوي,জিম্বাবুয়ে,Simbabwe,Zimbabwe,Zimbabue,زیمبابوه,Zimbabwe,Ζιμπάμπουε,זימבבואה,ज़िम्बाब्वे,Zimbabwe,Zimbabwe,Zimbabwe,ジンバブエ,짐바브웨,Zimbabwe,Zimbabwe,Zimbábue,Зимбабве,Zimbabwe,Zimbabve,Зімбабве,زمبابوے,Zimbabwe,津巴布韦,辛巴威
AND,1.53,42.53,Andorre,,#4e79a7,small nation,7,7,,,,,,,,,,,,,,,,,,,,,,,,,,,,,,
ATG,-61.854,17.087,Antigua & Barbuda,,#f28e2c,small nation,7,7,,,,,,,,,,,,,,,,,,,,,,,,,,,,,,
BHR,50.558,26.067,Bahrain,,#e15759,small nation,7,7,,,,,,,,,,,,,,,,,,,,,,,,,,,,,,
BRB,-59.56,13.187,Barbados,,#76b7b2,small nation,7,7,,,,,,,,,,,,,,,,,,,,,,,,,,,,,,
COK,-159.73,-21.28,Cook Islands,,#59a14f,small nation,7,7,,,,,,,,,,,,,,,,,,,,,,,,,,,,,,
COM,43.441,-11.732,Comores,,#edc949,small nation,7,7,,,,,,,,,,,,,,,,,,,,,,,,,,,,,,
CPV,-23.605,15.12,Cape Verde,,#af7aa1,small nation,7,7,,,,,,,,,,,,,,,,,,,,,,,,,,,,,,
DGA,72.397,-7.344,Diego Garcia,,#ff9da7,small nation,7,7,,,,,,,,,,,,,,,,,,,,,,,,,,,,,,
DMA,-61.371,15.415,Dominica,,#9c755f,small nation,7,7,,,,,,,,,,,,,,,,,,,,,,,,,,,,,,
FSM,158.215,6.887,Micronesia,,#4e79a7,small nation,7,7,,,,,,,,,,,,,,,,,,,,,,,,,,,,,,
GRD,-61.679,12.117,Grenada,,#f28e2c,small nation,7,7,,,,,,,,,,,,,,,,,,,,,,,,,,,,,,
HKG,114.109,22.396,"Hong Kong, China",,#e15759,small nation,7,7,,,,,,,,,,,,,,,,,,,,,,,,,,,,,,
KIR,-157.363,1.871,Kiribati,,#76b7b2,small nation,7,7,,,,,,,,,,,,,,,,,,,,,,,,,,,,,,
KNA,-62.783,17.358,St. Kitts and Nevis,,#59a14f,small nation,7,7,,,,,,,,,,,,,,,,,,,,,,,,,,,,,,
LCA,-60.979,13.909,St. Lucia,,#edc949,small nation,7,7,,,,,,,,,,,,,,,,,,,,,,,,,,,,,,
LIE,9.46,47.16,Liechtenstein,,#af7aa1,small nation,7,7,,,,,,,,,,,,,,,,,,,,,,,,,,,,,,
MAC,113.544,22.199,"Macao, China",,#ff9da7,small nation,7,7,,,,,,,,,,,,,,,,,,,,,,,,,,,,,,
MCO,7.42,43.73,Monaco,,#9c755f,small nation,7,7,,,,,,,,,,,,,,,,,,,,,,,,,,,,,,
MDV,73.536,1.977,Maldives,,#4e79a7,small nation,7,7,,,,,,,,,,,,,,,,,,,,,,,,,,,,,,
MHL,171.989,6.068,Marshall Islands,,#f28e2c,small nation,7,7,,,,,,,,,,,,,,,,,,,,,,,,,,,,,,
MLT,14.384,35.945,Malta,,#e15759,small nation,7,7,,,,,,,,,,,,,,,,,,,,,,,,,,,,,,
MUS,57.552,-20.348,Mauritius,,#76b7b2,small nation,7,7,,,,,,,,,,,,,,,,,,,,,,,,,,,,,,
MYT,45.159,-12.821,Mayotte,,#59a14f,small nation,7,7,,,,,,,,,,,,,,,,,,,,,,,,,,,,,,
NIU,-169.861,-19.054,Niue,,#edc949,small nation,7,7,,,,,,,,,,,,,,,,,,,,,,,,,,,,,,
NRU,166.932,-0.525,Nauru,,#af7aa1,small nation,7,7,,,,,,,,,,,,,,,,,,,,,,,,,,,,,,
PLW,134.496,7.324,Palaos,,#ff9da7,small nation,7,7,,,,,,,,,,,,,,,,,,,,,,,,,,,,,,
REU,55.532,-21.144,La Réunion,,#9c755f,small nation,7,7,,,,,,,,,,,,,,,,,,,,,,,,,,,,,,
SGP,103.82,1.352,Singapore,,#4e79a7,small nation,7,7,,,,,,,,,,,,,,,,,,,,,,,,,,,,,,
SMR,12.45,43.94,San Marino,,#f28e2c,small nation,7,7,,,,,,,,,,,,,,,,,,,,,,,,,,,,,,
STP,6.594,0.224,S. Tomé & Principe,,#e15759,small nation,7,7,,,,,,,,,,,,,,,,,,,,,,,,,,,,,,
SYC,55.492,-4.68,Seychelles,,#76b7b2,small nation,7,7,,,,,,,,,,,,,,,,,,,,,,,,,,,,,,
TKL,-171.814,-9.183,Tokelau,,#59a14f,small nation,7,7,,,,,,,,,,,,,,,,,,,,,,,,,,,,,,
TON,-175.203,-21.202,Tonga,,#edc949,small nation,7,7,,,,,,,,,,,,,,,,,,,,,,,,,,,,,,
TUV,179.158,-8.641,Tuvalu,,#af7aa1,small nation,7,7,,,,,,,,,,,,,,,,,,,,,,,,,,,,,,
VAT,12.45,41.9,Vatican,,#ff9da7,small nation,7,7,,,,,,,,,,,,,,,,,,,,,,,,,,,,,,
VCT,-61.197,13.266,St. Vincent and the G.,,#9c755f,small nation,7,7,,,,,,,,,,,,,,,,,,,,,,,,,,,,,,
WSM,-172.105,-13.759,Samoa,,#4e79a7,small nation,7,7,,,,,,,,,,,,,,,,,,,,,,,,,,,,,,